{
"type": "FeatureCollection",
"name": "geo_37_訪問看護",
"crs": { "type": "name", "properties": { "name": "urn:ogc:def:crs:OGC:1.3:CRS84" } },
"features": [
{ "type": "Feature", "properties": { "内容": "訪問看護ステーション　きょうか【訪問看護】香川県高松市春日町437番地1有料老人ホーム　きょうか　2階", "url": "https://www.kaigokensaku.mhlw.go.jp/37/index.php?action_kouhyou_detail_004_kani=true&JigyosyoCd=3760190904-00&ServiceCd=130&Type=search", "url2": "http://www.tomohiro-sk.jp/tomohiro.html" }, "geometry": { "type": "Point", "coordinates": [ 134.091145399999988, 34.3222165 ] } },
{ "type": "Feature", "properties": { "内容": "訪問看護ステーション藤塚【訪問看護】香川県高松市伏石町2005-9", "url": "https://www.kaigokensaku.mhlw.go.jp/37/index.php?action_kouhyou_detail_004_kani=true&JigyosyoCd=3760190698-00&ServiceCd=130&Type=search", "url2": "https://sun‐walk.co.jp/" }, "geometry": { "type": "Point", "coordinates": [ 134.055398155655325, 34.321546150570285 ] } },
{ "type": "Feature", "properties": { "内容": "独立行政法人地域医療機能推進機構りつりん病院附属訪問看護ステーション【訪問看護】香川県高松市栗林町3丁目5番9号", "url": "https://www.kaigokensaku.mhlw.go.jp/37/index.php?action_kouhyou_detail_004_kani=true&JigyosyoCd=3760190433-00&ServiceCd=130&Type=search", "url2": null }, "geometry": { "type": "Point", "coordinates": [ 134.050480099999959, 34.3287559 ] } },
{ "type": "Feature", "properties": { "内容": "訪問看護ステーション輝【訪問看護】香川県高松市一宮町1835-21", "url": "https://www.kaigokensaku.mhlw.go.jp/37/index.php?action_kouhyou_detail_004_kani=true&JigyosyoCd=3760191001-00&ServiceCd=130&Type=search", "url2": null }, "geometry": { "type": "Point", "coordinates": [ 134.021189099999987, 34.2848965 ] } },
{ "type": "Feature", "properties": { "内容": "訪問看護ステーションなごみ【訪問看護】香川県高松市福岡町4丁目20番8号", "url": "https://www.kaigokensaku.mhlw.go.jp/37/index.php?action_kouhyou_detail_004_kani=true&JigyosyoCd=3760190292-00&ServiceCd=130&Type=search", "url2": "http://www.matsu-h.jp" }, "geometry": { "type": "Point", "coordinates": [ 134.069946814993955, 34.341252365218757 ] } },
{ "type": "Feature", "properties": { "内容": "訪問ナースステーション・光華【訪問看護】香川県高松市伏石町2094-1住宅型有料老人ホーム内", "url": "https://www.kaigokensaku.mhlw.go.jp/37/index.php?action_kouhyou_detail_004_kani=true&JigyosyoCd=3760190367-00&ServiceCd=130&Type=search", "url2": "http://s-kohka.jp/" }, "geometry": { "type": "Point", "coordinates": [ 134.05823241431321, 34.311745901577822 ] } },
{ "type": "Feature", "properties": { "内容": "訪問看護ステーションみやけ【訪問看護】香川県高松市天神前5番5号一般財団法人　三宅医学研究所　附属三宅リハビリテーション病院2階", "url": "https://www.kaigokensaku.mhlw.go.jp/37/index.php?action_kouhyou_detail_004_kani=true&JigyosyoCd=3760190102-00&ServiceCd=130&Type=search", "url2": "http://www.miyake.or.jp" }, "geometry": { "type": "Point", "coordinates": [ 134.045068600000036, 34.3400936 ] } },
{ "type": "Feature", "properties": { "内容": "訪問看護ステーションあんず【訪問看護】香川県高松市林町2559番地6", "url": "https://www.kaigokensaku.mhlw.go.jp/37/index.php?action_kouhyou_detail_004_kani=true&JigyosyoCd=3760190425-00&ServiceCd=130&Type=search", "url2": null }, "geometry": { "type": "Point", "coordinates": [ 134.07145730000002, 34.3028473 ] } },
{ "type": "Feature", "properties": { "内容": "おとなとこどもの訪問看護ステーション　アイニティ【訪問看護】香川県高松市亀田南町732-1ニューピアパークⅠD棟202号室", "url": "https://www.kaigokensaku.mhlw.go.jp/37/index.php?action_kouhyou_detail_004_kani=true&JigyosyoCd=3760190987-00&ServiceCd=130&Type=search", "url2": "http://hp.kaipoke.biz/my0/" }, "geometry": { "type": "Point", "coordinates": [ 134.1142803, 34.2738971 ] } },
{ "type": "Feature", "properties": { "内容": "訪問看護ステーションえん【訪問看護】香川県高松市屋島東町1095－15ファミール壇ノ浦101", "url": "https://www.kaigokensaku.mhlw.go.jp/37/index.php?action_kouhyou_detail_004_kani=true&JigyosyoCd=3760191126-00&ServiceCd=130&Type=search", "url2": null }, "geometry": { "type": "Point", "coordinates": [ 134.119106, 34.3514521 ] } },
{ "type": "Feature", "properties": { "内容": "訪問看護ステーションうらら【訪問看護】香川県高松市香南町由佐205番地1", "url": "https://www.kaigokensaku.mhlw.go.jp/37/index.php?action_kouhyou_detail_004_kani=true&JigyosyoCd=3760190615-00&ServiceCd=130&Type=search", "url2": "https://urara.co.jp/" }, "geometry": { "type": "Point", "coordinates": [ 134.020096538484125, 34.238511192288215 ] } },
{ "type": "Feature", "properties": { "内容": "訪問看護ステーションあさぎ【訪問看護】香川県高松市太田上町318番地1フェリス太田202号室", "url": "https://www.kaigokensaku.mhlw.go.jp/37/index.php?action_kouhyou_detail_004_kani=true&JigyosyoCd=3760191175-00&ServiceCd=130&Type=search", "url2": "https://www.asagi-homecare.com/" }, "geometry": { "type": "Point", "coordinates": [ 134.0398658, 34.2951721 ] } },
{ "type": "Feature", "properties": { "内容": "訪問看護ステーションあいリンク【訪問看護】香川県高松市太田下町2167-1", "url": "https://www.kaigokensaku.mhlw.go.jp/37/index.php?action_kouhyou_detail_004_kani=true&JigyosyoCd=3760190888-00&ServiceCd=130&Type=search", "url2": "https://www.airink.co/" }, "geometry": { "type": "Point", "coordinates": [ 134.039907239946984, 34.308765179227194 ] } },
{ "type": "Feature", "properties": { "内容": "訪問看護ステ－ション山下【訪問看護】香川県高松市太田上町1060番地14", "url": "https://www.kaigokensaku.mhlw.go.jp/37/index.php?action_kouhyou_detail_004_kani=true&JigyosyoCd=3760191142-00&ServiceCd=130&Type=search", "url2": null }, "geometry": { "type": "Point", "coordinates": [ 134.0421308, 34.3025595 ] } },
{ "type": "Feature", "properties": { "内容": "ナース亀【訪問看護】香川県高松市仏生山町甲１８５－４", "url": "https://www.kaigokensaku.mhlw.go.jp/37/index.php?action_kouhyou_detail_004_kani=true&JigyosyoCd=3760190631-00&ServiceCd=130&Type=search", "url2": null }, "geometry": { "type": "Point", "coordinates": [ 134.0429342, 34.2820586 ] } },
{ "type": "Feature", "properties": { "内容": "訪問看護ステーション　ハートリス【訪問看護】高松市仏生山町甲1906-2", "url": "https://www.kaigokensaku.mhlw.go.jp/37/index.php?action_kouhyou_detail_004_kani=true&JigyosyoCd=3760190136-00&ServiceCd=130&Type=search", "url2": null }, "geometry": { "type": "Point", "coordinates": [ 134.038168632518364, 34.273888964910384 ] } },
{ "type": "Feature", "properties": { "内容": "訪問看護ステーションやすもり【訪問看護】高松市飯田町526番地3", "url": "https://www.kaigokensaku.mhlw.go.jp/37/index.php?action_kouhyou_detail_004_kani=true&JigyosyoCd=3760190565-00&ServiceCd=130&Type=search", "url2": "https://hp.kaipoke.biz/r53/" }, "geometry": { "type": "Point", "coordinates": [ 133.998076161323553, 34.320998992655525 ] } },
{ "type": "Feature", "properties": { "内容": "公益社団法人　香川県看護協会　高松訪問看護ステーション【訪問看護】香川県高松市太田下町3026-3", "url": "https://www.kaigokensaku.mhlw.go.jp/37/index.php?action_kouhyou_detail_004_kani=true&JigyosyoCd=3760190011-00&ServiceCd=130&Type=search", "url2": "https://kagawa-kango.com/vnst/takamatsu/" }, "geometry": { "type": "Point", "coordinates": [ 134.055824084130819, 34.30538050713016 ] } },
{ "type": "Feature", "properties": { "内容": "訪問看護ステーションわいな【訪問看護】香川県高松市六条町14-2　2階", "url": "https://www.kaigokensaku.mhlw.go.jp/37/index.php?action_kouhyou_detail_004_kani=true&JigyosyoCd=3760190938-00&ServiceCd=130&Type=search", "url2": null }, "geometry": { "type": "Point", "coordinates": [ 134.087835906053897, 34.293272604463162 ] } },
{ "type": "Feature", "properties": { "内容": "訪問看護ステーションこじゃんと【訪問看護】香川県高松市国分寺町福家甲４９５番地１４", "url": "https://www.kaigokensaku.mhlw.go.jp/37/index.php?action_kouhyou_detail_004_kani=true&JigyosyoCd=3760190797-00&ServiceCd=130&Type=search", "url2": "https://www.taiheiyo-kojanto.jp" }, "geometry": { "type": "Point", "coordinates": [ 133.981361635438702, 34.270524468756477 ] } },
{ "type": "Feature", "properties": { "内容": "訪問看護ステーションLapause【訪問看護】高松市宮脇町2丁目8番7号304号室", "url": "https://www.kaigokensaku.mhlw.go.jp/37/index.php?action_kouhyou_detail_004_kani=true&JigyosyoCd=3760190946-00&ServiceCd=130&Type=search", "url2": "https//www.welcome-lapause.com" }, "geometry": { "type": "Point", "coordinates": [ 134.036077, 34.3333839 ] } },
{ "type": "Feature", "properties": { "内容": "訪問看護ステーションANSA【訪問看護】香川県高松市牟礼町原1192番地2‐2階", "url": "https://www.kaigokensaku.mhlw.go.jp/37/index.php?action_kouhyou_detail_004_kani=true&JigyosyoCd=3760190623-00&ServiceCd=130&Type=search", "url2": null }, "geometry": { "type": "Point", "coordinates": [ 134.13207710000006, 34.3394411 ] } },
{ "type": "Feature", "properties": { "内容": "ＨＯＭＥナース・リハビリふぁーすとケア【訪問看護】円座町１１９３番地４レトア円座102", "url": "https://www.kaigokensaku.mhlw.go.jp/37/index.php?action_kouhyou_detail_004_kani=true&JigyosyoCd=3760191282-00&ServiceCd=130&Type=search", "url2": "https://first-care-riha.com/" }, "geometry": { "type": "Point", "coordinates": [ 134.0130893, 34.2887409 ] } },
{ "type": "Feature", "properties": { "内容": "訪問看護ステーション　やまもと【訪問看護】香川県高松市塩上町一丁目4番10", "url": "https://www.kaigokensaku.mhlw.go.jp/37/index.php?action_kouhyou_detail_004_kani=true&JigyosyoCd=3760190656-00&ServiceCd=130&Type=search", "url2": "http://www.yamamoto-a.co.jp" }, "geometry": { "type": "Point", "coordinates": [ 134.054113615544139, 34.33804047168482 ] } },
{ "type": "Feature", "properties": { "内容": "訪問看護ステーション菜の花【訪問看護】香川県高松市香川町川東下446-1", "url": "https://www.kaigokensaku.mhlw.go.jp/37/index.php?action_kouhyou_detail_004_kani=true&JigyosyoCd=3760190995-00&ServiceCd=130&Type=search", "url2": null }, "geometry": { "type": "Point", "coordinates": [ 134.029015967459173, 34.237718342197041 ] } },
{ "type": "Feature", "properties": { "内容": "訪問看護ステーション　ねがい【訪問看護】香川県高松市香川町209番地２", "url": "https://www.kaigokensaku.mhlw.go.jp/37/index.php?action_kouhyou_detail_004_kani=true&JigyosyoCd=3760190748-00&ServiceCd=130&Type=search", "url2": null }, "geometry": { "type": "Point", "coordinates": [ 134.032706100000041, 34.2613575 ] } },
{ "type": "Feature", "properties": { "内容": "すみれ訪問看護ステーション【訪問看護】香川県高松市鬼無町藤井122番地", "url": "https://www.kaigokensaku.mhlw.go.jp/37/index.php?action_kouhyou_detail_004_kani=true&JigyosyoCd=3760190722-00&ServiceCd=130&Type=search", "url2": null }, "geometry": { "type": "Point", "coordinates": [ 133.996931632869746, 34.328101648689554 ] } },
{ "type": "Feature", "properties": { "内容": "ひまわり訪問看護ステーション【訪問看護】香川県高松市鬼無町藤井122番地", "url": "https://www.kaigokensaku.mhlw.go.jp/37/index.php?action_kouhyou_detail_004_kani=true&JigyosyoCd=3760190979-00&ServiceCd=130&Type=search", "url2": null }, "geometry": { "type": "Point", "coordinates": [ 133.997021214155581, 34.328066637444465 ] } },
{ "type": "Feature", "properties": { "内容": "セントケア訪問看護ステーション高松【訪問看護】香川県高松市勅使町634番地1", "url": "https://www.kaigokensaku.mhlw.go.jp/37/index.php?action_kouhyou_detail_004_kani=true&JigyosyoCd=3760190441-00&ServiceCd=130&Type=search", "url2": null }, "geometry": { "type": "Point", "coordinates": [ 134.014416200000028, 34.307638100000034 ] } },
{ "type": "Feature", "properties": { "内容": "創心会訪問看護リハビリステーション高松中央【訪問看護】香川県高松市六条町168-3", "url": "https://www.kaigokensaku.mhlw.go.jp/37/index.php?action_kouhyou_detail_004_kani=true&JigyosyoCd=3760190730-00&ServiceCd=130&Type=search", "url2": "https://www.soushinkai.com" }, "geometry": { "type": "Point", "coordinates": [ 134.089163500000041, 34.2991978 ] } },
{ "type": "Feature", "properties": { "内容": "IMC訪問看護ステーション【訪問看護】香川県高松市下田井町80番地2", "url": "https://www.kaigokensaku.mhlw.go.jp/37/index.php?action_kouhyou_detail_004_kani=true&JigyosyoCd=3760190649-00&ServiceCd=130&Type=search", "url2": "https://imc-ls.com/" }, "geometry": { "type": "Point", "coordinates": [ 134.091102066270423, 34.298069991033394 ] } },
{ "type": "Feature", "properties": { "内容": "特定非営利活動法人自立ケアシステム香川　訪問看護ステーション【訪問看護】香川県高松市田村町1200-1", "url": "https://www.kaigokensaku.mhlw.go.jp/37/index.php?action_kouhyou_detail_004_kani=true&JigyosyoCd=3760190672-00&ServiceCd=130&Type=search", "url2": "https://caresys-kg-houkan.jimdofree.com/" }, "geometry": { "type": "Point", "coordinates": [ 134.0335847, 34.3065968 ] } },
{ "type": "Feature", "properties": { "内容": "訪問看護ステーション　デューン高松【訪問看護】香川県高松市塩上町１丁目5-7エトワールレーベン２階", "url": "https://www.kaigokensaku.mhlw.go.jp/37/index.php?action_kouhyou_detail_004_kani=true&JigyosyoCd=3760190391-00&ServiceCd=130&Type=search", "url2": null }, "geometry": { "type": "Point", "coordinates": [ 134.0539901, 34.3375055 ] } },
{ "type": "Feature", "properties": { "内容": "訪問看護ステーション　デューン栗林【訪問看護】香川県高松市中央町16-16ストーリァ中央町1F号室", "url": "https://www.kaigokensaku.mhlw.go.jp/37/index.php?action_kouhyou_detail_004_kani=true&JigyosyoCd=3760190813-00&ServiceCd=130&Type=search", "url2": null }, "geometry": { "type": "Point", "coordinates": [ 134.0443876, 34.3357058 ] } },
{ "type": "Feature", "properties": { "内容": "訪問看護ステーションPb【訪問看護】香川県高松市勅使町１１６８－１WLCビル202号室", "url": "https://www.kaigokensaku.mhlw.go.jp/37/index.php?action_kouhyou_detail_004_kani=true&JigyosyoCd=3760191084-00&ServiceCd=130&Type=search", "url2": "https://houkan-pb.jp/" }, "geometry": { "type": "Point", "coordinates": [ 134.0245591, 34.3049742 ] } },
{ "type": "Feature", "properties": { "内容": "セントケア訪問看護ステーション高松東【訪問看護】前田東町719－6", "url": "https://www.kaigokensaku.mhlw.go.jp/37/index.php?action_kouhyou_detail_004_kani=true&JigyosyoCd=3760191118-00&ServiceCd=130&Type=search", "url2": "hittp://www.saint-care.com/" }, "geometry": { "type": "Point", "coordinates": [ 134.1129439, 34.29331030000003 ] } },
{ "type": "Feature", "properties": { "内容": "訪問看護ステーション　ひまわり【訪問看護】香川県高松市栗林町1-3-23", "url": "https://www.kaigokensaku.mhlw.go.jp/37/index.php?action_kouhyou_detail_004_kani=true&JigyosyoCd=3760190029-00&ServiceCd=130&Type=search", "url2": "hittp://www.kagawa.coop/" }, "geometry": { "type": "Point", "coordinates": [ 134.046902199999977, 34.3317528 ] } },
{ "type": "Feature", "properties": { "内容": "訪問看護ステーションやしま【訪問看護】香川県高松市屋島西町2105番17", "url": "https://www.kaigokensaku.mhlw.go.jp/37/index.php?action_kouhyou_detail_004_kani=true&JigyosyoCd=3760190052-00&ServiceCd=130&Type=search", "url2": "https://www.yashima-hp.com/" }, "geometry": { "type": "Point", "coordinates": [ 134.090208971766629, 34.343569922618194 ] } },
{ "type": "Feature", "properties": { "内容": "プライマリケア訪問看護ステーション【訪問看護】木太町1862-9", "url": "https://www.kaigokensaku.mhlw.go.jp/37/index.php?action_kouhyou_detail_004_kani=true&JigyosyoCd=3760190219-00&ServiceCd=130&Type=search", "url2": "https://www.primarycare2011.com/" }, "geometry": { "type": "Point", "coordinates": [ 134.069892500000037, 34.326661800000011 ] } },
{ "type": "Feature", "properties": { "内容": "訪問看護ステーション　恵【訪問看護】香川県高松市多肥上町１４１１番地１", "url": "https://www.kaigokensaku.mhlw.go.jp/37/index.php?action_kouhyou_detail_004_kani=true&JigyosyoCd=3760190706-00&ServiceCd=130&Type=search", "url2": null }, "geometry": { "type": "Point", "coordinates": [ 134.058945, 34.294493 ] } },
{ "type": "Feature", "properties": { "内容": "アシストジャパン訪問看護ステーション香川【訪問看護】国分寺町新居1393-1福江ビル２階E", "url": "https://www.kaigokensaku.mhlw.go.jp/37/index.php?action_kouhyou_detail_004_kani=true&JigyosyoCd=3760290027-00&ServiceCd=130&Type=search", "url2": "http://www.assistjapan.com" }, "geometry": { "type": "Point", "coordinates": [ 133.961786043841613, 34.299099814213044 ] } },
{ "type": "Feature", "properties": { "内容": "訪問看護ステーションケアライン【訪問看護】香川県高松市太田下町2645-1ケアステーション太田下町2階", "url": "https://www.kaigokensaku.mhlw.go.jp/37/index.php?action_kouhyou_detail_004_kani=true&JigyosyoCd=3760190334-00&ServiceCd=130&Type=search", "url2": "http：//caｒe-ｌiｎe.ｃo.ｊｐ/" }, "geometry": { "type": "Point", "coordinates": [ 134.05017444488945, 34.308503502693085 ] } },
{ "type": "Feature", "properties": { "内容": "訪問看護ステーション福【訪問看護】香川県高松市檀紙町1133-2アネックスカガワＡ103", "url": "https://www.kaigokensaku.mhlw.go.jp/37/index.php?action_kouhyou_detail_004_kani=true&JigyosyoCd=3760190573-00&ServiceCd=130&Type=search", "url2": "https://huku.kagawa.jp" }, "geometry": { "type": "Point", "coordinates": [ 138.252924, 36.204824 ] } },
{ "type": "Feature", "properties": { "内容": "訪問看護ステーション　ラブハート【訪問看護】中間町654-8", "url": "https://www.kaigokensaku.mhlw.go.jp/37/index.php?action_kouhyou_detail_004_kani=true&JigyosyoCd=3760191258-00&ServiceCd=130&Type=search", "url2": "https://www.atsukingdom.jp/" }, "geometry": { "type": "Point", "coordinates": [ 133.9898331, 34.2955255 ] } },
{ "type": "Feature", "properties": { "内容": "医療法人社団　伸萌会　訪問看護ステーションハピネス【訪問看護】高松市中山町７７２－１", "url": "https://www.kaigokensaku.mhlw.go.jp/37/index.php?action_kouhyou_detail_004_kani=true&JigyosyoCd=3760190037-00&ServiceCd=130&Type=search", "url2": "http://www.shinboukai.net/" }, "geometry": { "type": "Point", "coordinates": [ 133.973047100000031, 34.356890300000011 ] } },
{ "type": "Feature", "properties": { "内容": "あなぶきケアサービス高松訪問看護事業所【訪問看護】伏石町2171番1アルファリビング高松伏石南内", "url": "https://www.kaigokensaku.mhlw.go.jp/37/index.php?action_kouhyou_detail_004_kani=true&JigyosyoCd=3760190342-00&ServiceCd=130&Type=search", "url2": "https://www.anabuki-medical.jp/" }, "geometry": { "type": "Point", "coordinates": [ 134.057185900000036, 34.3069621 ] } },
{ "type": "Feature", "properties": { "内容": "訪問看護ステーションきなし【訪問看護】香川県高松市鬼無町藤井392-1住宅型有料老人ホーム　キナシ1階", "url": "https://www.kaigokensaku.mhlw.go.jp/37/index.php?action_kouhyou_detail_004_kani=true&JigyosyoCd=3760190524-00&ServiceCd=130&Type=search", "url2": "https://www.obayashihp.or.jp/zaitaku/houkan.html" }, "geometry": { "type": "Point", "coordinates": [ 134.002694919712894, 34.332246798476355 ] } },
{ "type": "Feature", "properties": { "内容": "社会福祉法人　高松市社会福祉協議会訪問看護ステーション【訪問看護】香川県高松市福岡町二丁目24番10号", "url": "https://www.kaigokensaku.mhlw.go.jp/37/index.php?action_kouhyou_detail_004_kani=true&JigyosyoCd=3760190557-00&ServiceCd=130&Type=search", "url2": "http:/www.takamatsushi-syakyo.or.jp/" }, "geometry": { "type": "Point", "coordinates": [ 133.965335099999947, 34.297688500000014 ] } },
{ "type": "Feature", "properties": { "内容": "訪問看護ステーション　ナイス【訪問看護】香川県高松市上福岡町2031番地14TMハイツ　101号", "url": "https://www.kaigokensaku.mhlw.go.jp/37/index.php?action_kouhyou_detail_004_kani=true&JigyosyoCd=3760190961-00&ServiceCd=130&Type=search", "url2": "https://to-the-next-stage.com/" }, "geometry": { "type": "Point", "coordinates": [ 134.060848, 34.328152 ] } },
{ "type": "Feature", "properties": { "内容": "訪問看護ステーション　瑞穂【訪問看護】香川県高松市香南町由佐210番地2", "url": "https://www.kaigokensaku.mhlw.go.jp/37/index.php?action_kouhyou_detail_004_kani=true&JigyosyoCd=3760191019-00&ServiceCd=130&Type=search", "url2": "https://ayada-clinic-yuusyoukai.com/" }, "geometry": { "type": "Point", "coordinates": [ 134.0211426, 34.2388438 ] } },
{ "type": "Feature", "properties": { "内容": "訪問看護　プレヴナンス【訪問看護】香川県高松市春日町431番地35", "url": "https://www.kaigokensaku.mhlw.go.jp/37/index.php?action_kouhyou_detail_004_kani=true&JigyosyoCd=3760191035-00&ServiceCd=130&Type=search", "url2": null }, "geometry": { "type": "Point", "coordinates": [ 134.091741835581956, 34.322191023162389 ] } },
{ "type": "Feature", "properties": { "内容": "ほうもんかんごすてーしょんあん【訪問看護】香川県高松市牟礼町大町1580-1", "url": "https://www.kaigokensaku.mhlw.go.jp/37/index.php?action_kouhyou_detail_004_kani=true&JigyosyoCd=3760191159-00&ServiceCd=130&Type=search", "url2": "http//dbs-an.com" }, "geometry": { "type": "Point", "coordinates": [ 134.1423738, 34.3347077 ] } },
{ "type": "Feature", "properties": { "内容": "訪問看護ステーション共生【訪問看護】出作町377番地5", "url": "https://www.kaigokensaku.mhlw.go.jp/37/index.php?action_kouhyou_detail_004_kani=true&JigyosyoCd=3760190680-00&ServiceCd=130&Type=search", "url2": "http//kyousei-kagawa.net./index.html" }, "geometry": { "type": "Point", "coordinates": [ 134.04869020000001, 34.2851021 ] } },
{ "type": "Feature", "properties": { "内容": "訪問看護ステーション　かけはし【訪問看護】香川県高松市前田西町98番地1", "url": "https://www.kaigokensaku.mhlw.go.jp/37/index.php?action_kouhyou_detail_004_kani=true&JigyosyoCd=3760190516-00&ServiceCd=130&Type=search", "url2": null }, "geometry": { "type": "Point", "coordinates": [ 134.110204411690006, 34.301574960795818 ] } },
{ "type": "Feature", "properties": { "内容": "訪問看護ステーション　なつめ【訪問看護】香川県高松市木太町1188-2", "url": "https://www.kaigokensaku.mhlw.go.jp/37/index.php?action_kouhyou_detail_004_kani=true&JigyosyoCd=3760190326-00&ServiceCd=130&Type=search", "url2": null }, "geometry": { "type": "Point", "coordinates": [ 134.06977, 34.3202266 ] } },
{ "type": "Feature", "properties": { "内容": "公益社団法人香川県看護協会訪問看護ステーションこくぶ【訪問看護】香川県高松市国分寺町国分１５２－４", "url": "https://www.kaigokensaku.mhlw.go.jp/37/index.php?action_kouhyou_detail_004_kani=true&JigyosyoCd=3761590029-00&ServiceCd=130&Type=search", "url2": "https://kagawa-kango.com/vnst/kokubu/" }, "geometry": { "type": "Point", "coordinates": [ 133.956338599999981, 34.2996855 ] } },
{ "type": "Feature", "properties": { "内容": "訪問看護すてーしょんこころ【訪問看護】香川県高松市藤塚町3-8-16パインズスクエア１階", "url": "https://www.kaigokensaku.mhlw.go.jp/37/index.php?action_kouhyou_detail_004_kani=true&JigyosyoCd=3760190490-00&ServiceCd=130&Type=search", "url2": null }, "geometry": { "type": "Point", "coordinates": [ 134.053479462617702, 34.333938602533109 ] } },
{ "type": "Feature", "properties": { "内容": "いしかわ訪問看護ステーション【訪問看護】香川県高松市香西南町520番地5　勝賀マンション203号", "url": "https://www.kaigokensaku.mhlw.go.jp/37/index.php?action_kouhyou_detail_004_kani=true&JigyosyoCd=3760190581-00&ServiceCd=130&Type=search", "url2": "http://riverstone-kgw.jp" }, "geometry": { "type": "Point", "coordinates": [ 134.001529044955049, 34.343542275522736 ] } },
{ "type": "Feature", "properties": { "内容": "いちご訪問看護ステーション24【訪問看護】香川県高松市十川西町418番地4", "url": "https://www.kaigokensaku.mhlw.go.jp/37/index.php?action_kouhyou_detail_004_kani=true&JigyosyoCd=3760190839-00&ServiceCd=130&Type=search", "url2": null }, "geometry": { "type": "Point", "coordinates": [ 134.1020283, 34.2749046 ] } },
{ "type": "Feature", "properties": { "内容": "訪問看護ステーション　きづき【訪問看護】香川県高松市上林町541-3", "url": "https://www.kaigokensaku.mhlw.go.jp/37/index.php?action_kouhyou_detail_004_kani=true&JigyosyoCd=3760190847-00&ServiceCd=130&Type=search", "url2": "https://www.restlife.jp/" }, "geometry": { "type": "Point", "coordinates": [ 134.06604570608215, 34.290215947434035 ] } },
{ "type": "Feature", "properties": { "内容": "HomeNurse　結【訪問看護】香川県高松市川島本町425-1２階", "url": "https://www.kaigokensaku.mhlw.go.jp/37/index.php?action_kouhyou_detail_004_kani=true&JigyosyoCd=3760190862-00&ServiceCd=130&Type=search", "url2": "https://www.hnyui.net/" }, "geometry": { "type": "Point", "coordinates": [ 134.0821958, 34.2765231 ] } },
{ "type": "Feature", "properties": { "内容": "訪問看護ステーションウィズユー【訪問看護】香川県高松市香川町大野459-5", "url": "https://www.kaigokensaku.mhlw.go.jp/37/index.php?action_kouhyou_detail_004_kani=true&JigyosyoCd=3760190409-00&ServiceCd=130&Type=search", "url2": null }, "geometry": { "type": "Point", "coordinates": [ 134.02818098280332, 34.256170503689255 ] } },
{ "type": "Feature", "properties": { "内容": "医心館訪問看護ステーション高松【訪問看護】香川県高松市木太町5013番地5", "url": "https://www.kaigokensaku.mhlw.go.jp/37/index.php?action_kouhyou_detail_004_kani=true&JigyosyoCd=3760191191-00&ServiceCd=130&Type=search", "url2": null }, "geometry": { "type": "Point", "coordinates": [ 134.0697384, 34.3175243 ] } },
{ "type": "Feature", "properties": { "内容": "訪問看護ステーションにこっと【訪問看護】香川県高松市上之町2丁目17-28", "url": "https://www.kaigokensaku.mhlw.go.jp/37/index.php?action_kouhyou_detail_004_kani=true&JigyosyoCd=3760191324-00&ServiceCd=130&Type=search", "url2": null }, "geometry": { "type": "Point", "coordinates": [ 134.0492538, 34.3187664 ] } },
{ "type": "Feature", "properties": { "内容": "ゆらり訪問看護ステーション【訪問看護】香川県高松市前田東町958番地", "url": "https://www.kaigokensaku.mhlw.go.jp/37/index.php?action_kouhyou_detail_004_kani=true&JigyosyoCd=3760191209-00&ServiceCd=130&Type=search", "url2": "https://naaas.jp" }, "geometry": { "type": "Point", "coordinates": [ 134.1091118, 34.2917503 ] } },
{ "type": "Feature", "properties": { "内容": "訪問看護たんぽぽのわたげ【訪問看護】東山崎町960番地１", "url": "https://www.kaigokensaku.mhlw.go.jp/37/index.php?action_kouhyou_detail_004_kani=true&JigyosyoCd=3760190953-00&ServiceCd=130&Type=search", "url2": "https://tanpopo-w.com/" }, "geometry": { "type": "Point", "coordinates": [ 134.0936543, 34.303817100000032 ] } },
{ "type": "Feature", "properties": { "内容": "訪問看護ステーション　あした【訪問看護】香川県高松市屋島西町２４８４番地１８ウエストコーストヤシマ　Ａ２０３号室", "url": "https://www.kaigokensaku.mhlw.go.jp/37/index.php?action_kouhyou_detail_004_kani=true&JigyosyoCd=3760190151-00&ServiceCd=130&Type=search", "url2": null }, "geometry": { "type": "Point", "coordinates": [ 134.0887712, 34.3504452 ] } },
{ "type": "Feature", "properties": { "内容": "コンパス訪問看護高松【訪問看護】香川県高松市高松町2325番地5", "url": "https://www.kaigokensaku.mhlw.go.jp/37/index.php?action_kouhyou_detail_004_kani=true&JigyosyoCd=3760191316-00&ServiceCd=130&Type=search", "url2": null }, "geometry": { "type": "Point", "coordinates": [ 134.1164003, 34.3395427 ] } },
{ "type": "Feature", "properties": { "内容": "リハビリ訪問看護　きらっとテラス【訪問看護】十川東町330-1クレイン88　A101", "url": "https://www.kaigokensaku.mhlw.go.jp/37/index.php?action_kouhyou_detail_004_kani=true&JigyosyoCd=3760190771-00&ServiceCd=130&Type=search", "url2": "https://lifeterrace.co.jp" }, "geometry": { "type": "Point", "coordinates": [ 134.110853499999962, 34.2673251 ] } },
{ "type": "Feature", "properties": { "内容": "訪問看護アイムホーム【訪問看護】香川県高松市香西東町433-1", "url": "https://www.kaigokensaku.mhlw.go.jp/37/index.php?action_kouhyou_detail_004_kani=true&JigyosyoCd=3760191092-00&ServiceCd=130&Type=search", "url2": "https://machikuri.or.jp/" }, "geometry": { "type": "Point", "coordinates": [ 134.008370265081766, 34.344875029167689 ] } },
{ "type": "Feature", "properties": { "内容": "訪問看護ステーション　ひなた【訪問看護】香川県高松市室町1903番地4", "url": "https://www.kaigokensaku.mhlw.go.jp/37/index.php?action_kouhyou_detail_004_kani=true&JigyosyoCd=3760190763-00&ServiceCd=130&Type=search", "url2": null }, "geometry": { "type": "Point", "coordinates": [ 134.0435733, 34.3254868 ] } },
{ "type": "Feature", "properties": { "内容": "ツクイ高松訪問看護ステーション【訪問看護】香川県高松市中新町2-5セントラル高松中新町ビル3階", "url": "https://www.kaigokensaku.mhlw.go.jp/37/index.php?action_kouhyou_detail_004_kani=true&JigyosyoCd=3760191068-00&ServiceCd=130&Type=search", "url2": "takamatsu-hokan@tsukui.net" }, "geometry": { "type": "Point", "coordinates": [ 134.0474691, 34.3383343 ] } },
{ "type": "Feature", "properties": { "内容": "訪問看護こぐま【訪問看護】香川県高松市鶴市町８９６番地２２階", "url": "https://www.kaigokensaku.mhlw.go.jp/37/index.php?action_kouhyou_detail_004_kani=true&JigyosyoCd=3760191027-00&ServiceCd=130&Type=search", "url2": "http://s-crest.com/?utm_source=ig&utm_medium=social&utm_content=link_in_bio&fbclid=PAdGRleAPcXmFleHRuA2FlbQIxMQBzcnRjBmFwcF9pZA8xMjQwMjQ1NzQyODc0MTQAAacOdvW90-SM-Op0v8Y1Xz3mrKs5j5aQ7rG5et6hKSM2RvvjiWisduMoTgrh6g_aem_I0sQ2VA2L9EkhvZm-Y7qZA" }, "geometry": { "type": "Point", "coordinates": [ 134.0113062, 34.3340645 ] } },
{ "type": "Feature", "properties": { "内容": "訪問看護ステーション　アクア【訪問看護】香川県高松市木太町3134玉木ビル1F　B店舗", "url": "https://www.kaigokensaku.mhlw.go.jp/37/index.php?action_kouhyou_detail_004_kani=true&JigyosyoCd=3760190755-00&ServiceCd=130&Type=search", "url2": "http://hp.kaipoke.biz/fpp/" }, "geometry": { "type": "Point", "coordinates": [ 134.079674599999947, 34.3334001 ] } },
{ "type": "Feature", "properties": { "内容": "訪問看護ステーション　さくら【訪問看護】屋島西町2302番地1", "url": "https://www.kaigokensaku.mhlw.go.jp/37/index.php?action_kouhyou_detail_004_kani=true&JigyosyoCd=3760190599-00&ServiceCd=130&Type=search", "url2": null }, "geometry": { "type": "Point", "coordinates": [ 134.09105730118867, 34.355060650284443 ] } },
{ "type": "Feature", "properties": { "内容": "ゆりかごナースセンター【訪問看護】高松市松島町２丁目１２番８号", "url": "https://www.kaigokensaku.mhlw.go.jp/37/index.php?action_kouhyou_detail_004_kani=true&JigyosyoCd=3760190318-00&ServiceCd=130&Type=search", "url2": "https://ryouyounet.org" }, "geometry": { "type": "Point", "coordinates": [ 134.065247665081756, 34.338726955158329 ] } },
{ "type": "Feature", "properties": { "内容": "訪問看護ステーション　サンク【訪問看護】香川県高松市六条町1407-5ポルティエ102号", "url": "https://www.kaigokensaku.mhlw.go.jp/37/index.php?action_kouhyou_detail_004_kani=true&JigyosyoCd=3760191266-00&ServiceCd=130&Type=search", "url2": "www.sanku-llc.com" }, "geometry": { "type": "Point", "coordinates": [ 134.0809501, 34.3079176 ] } },
{ "type": "Feature", "properties": { "内容": "訪問看護ステーションさふぁいや【訪問看護】香川県高松市木太町字下西原1093-3", "url": "https://www.kaigokensaku.mhlw.go.jp/37/index.php?action_kouhyou_detail_004_kani=true&JigyosyoCd=3760190821-00&ServiceCd=130&Type=search", "url2": "https://safaiyaweb.jimdofree.com/" }, "geometry": { "type": "Point", "coordinates": [ 134.068036603298225, 34.319145574504439 ] } },
{ "type": "Feature", "properties": { "内容": "訪問看護ステーションシェアハート【訪問看護】太田上町1番地1", "url": "https://www.kaigokensaku.mhlw.go.jp/37/index.php?action_kouhyou_detail_004_kani=true&JigyosyoCd=3760191365-00&ServiceCd=130&Type=search", "url2": null }, "geometry": { "type": "Point", "coordinates": [ 134.0425247, 34.2988266 ] } },
{ "type": "Feature", "properties": { "内容": "訪問看護ステーション　シェアハートNEo【訪問看護】今里町1丁目9番地9", "url": "https://www.kaigokensaku.mhlw.go.jp/37/index.php?action_kouhyou_detail_004_kani=true&JigyosyoCd=3760191373-00&ServiceCd=130&Type=search", "url2": null }, "geometry": { "type": "Point", "coordinates": [ 134.058008300000012, 34.326117 ] } },
{ "type": "Feature", "properties": { "内容": "訪問看護ステーション　オリーブの風　たかまつ【訪問看護】鶴市町2053-8南海ビル２階東", "url": "https://www.kaigokensaku.mhlw.go.jp/37/index.php?action_kouhyou_detail_004_kani=true&JigyosyoCd=3760191415-00&ServiceCd=130&Type=search", "url2": "https://olivewind.net/" }, "geometry": { "type": "Point", "coordinates": [ 134.0092615, 34.336919 ] } },
{ "type": "Feature", "properties": { "内容": "訪問看護ステーションＱちゃん【訪問看護】香川県高松市牟礼町牟礼2083-1", "url": "https://www.kaigokensaku.mhlw.go.jp/37/index.php?action_kouhyou_detail_004_kani=true&JigyosyoCd=3760190359-00&ServiceCd=130&Type=search", "url2": "https://qchan-kango.com/" }, "geometry": { "type": "Point", "coordinates": [ 134.128861094798253, 34.343651427684897 ] } },
{ "type": "Feature", "properties": { "内容": "訪問看護ステーションはるかぜ高松【訪問看護】香川県高松市上天神町654番地1エンゼル116", "url": "https://www.kaigokensaku.mhlw.go.jp/37/index.php?action_kouhyou_detail_004_kani=true&JigyosyoCd=3760191423-00&ServiceCd=130&Type=search", "url2": null }, "geometry": { "type": "Point", "coordinates": [ 134.0361572, 34.3099151 ] } },
{ "type": "Feature", "properties": { "内容": "ソエルガーデン高松寺井訪問看護【訪問看護】香川県高松市寺井町1041番地1", "url": "https://www.kaigokensaku.mhlw.go.jp/37/index.php?action_kouhyou_detail_004_kani=true&JigyosyoCd=3760191381-00&ServiceCd=130&Type=search", "url2": "http://www.carepartner.com/service/soerugarden/" }, "geometry": { "type": "Point", "coordinates": [ 134.02602730000001, 34.2783864 ] } },
{ "type": "Feature", "properties": { "内容": "高松市立しおのえ診療所訪問看護ステーション【訪問看護】高松市塩江町安原上東９９番地１", "url": "https://www.kaigokensaku.mhlw.go.jp/37/index.php?action_kouhyou_detail_004_kani=true&JigyosyoCd=3760190128-00&ServiceCd=130&Type=search", "url2": "https://www.city.takamatsu.kagawa.jp/kurashi/kenkou/iryo/shionoe-branchhosp/index.html" }, "geometry": { "type": "Point", "coordinates": [ 134.080370600000037, 34.171441 ] } },
{ "type": "Feature", "properties": { "内容": "訪問看護ステーションあゆみ【訪問看護】香川県高松市香西本町312", "url": "https://www.kaigokensaku.mhlw.go.jp/37/index.php?action_kouhyou_detail_004_kani=true&JigyosyoCd=3760191431-00&ServiceCd=130&Type=search", "url2": "https://ayumi-hv.studio.site" }, "geometry": { "type": "Point", "coordinates": [ 134.0013284, 34.3451974 ] } },
{ "type": "Feature", "properties": { "内容": "訪問看護ステーションあまね【訪問看護】香川県高松市瓦町2丁目7-14フォルテ瓦町駅前ビル2階", "url": "https://www.kaigokensaku.mhlw.go.jp/37/index.php?action_kouhyou_detail_004_kani=true&JigyosyoCd=3760190383-00&ServiceCd=130&Type=search", "url2": null }, "geometry": { "type": "Point", "coordinates": [ 134.051462671334548, 34.339590863231606 ] } },
{ "type": "Feature", "properties": { "内容": "訪問看護ステーション-WISH-【訪問看護】上福岡町751-11", "url": "https://www.kaigokensaku.mhlw.go.jp/37/index.php?action_kouhyou_detail_004_kani=true&JigyosyoCd=3760191290-00&ServiceCd=130&Type=search", "url2": "https://www.wish528.com/" }, "geometry": { "type": "Point", "coordinates": [ 134.066963, 34.3321588 ] } },
{ "type": "Feature", "properties": { "内容": "よんでんライフケア訪問看護ステーション【訪問看護】香川県高松市昭和町一丁目7番23号", "url": "https://www.kaigokensaku.mhlw.go.jp/37/index.php?action_kouhyou_detail_004_kani=true&JigyosyoCd=3760191241-00&ServiceCd=130&Type=search", "url2": "https://www.yondenlc.co.jp/" }, "geometry": { "type": "Point", "coordinates": [ 134.034911064839832, 34.342943561438339 ] } },
{ "type": "Feature", "properties": { "内容": "訪問看護ステーションまほろば【訪問看護】香川県高松市香南町横井386番地20", "url": "https://www.kaigokensaku.mhlw.go.jp/37/index.php?action_kouhyou_detail_004_kani=true&JigyosyoCd=3760191340-00&ServiceCd=130&Type=search", "url2": "https://houkan-mahoroba-web-1.jimdosite.com" }, "geometry": { "type": "Point", "coordinates": [ 134.008949200000018, 34.245623500000022 ] } },
{ "type": "Feature", "properties": { "内容": "医療法人社団丸亀おのクリニック【訪問看護】丸亀市新町2-13", "url": "https://www.kaigokensaku.mhlw.go.jp/37/index.php?action_kouhyou_detail_004_kani=true&JigyosyoCd=3710211594-00&ServiceCd=130&Type=search", "url2": "http://www.ono-clinic.or.jp" }, "geometry": { "type": "Point", "coordinates": [ 133.792092300000036, 34.2922781 ] } },
{ "type": "Feature", "properties": { "内容": "インクルージョンホーム丸亀訪問看護事業所【訪問看護】香川県丸亀市中津町1467-1", "url": "https://www.kaigokensaku.mhlw.go.jp/37/index.php?action_kouhyou_detail_004_kani=true&JigyosyoCd=3760290167-00&ServiceCd=130&Type=search", "url2": null }, "geometry": { "type": "Point", "coordinates": [ 133.77634931520538, 34.283378291729875 ] } },
{ "type": "Feature", "properties": { "内容": "訪問看護ステーション　MasterCare【訪問看護】香川県丸亀市郡家町１７４７番地1郡家ビル南棟2F202", "url": "https://www.kaigokensaku.mhlw.go.jp/37/index.php?action_kouhyou_detail_004_kani=true&JigyosyoCd=3760290209-00&ServiceCd=130&Type=search", "url2": "https://www.master-care.jp" }, "geometry": { "type": "Point", "coordinates": [ 133.8192301, 34.2595047 ] } },
{ "type": "Feature", "properties": { "内容": "訪問看護ステーションみそら【訪問看護】香川県丸亀市飯野町東二甲1391番地3", "url": "https://www.kaigokensaku.mhlw.go.jp/37/index.php?action_kouhyou_detail_004_kani=true&JigyosyoCd=3760290183-00&ServiceCd=130&Type=search", "url2": null }, "geometry": { "type": "Point", "coordinates": [ 133.830629, 34.2779024 ] } },
{ "type": "Feature", "properties": { "内容": "訪問看護ステーション　京極の里【訪問看護】香川県丸亀市田村町905番地", "url": "https://www.kaigokensaku.mhlw.go.jp/37/index.php?action_kouhyou_detail_004_kani=true&JigyosyoCd=3760290134-00&ServiceCd=130&Type=search", "url2": null }, "geometry": { "type": "Point", "coordinates": [ 133.7944329, 34.2662396 ] } },
{ "type": "Feature", "properties": { "内容": "訪問看護ステーション和幸【訪問看護】香川県丸亀市飯山町東小川字西内1255番2", "url": "https://www.kaigokensaku.mhlw.go.jp/37/index.php?action_kouhyou_detail_004_kani=true&JigyosyoCd=3760290126-00&ServiceCd=130&Type=search", "url2": "https://www.wakou0501.com/" }, "geometry": { "type": "Point", "coordinates": [ 133.843747960188267, 34.247506231829071 ] } },
{ "type": "Feature", "properties": { "内容": "ケアーズ訪問看護リハビリステーションヒカリ【訪問看護】香川県丸亀市田村町1238", "url": "https://www.kaigokensaku.mhlw.go.jp/37/index.php?action_kouhyou_detail_004_kani=true&JigyosyoCd=3760290092-00&ServiceCd=130&Type=search", "url2": "https://houmonnkango-hikari.com/" }, "geometry": { "type": "Point", "coordinates": [ 133.793265, 34.2704307 ] } },
{ "type": "Feature", "properties": { "内容": "訪問看護ステーション　椛【訪問看護】香川県丸亀市飯山町下法軍寺695-1", "url": "https://www.kaigokensaku.mhlw.go.jp/37/index.php?action_kouhyou_detail_004_kani=true&JigyosyoCd=3760290100-00&ServiceCd=130&Type=search", "url2": null }, "geometry": { "type": "Point", "coordinates": [ 133.855869876686484, 34.255014554526461 ] } },
{ "type": "Feature", "properties": { "内容": "訪問看護　だん【訪問看護】香川県丸亀市垂水町2897-1", "url": "https://www.kaigokensaku.mhlw.go.jp/37/index.php?action_kouhyou_detail_004_kani=true&JigyosyoCd=3760290118-00&ServiceCd=130&Type=search", "url2": null }, "geometry": { "type": "Point", "coordinates": [ 133.831752776153337, 34.241909310237794 ] } },
{ "type": "Feature", "properties": { "内容": "ツクイ丸亀訪問看護ステーション【訪問看護】香川県丸亀市大手町1-4-23ライフクリエートビル5階", "url": "https://www.kaigokensaku.mhlw.go.jp/37/index.php?action_kouhyou_detail_004_kani=true&JigyosyoCd=3760290233-00&ServiceCd=130&Type=search", "url2": null }, "geometry": { "type": "Point", "coordinates": [ 133.8005262, 34.2910233 ] } },
{ "type": "Feature", "properties": { "内容": "訪問看護ステーションカラーズ【訪問看護】香川県丸亀市川西町北2034番地2サイレントハイツ2号", "url": "https://www.kaigokensaku.mhlw.go.jp/37/index.php?action_kouhyou_detail_004_kani=true&JigyosyoCd=3760290225-00&ServiceCd=130&Type=search", "url2": "https://home-care.colorss.co.jp/" }, "geometry": { "type": "Point", "coordinates": [ 133.8221935, 34.2660241 ] } },
{ "type": "Feature", "properties": { "内容": "訪問看護ステーションハル【訪問看護】香川県丸亀市大手町1丁目4-32", "url": "https://www.kaigokensaku.mhlw.go.jp/37/index.php?action_kouhyou_detail_004_kani=true&JigyosyoCd=3760290217-00&ServiceCd=130&Type=search", "url2": null }, "geometry": { "type": "Point", "coordinates": [ 133.8014016, 34.2913706 ] } },
{ "type": "Feature", "properties": { "内容": "セントケア訪問看護ステーション丸亀【訪問看護】香川県丸亀市土器町東7丁目457番地", "url": "https://www.kaigokensaku.mhlw.go.jp/37/index.php?action_kouhyou_detail_004_kani=true&JigyosyoCd=3760290043-00&ServiceCd=130&Type=search", "url2": "http://www.saint-care.com" }, "geometry": { "type": "Point", "coordinates": [ 133.812117599999937, 34.2954833 ] } },
{ "type": "Feature", "properties": { "内容": "まるがめ訪問看護ステーション【訪問看護】香川県丸亀市西本町1丁目7-29矢野ビル　1階東", "url": "https://www.kaigokensaku.mhlw.go.jp/37/index.php?action_kouhyou_detail_004_kani=true&JigyosyoCd=3760290068-00&ServiceCd=130&Type=search", "url2": "http//www.kagawa-kango.or.jp" }, "geometry": { "type": "Point", "coordinates": [ 133.790789300000029, 34.2906598 ] } },
{ "type": "Feature", "properties": { "内容": "訪問看護ステーション　シレーナ【訪問看護】丸亀市幸町１-４-10", "url": "https://www.kaigokensaku.mhlw.go.jp/37/index.php?action_kouhyou_detail_004_kani=true&JigyosyoCd=3760890057-00&ServiceCd=130&Type=search", "url2": null }, "geometry": { "type": "Point", "coordinates": [ 133.7894717957235, 34.287250728842039 ] } },
{ "type": "Feature", "properties": { "内容": "訪問看護ステーションらな【訪問看護】香川県丸亀市中府町四丁目１３番２８号", "url": "https://www.kaigokensaku.mhlw.go.jp/37/index.php?action_kouhyou_detail_004_kani=true&JigyosyoCd=3760290191-00&ServiceCd=130&Type=search", "url2": "https://www.houjuen-aonoyama.jp/" }, "geometry": { "type": "Point", "coordinates": [ 133.7908658, 34.2864446 ] } },
{ "type": "Feature", "properties": { "内容": "訪問看護アイムホーム丸亀【訪問看護】飯野町東分1075-1", "url": "https://www.kaigokensaku.mhlw.go.jp/37/index.php?action_kouhyou_detail_004_kani=true&JigyosyoCd=3760290258-00&ServiceCd=130&Type=search", "url2": null }, "geometry": { "type": "Point", "coordinates": [ 133.824757, 34.2864667 ] } },
{ "type": "Feature", "properties": { "内容": "プナケア訪問看護ステーション【訪問看護】香川県丸亀市飯山町川原1037番地1", "url": "https://www.kaigokensaku.mhlw.go.jp/37/index.php?action_kouhyou_detail_004_kani=true&JigyosyoCd=3760290142-00&ServiceCd=130&Type=search", "url2": null }, "geometry": { "type": "Point", "coordinates": [ 133.859598995772984, 34.266502478002096 ] } },
{ "type": "Feature", "properties": { "内容": "訪問看護ステーションLink【訪問看護】香川県丸亀市郡家町654-3Msコート203", "url": "https://www.kaigokensaku.mhlw.go.jp/37/index.php?action_kouhyou_detail_004_kani=true&JigyosyoCd=3760290274-00&ServiceCd=130&Type=search", "url2": "https://sites.google.com/view/vrack-link" }, "geometry": { "type": "Point", "coordinates": [ 133.8107603, 34.2483029 ] } },
{ "type": "Feature", "properties": { "内容": "まるい亀さん【訪問看護】香川県丸亀市福島町１１１番地", "url": "https://www.kaigokensaku.mhlw.go.jp/37/index.php?action_kouhyou_detail_004_kani=true&JigyosyoCd=3760290266-00&ServiceCd=130&Type=search", "url2": "https://maruikamesan.jp/" }, "geometry": { "type": "Point", "coordinates": [ 133.7914433, 34.2940054 ] } },
{ "type": "Feature", "properties": { "内容": "訪問看護ステーション　シェアハートLUMo【訪問看護】香川県丸亀市原田町2278-1サンジョウビル302号室", "url": "https://www.kaigokensaku.mhlw.go.jp/37/index.php?action_kouhyou_detail_004_kani=true&JigyosyoCd=3760290282-00&ServiceCd=130&Type=search", "url2": null }, "geometry": { "type": "Point", "coordinates": [ 133.7907893, 34.2616602 ] } },
{ "type": "Feature", "properties": { "内容": "訪問看護ステーション　Gステーション【訪問看護】香川県坂出市加茂町619番地1", "url": "https://www.kaigokensaku.mhlw.go.jp/37/index.php?action_kouhyou_detail_004_kani=true&JigyosyoCd=3760390090-00&ServiceCd=130&Type=search", "url2": "http://goshikidai.or.jp" }, "geometry": { "type": "Point", "coordinates": [ 133.908716808136433, 34.308899691436203 ] } },
{ "type": "Feature", "properties": { "内容": "坂出市医師会　訪問看護ステーション【訪問看護】香川県坂出市久米町1丁目17番11号", "url": "https://www.kaigokensaku.mhlw.go.jp/37/index.php?action_kouhyou_detail_004_kani=true&JigyosyoCd=3760390017-00&ServiceCd=130&Type=search", "url2": "http://www.sakaide-med.jp/business_2.htm" }, "geometry": { "type": "Point", "coordinates": [ 133.858773427647407, 34.319489145866314 ] } },
{ "type": "Feature", "properties": { "内容": "城山訪問看護ステーション【訪問看護】香川県坂出市川津町1986番地22ケアハウス　ハイツ城山", "url": "https://www.kaigokensaku.mhlw.go.jp/37/index.php?action_kouhyou_detail_004_kani=true&JigyosyoCd=3760390066-00&ServiceCd=130&Type=search", "url2": "http://www.nagai-group.com/" }, "geometry": { "type": "Point", "coordinates": [ 133.869747400000051, 34.2917208 ] } },
{ "type": "Feature", "properties": { "内容": "訪問看護ステーション　あん【訪問看護】香川県坂出市林田町1680番地1", "url": "https://www.kaigokensaku.mhlw.go.jp/37/index.php?action_kouhyou_detail_004_kani=true&JigyosyoCd=3760390124-00&ServiceCd=130&Type=search", "url2": null }, "geometry": { "type": "Point", "coordinates": [ 133.8801374, 34.3310065 ] } },
{ "type": "Feature", "properties": { "内容": "看護小規模多機能型居宅介護　然【訪問看護】香川県坂出市谷町２丁目２－４８", "url": "https://www.kaigokensaku.mhlw.go.jp/37/index.php?action_kouhyou_detail_004_kani=true&JigyosyoCd=3760390116-00&ServiceCd=130&Type=search", "url2": "http://www.minori-clinic.jp/" }, "geometry": { "type": "Point", "coordinates": [ 133.866457280039981, 34.312243301639782 ] } },
{ "type": "Feature", "properties": { "内容": "訪問看護ステーション　しんちゃん家【訪問看護】香川県善通寺市生野町山端1823-1石原ハイツ１１号", "url": "https://www.kaigokensaku.mhlw.go.jp/37/index.php?action_kouhyou_detail_004_kani=true&JigyosyoCd=3760490064-00&ServiceCd=130&Type=search", "url2": "https://sites.google.com/view/shinchanchi/home" }, "geometry": { "type": "Point", "coordinates": [ 133.787059289403828, 34.221809851022805 ] } },
{ "type": "Feature", "properties": { "内容": "善通寺前田病院訪問看護ステーション愛の手【訪問看護】香川県善通寺市中村町８９４番地１", "url": "https://www.kaigokensaku.mhlw.go.jp/37/index.php?action_kouhyou_detail_004_kani=true&JigyosyoCd=3760490015-00&ServiceCd=130&Type=search", "url2": null }, "geometry": { "type": "Point", "coordinates": [ 133.7649649, 34.243130499999985 ] } },
{ "type": "Feature", "properties": { "内容": "訪問看護ステーション　ほがらか【訪問看護】善通寺市上吉田町6-8-9", "url": "https://www.kaigokensaku.mhlw.go.jp/37/index.php?action_kouhyou_detail_004_kani=true&JigyosyoCd=3760490023-00&ServiceCd=130&Type=search", "url2": "hogaraka@kagawa.coop" }, "geometry": { "type": "Point", "coordinates": [ 133.7846217, 34.2307046 ] } },
{ "type": "Feature", "properties": { "内容": "訪問看護ステーションケアライン西【訪問看護】香川県善通寺市文京町四丁目8番25号", "url": "https://www.kaigokensaku.mhlw.go.jp/37/index.php?action_kouhyou_detail_004_kani=true&JigyosyoCd=3760490056-00&ServiceCd=130&Type=search", "url2": "http://care-line.co.jp/" }, "geometry": { "type": "Point", "coordinates": [ 133.779464400000052, 34.2257078 ] } },
{ "type": "Feature", "properties": { "内容": "訪問看護ステーション　オリーブの風【訪問看護】善通寺町５丁目８番３１号", "url": "https://www.kaigokensaku.mhlw.go.jp/37/index.php?action_kouhyou_detail_004_kani=true&JigyosyoCd=3760490080-00&ServiceCd=130&Type=search", "url2": "olivewind.net" }, "geometry": { "type": "Point", "coordinates": [ 133.77410506256561, 34.228421559045664 ] } },
{ "type": "Feature", "properties": { "内容": "三豊総合病院企業団訪問看護ステーション【訪問看護】香川県観音寺市豊浜町姫浜708番地", "url": "https://www.kaigokensaku.mhlw.go.jp/37/index.php?action_kouhyou_detail_004_kani=true&JigyosyoCd=3767090016-00&ServiceCd=130&Type=search", "url2": "http://www.mitoyo-hosp.jp/06-sukoyaka-top.html" }, "geometry": { "type": "Point", "coordinates": [ 133.641922300000033, 34.0821967 ] } },
{ "type": "Feature", "properties": { "内容": "訪問看護ステーションらしく【訪問看護】香川県観音寺市大野原町丸井533番地1", "url": "https://www.kaigokensaku.mhlw.go.jp/37/index.php?action_kouhyou_detail_004_kani=true&JigyosyoCd=3760590046-00&ServiceCd=130&Type=search", "url2": "kabushikigaisyakkj.wixsite.com/mysite" }, "geometry": { "type": "Point", "coordinates": [ 133.692585900000012, 34.0923503 ] } },
{ "type": "Feature", "properties": { "内容": "香川井下病院訪問看護ステーション【訪問看護】香川県観音寺市大野原町花稲1473番地1", "url": "https://www.kaigokensaku.mhlw.go.jp/37/index.php?action_kouhyou_detail_004_kani=true&JigyosyoCd=3761790025-00&ServiceCd=130&Type=search", "url2": null }, "geometry": { "type": "Point", "coordinates": [ 133.646895566231478, 34.097565837316345 ] } },
{ "type": "Feature", "properties": { "内容": "セントケア訪問看護ステーション観音寺【訪問看護】香川県観音寺市本大町1473番地3", "url": "https://www.kaigokensaku.mhlw.go.jp/37/index.php?action_kouhyou_detail_004_kani=true&JigyosyoCd=3760590038-00&ServiceCd=130&Type=search", "url2": "https://www.saint-care.com/" }, "geometry": { "type": "Point", "coordinates": [ 133.697533, 34.1338272 ] } },
{ "type": "Feature", "properties": { "内容": "訪問看護ステーションカサブランカ【訪問看護】香川県観音寺市柞田町甲465サンビル2C", "url": "https://www.kaigokensaku.mhlw.go.jp/37/index.php?action_kouhyou_detail_004_kani=true&JigyosyoCd=3760590053-00&ServiceCd=130&Type=search", "url2": null }, "geometry": { "type": "Point", "coordinates": [ 133.672959600000013, 34.114099 ] } },
{ "type": "Feature", "properties": { "内容": "合同会社訪問看護ステーション和楽【訪問看護】香川県さぬき市大川町富田中3142-2", "url": "https://www.kaigokensaku.mhlw.go.jp/37/index.php?action_kouhyou_detail_004_kani=true&JigyosyoCd=3760690101-00&ServiceCd=130&Type=search", "url2": null }, "geometry": { "type": "Point", "coordinates": [ 134.239006899999964, 34.2610652 ] } },
{ "type": "Feature", "properties": { "内容": "訪問看護ステーションSEEK【訪問看護】香川県さぬき市志度2373", "url": "https://www.kaigokensaku.mhlw.go.jp/37/index.php?action_kouhyou_detail_004_kani=true&JigyosyoCd=3760690127-00&ServiceCd=130&Type=search", "url2": "https://kanoaseek.jp/" }, "geometry": { "type": "Point", "coordinates": [ 134.1738248, 34.3191203 ] } },
{ "type": "Feature", "properties": { "内容": "訪問看護ステーション　折鶴【訪問看護】香川県さぬき市津田町津田1067番地1", "url": "https://www.kaigokensaku.mhlw.go.jp/37/index.php?action_kouhyou_detail_004_kani=true&JigyosyoCd=3760690119-00&ServiceCd=130&Type=search", "url2": "tsuruwa-clinic.com" }, "geometry": { "type": "Point", "coordinates": [ 134.248350081928578, 34.2919763429799 ] } },
{ "type": "Feature", "properties": { "内容": "さわやか荘訪問看護ステーション【訪問看護】津田町津田２２０７番地", "url": "https://www.kaigokensaku.mhlw.go.jp/37/index.php?action_kouhyou_detail_004_kani=true&JigyosyoCd=3760690036-00&ServiceCd=130&Type=search", "url2": "https://sawayakakaigo.or.jp/" }, "geometry": { "type": "Point", "coordinates": [ 134.2389743, 34.2944693 ] } },
{ "type": "Feature", "properties": { "内容": "ヌーベルさんがわ　訪問看護ステーション【訪問看護】香川県さぬき市寒川町石田東甲170番地", "url": "https://www.kaigokensaku.mhlw.go.jp/37/index.php?action_kouhyou_detail_004_kani=true&JigyosyoCd=3760690010-00&ServiceCd=130&Type=search", "url2": "http//www.yu-sho.or.jp" }, "geometry": { "type": "Point", "coordinates": [ 134.202690469064379, 34.267818546631197 ] } },
{ "type": "Feature", "properties": { "内容": "訪問看護　しずく【訪問看護】香川県さぬき市造田是弘770-8ヴィラナリー長尾２号棟201", "url": "https://www.kaigokensaku.mhlw.go.jp/37/index.php?action_kouhyou_detail_004_kani=true&JigyosyoCd=3760690143-00&ServiceCd=130&Type=search", "url2": null }, "geometry": { "type": "Point", "coordinates": [ 134.1842421, 34.2824547 ] } },
{ "type": "Feature", "properties": { "内容": "みらい訪問看護ステーション【訪問看護】香川県さぬき市志度1421-37カマダビル105", "url": "https://www.kaigokensaku.mhlw.go.jp/37/index.php?action_kouhyou_detail_004_kani=true&JigyosyoCd=3760690150-00&ServiceCd=130&Type=search", "url2": null }, "geometry": { "type": "Point", "coordinates": [ 134.178704900000014, 34.3173731 ] } },
{ "type": "Feature", "properties": { "内容": "医療法人社団聖心会阪本病院【訪問看護】東かがわ市川東１０３番地１", "url": "https://www.kaigokensaku.mhlw.go.jp/37/index.php?action_kouhyou_detail_004_kani=true&JigyosyoCd=3710710306-00&ServiceCd=130&Type=search", "url2": "http://www.sakamoto-hosp.or.jp" }, "geometry": { "type": "Point", "coordinates": [ 134.331867399999965, 34.2492878 ] } },
{ "type": "Feature", "properties": { "内容": "訪問看護ステーション　kotori【訪問看護】香川県東かがわ市土居１０５番地木村ビル２０５号室", "url": "https://www.kaigokensaku.mhlw.go.jp/37/index.php?action_kouhyou_detail_004_kani=true&JigyosyoCd=3760790067-00&ServiceCd=130&Type=search", "url2": "https://kotori.kagawa.jp/" }, "geometry": { "type": "Point", "coordinates": [ 134.298812199999986, 34.2591337 ] } },
{ "type": "Feature", "properties": { "内容": "訪問看護ステーション　絆【訪問看護】東かがわ市小砂５０９－１", "url": "https://www.kaigokensaku.mhlw.go.jp/37/index.php?action_kouhyou_detail_004_kani=true&JigyosyoCd=3760790026-00&ServiceCd=130&Type=search", "url2": "houkan-kizuna@piano.ocn.ne.jp" }, "geometry": { "type": "Point", "coordinates": [ 134.293694677160715, 34.26039628703478 ] } },
{ "type": "Feature", "properties": { "内容": "訪問看護ステーションせきれい【訪問看護】香川県東かがわ市白鳥245-7", "url": "https://www.kaigokensaku.mhlw.go.jp/37/index.php?action_kouhyou_detail_004_kani=true&JigyosyoCd=3760790059-00&ServiceCd=130&Type=search", "url2": null }, "geometry": { "type": "Point", "coordinates": [ 134.3524802, 34.240788 ] } },
{ "type": "Feature", "properties": { "内容": "三豊市立永康病院訪問看護ステーション【訪問看護】香川県三豊市詫間町詫間1303番地5", "url": "https://www.kaigokensaku.mhlw.go.jp/37/index.php?action_kouhyou_detail_004_kani=true&JigyosyoCd=3760890065-00&ServiceCd=130&Type=search", "url2": null }, "geometry": { "type": "Point", "coordinates": [ 133.673991331877119, 34.218018317196702 ] } },
{ "type": "Feature", "properties": { "内容": "えん訪問看護ステーション三豊【訪問看護】香川県三豊市高瀬町下勝間697-32F", "url": "https://www.kaigokensaku.mhlw.go.jp/37/index.php?action_kouhyou_detail_004_kani=true&JigyosyoCd=3760890081-00&ServiceCd=130&Type=search", "url2": "https://www.en-houkan.com/" }, "geometry": { "type": "Point", "coordinates": [ 133.71771050000001, 34.1740395 ] } },
{ "type": "Feature", "properties": { "内容": "おうちナース訪問看護【訪問看護】香川県三豊市下勝間町2446番1", "url": "https://www.kaigokensaku.mhlw.go.jp/37/index.php?action_kouhyou_detail_004_kani=true&JigyosyoCd=3760890107-00&ServiceCd=130&Type=search", "url2": "https://airink.co/" }, "geometry": { "type": "Point", "coordinates": [ 133.715331109147513, 34.181723153646821 ] } },
{ "type": "Feature", "properties": { "内容": "みんなの訪問看護ステーション【訪問看護】香川県三豊市高瀬町上勝間１６５６－４", "url": "https://www.kaigokensaku.mhlw.go.jp/37/index.php?action_kouhyou_detail_004_kani=true&JigyosyoCd=3760890032-00&ServiceCd=130&Type=search", "url2": "http://minnanohoumonkanngo.jimdo.com/" }, "geometry": { "type": "Point", "coordinates": [ 133.729282, 34.1756707 ] } },
{ "type": "Feature", "properties": { "内容": "ぐっでいリハビリ訪問看護ステーション鳥坂【訪問看護】香川県三豊市三野町大見4447-1", "url": "https://www.kaigokensaku.mhlw.go.jp/37/index.php?action_kouhyou_detail_004_kani=true&JigyosyoCd=3760890040-00&ServiceCd=130&Type=search", "url2": null }, "geometry": { "type": "Point", "coordinates": [ 133.728333199999952, 34.2159073 ] } },
{ "type": "Feature", "properties": { "内容": "訪問看護ステーションはまひるがお【訪問看護】香川県小豆郡土庄町字半ノ池甲1360-1平井クリニック2F", "url": "https://www.kaigokensaku.mhlw.go.jp/37/index.php?action_kouhyou_detail_004_kani=true&JigyosyoCd=3761290042-00&ServiceCd=130&Type=search", "url2": "https://hamahirugao.jp/publics/index/37/" }, "geometry": { "type": "Point", "coordinates": [ 134.181332932263189, 34.477580288405946 ] } },
{ "type": "Feature", "properties": { "内容": "訪問看護ステーション　一会【訪問看護】香川県小豆郡土庄町甲1360-74", "url": "https://www.kaigokensaku.mhlw.go.jp/37/index.php?action_kouhyou_detail_004_kani=true&JigyosyoCd=3761290034-00&ServiceCd=130&Type=search", "url2": null }, "geometry": { "type": "Point", "coordinates": [ 134.179831364427173, 34.477206155813839 ] } },
{ "type": "Feature", "properties": { "内容": "訪問看護ステーション　メーア【訪問看護】香川県小豆郡小豆島町草壁本町615-75", "url": "https://www.kaigokensaku.mhlw.go.jp/37/index.php?action_kouhyou_detail_004_kani=true&JigyosyoCd=3761290026-00&ServiceCd=130&Type=search", "url2": null }, "geometry": { "type": "Point", "coordinates": [ 134.3007165, 34.477535 ] } },
{ "type": "Feature", "properties": { "内容": "株式会社ケアサポートつばさ【訪問看護】香川県小豆郡小豆島町神懸通甲１６６２－１", "url": "https://www.kaigokensaku.mhlw.go.jp/37/index.php?action_kouhyou_detail_004_kani=true&JigyosyoCd=3761290018-00&ServiceCd=130&Type=search", "url2": "https://www.tubasa-shodoshima.com" }, "geometry": { "type": "Point", "coordinates": [ 134.30256989999998, 34.4918463 ] } },
{ "type": "Feature", "properties": { "内容": "訪問看護ステーションみき【訪問看護】木田郡三木町氷上112-1", "url": "https://www.kaigokensaku.mhlw.go.jp/37/index.php?action_kouhyou_detail_004_kani=true&JigyosyoCd=3761390016-00&ServiceCd=130&Type=search", "url2": "st-miki@cello.ocn.ne.jp" }, "geometry": { "type": "Point", "coordinates": [ 134.130216, 34.2659151 ] } },
{ "type": "Feature", "properties": { "内容": "みんなのかかりつけ訪問看護ステーション香川【訪問看護】香川県綾歌郡宇多津町浜五番丁50番5号メゾンファースト501号", "url": "https://www.kaigokensaku.mhlw.go.jp/37/index.php?action_kouhyou_detail_004_kani=true&JigyosyoCd=3761590078-00&ServiceCd=130&Type=search", "url2": "https://kakaritsuke.co.jp/" }, "geometry": { "type": "Point", "coordinates": [ 133.8134823, 34.3086161 ] } },
{ "type": "Feature", "properties": { "内容": "訪問看護ステーションひかり【訪問看護】香川県綾歌郡宇多津町浜五番丁66-3", "url": "https://www.kaigokensaku.mhlw.go.jp/37/index.php?action_kouhyou_detail_004_kani=true&JigyosyoCd=3761590045-00&ServiceCd=130&Type=search", "url2": "hikari＠vice‐utz.com" }, "geometry": { "type": "Point", "coordinates": [ 133.811320199999955, 34.3039711 ] } },
{ "type": "Feature", "properties": { "内容": "宇多津訪問看護ステーション【訪問看護】香川県綾歌郡宇多津町3593番地1", "url": "https://www.kaigokensaku.mhlw.go.jp/37/index.php?action_kouhyou_detail_004_kani=true&JigyosyoCd=3761690134-00&ServiceCd=130&Type=search", "url2": "https://utazuhoukan.com/" }, "geometry": { "type": "Point", "coordinates": [ 133.8065949, 34.2846596 ] } },
{ "type": "Feature", "properties": { "内容": "訪問看護ステーションファミリア【訪問看護】香川県仲多度郡多度津町本道2丁目3番", "url": "https://www.kaigokensaku.mhlw.go.jp/37/index.php?action_kouhyou_detail_004_kani=true&JigyosyoCd=3761690118-00&ServiceCd=130&Type=search", "url2": "https://www.familiar-houkan.com/" }, "geometry": { "type": "Point", "coordinates": [ 133.753227399999986, 34.2722762 ] } },
{ "type": "Feature", "properties": { "内容": "綾川町国民健康保険綾上診療所【訪問看護】香川県綾歌郡綾川町山田下3352-1", "url": "https://www.kaigokensaku.mhlw.go.jp/37/index.php?action_kouhyou_detail_004_kani=true&JigyosyoCd=3717011575-00&ServiceCd=130&Type=search", "url2": null }, "geometry": { "type": "Point", "coordinates": [ 133.950048900000013, 34.2253471 ] } },
{ "type": "Feature", "properties": { "内容": "訪問看護ステーションRe：Home【訪問看護】香川県綾歌郡綾川町陶3259番地4", "url": "https://www.kaigokensaku.mhlw.go.jp/37/index.php?action_kouhyou_detail_004_kani=true&JigyosyoCd=3761590052-00&ServiceCd=130&Type=search", "url2": "https://www.rehome-ns.co.jp/" }, "geometry": { "type": "Point", "coordinates": [ 133.961784800000032, 34.2579378 ] } },
{ "type": "Feature", "properties": { "内容": "訪問看護ステーションたきのみや【訪問看護】綾歌郡綾川町滝宮４８６番地", "url": "https://www.kaigokensaku.mhlw.go.jp/37/index.php?action_kouhyou_detail_004_kani=true&JigyosyoCd=3761590037-00&ServiceCd=130&Type=search", "url2": "http://www.takinomiya-hp.com/about/takinomiya.html" }, "geometry": { "type": "Point", "coordinates": [ 133.9240853, 34.2482939 ] } },
{ "type": "Feature", "properties": { "内容": "医療法人社団有隣会　訪問看護ステーションどんぐり【訪問看護】香川県綾歌郡綾川町滝宮1122番地1", "url": "https://www.kaigokensaku.mhlw.go.jp/37/index.php?action_kouhyou_detail_004_kani=true&JigyosyoCd=3761590011-00&ServiceCd=130&Type=search", "url2": "http.//www.mizobuchi-clinic.or.jp/" }, "geometry": { "type": "Point", "coordinates": [ 133.9228382, 34.24663570000002 ] } },
{ "type": "Feature", "properties": { "内容": "綾川町指定訪問看護ステーション【訪問看護】香川県綾歌郡綾川町陶1720番地1", "url": "https://www.kaigokensaku.mhlw.go.jp/37/index.php?action_kouhyou_detail_004_kani=true&JigyosyoCd=3767090115-00&ServiceCd=130&Type=search", "url2": "http://www.sue-hp.jp" }, "geometry": { "type": "Point", "coordinates": [ 133.943477700000017, 34.2595458 ] } },
{ "type": "Feature", "properties": { "内容": "訪問看護ステーション千手ケア【訪問看護】香川県仲多度郡琴平町榎井104-1", "url": "https://www.kaigokensaku.mhlw.go.jp/37/index.php?action_kouhyou_detail_004_kani=true&JigyosyoCd=3761690100-00&ServiceCd=130&Type=search", "url2": "http://hp.kaipoke.biz/3t6/" }, "geometry": { "type": "Point", "coordinates": [ 133.830107, 34.1920634 ] } },
{ "type": "Feature", "properties": { "内容": "医療法人社団たけお会　岩佐病院【訪問看護】香川県仲多度郡琴平町榎井７７５番地", "url": "https://www.kaigokensaku.mhlw.go.jp/37/index.php?action_kouhyou_detail_004_kani=true&JigyosyoCd=3711610745-00&ServiceCd=130&Type=search", "url2": "http://www.iwasa.or.jp" }, "geometry": { "type": "Point", "coordinates": [ 133.824530399999958, 34.1912893 ] } },
{ "type": "Feature", "properties": { "内容": "訪問看護だい福【訪問看護】香川県仲多度郡琴平町上櫛梨1423-5", "url": "https://www.kaigokensaku.mhlw.go.jp/37/index.php?action_kouhyou_detail_004_kani=true&JigyosyoCd=3771601238-00&ServiceCd=130&Type=search", "url2": null }, "geometry": { "type": "Point", "coordinates": [ 133.817116318967209, 34.208512682125701 ] } },
{ "type": "Feature", "properties": { "内容": "訪問看護ステーション　たいよう【訪問看護】香川県仲多度郡多度津町幸町1番15-1号", "url": "https://www.kaigokensaku.mhlw.go.jp/37/index.php?action_kouhyou_detail_004_kani=true&JigyosyoCd=3761690092-00&ServiceCd=130&Type=search", "url2": "https://k-station-taiyo.com" }, "geometry": { "type": "Point", "coordinates": [ 133.759891900000014, 34.2750314 ] } },
{ "type": "Feature", "properties": { "内容": "訪問看護ステーション　カーサ【訪問看護】香川県仲多度郡多度津町堀江四丁目6番12号", "url": "https://www.kaigokensaku.mhlw.go.jp/37/index.php?action_kouhyou_detail_004_kani=true&JigyosyoCd=3761690084-00&ServiceCd=130&Type=search", "url2": "https//faro-inc.com" }, "geometry": { "type": "Point", "coordinates": [ 133.761644199999978, 34.2824526 ] } },
{ "type": "Feature", "properties": { "内容": "訪問看護　海辺の和幸【訪問看護】香川県仲多度郡多度津町堀江5-2-8", "url": "https://www.kaigokensaku.mhlw.go.jp/37/index.php?action_kouhyou_detail_004_kani=true&JigyosyoCd=3761690126-00&ServiceCd=130&Type=search", "url2": null }, "geometry": { "type": "Point", "coordinates": [ 133.7569766, 34.2814148 ] } },
{ "type": "Feature", "properties": { "内容": "指定訪問看護ステーション　ナースネット【訪問看護】香川県仲多度郡まんのう町吉野2189番地1", "url": "https://www.kaigokensaku.mhlw.go.jp/37/index.php?action_kouhyou_detail_004_kani=true&JigyosyoCd=3761690068-00&ServiceCd=130&Type=search", "url2": null }, "geometry": { "type": "Point", "coordinates": [ 133.865852899999936, 34.187424 ] } },
{ "type": "Feature", "properties": { "内容": "医療法人社団　小国医院【訪問看護】香川県仲多度郡まんのう町四條７７７", "url": "https://www.kaigokensaku.mhlw.go.jp/37/index.php?action_kouhyou_detail_004_kani=true&JigyosyoCd=3711611057-00&ServiceCd=130&Type=search", "url2": "http://www.oguni.or.jp/" }, "geometry": { "type": "Point", "coordinates": [ 133.836815699999988, 34.1953503 ] } }
]
}
