{
"type": "FeatureCollection",
"name": "geo_37_特定施設入居者生活介護（有料老人ホーム）",
"crs": { "type": "name", "properties": { "name": "urn:ogc:def:crs:OGC:1.3:CRS84" } },
"features": [
{ "type": "Feature", "properties": { "内容": "よんでんライフケア栗林【特定施設入居者生活介護（有料老人ホーム）】香川県高松市三条町字中所５６４番地１よんでんライフケア栗林", "url": "https://www.kaigokensaku.mhlw.go.jp/37/index.php?action_kouhyou_detail_004_kani=true&JigyosyoCd=3770103343-00&ServiceCd=331&Type=search", "url2": "http://www.yondenlc.co.jp/" }, "geometry": { "type": "Point", "coordinates": [ 134.044870143624848, 34.318824638871256 ] } },
{ "type": "Feature", "properties": { "内容": "介護付有料老人ホーム幸寿荘【特定施設入居者生活介護（有料老人ホーム）】高松市三谷町1626番地", "url": "https://www.kaigokensaku.mhlw.go.jp/37/index.php?action_kouhyou_detail_004_kani=true&JigyosyoCd=3770103939-00&ServiceCd=331&Type=search", "url2": "https://kojyusou.jp" }, "geometry": { "type": "Point", "coordinates": [ 134.058969899999965, 34.2833219 ] } },
{ "type": "Feature", "properties": { "内容": "ナーシングホーム　あいむ【特定施設入居者生活介護（有料老人ホーム）】香川県高松市国分寺町新名482－1", "url": "https://www.kaigokensaku.mhlw.go.jp/37/index.php?action_kouhyou_detail_004_kani=true&JigyosyoCd=3771500687-00&ServiceCd=331&Type=search", "url2": "http://www.hiiragikai.com" }, "geometry": { "type": "Point", "coordinates": [ 133.957825409370457, 34.291954188087395 ] } },
{ "type": "Feature", "properties": { "内容": "介護付有料老人ホーム　ハイ・フォロー・ゴールド【特定施設入居者生活介護（有料老人ホーム）】香川県高松市新田町乙8番地介護付有料老人ホーム　ハイ・フォロー・ゴールド", "url": "https://www.kaigokensaku.mhlw.go.jp/37/index.php?action_kouhyou_detail_004_kani=true&JigyosyoCd=3770104481-00&ServiceCd=331&Type=search", "url2": null }, "geometry": { "type": "Point", "coordinates": [ 134.1107379, 34.3195905 ] } },
{ "type": "Feature", "properties": { "内容": "リハビリホームあすか高松木太【特定施設入居者生活介護（有料老人ホーム）】高松市木太町2753番地2", "url": "https://www.kaigokensaku.mhlw.go.jp/37/index.php?action_kouhyou_detail_004_kani=true&JigyosyoCd=3770102709-00&ServiceCd=331&Type=search", "url2": "https://idm-hcg.co.jp" }, "geometry": { "type": "Point", "coordinates": [ 134.084274100000016, 34.336747 ] } },
{ "type": "Feature", "properties": { "内容": "ナーシングホームあすか高松多肥【特定施設入居者生活介護（有料老人ホーム）】高松市多肥下町344番地1", "url": "https://www.kaigokensaku.mhlw.go.jp/37/index.php?action_kouhyou_detail_004_kani=true&JigyosyoCd=3770102188-00&ServiceCd=331&Type=search", "url2": "https://idm-hcg.co.jp" }, "geometry": { "type": "Point", "coordinates": [ 134.055123099999946, 34.2980478 ] } },
{ "type": "Feature", "properties": { "内容": "介護付き有料老人ホーム　もとやまガーデン【特定施設入居者生活介護（有料老人ホーム）】香川県高松市元山町５４６－１", "url": "https://www.kaigokensaku.mhlw.go.jp/37/index.php?action_kouhyou_detail_004_kani=true&JigyosyoCd=3770103665-00&ServiceCd=331&Type=search", "url2": "http://www.hakueikai.net" }, "geometry": { "type": "Point", "coordinates": [ 134.085982699999931, 34.3223288 ] } },
{ "type": "Feature", "properties": { "内容": "介護付有料老人ホーム　メイプルの杜【特定施設入居者生活介護（有料老人ホーム）】香川県高松市香川町大野998－1", "url": "https://www.kaigokensaku.mhlw.go.jp/37/index.php?action_kouhyou_detail_004_kani=true&JigyosyoCd=3771400417-00&ServiceCd=331&Type=search", "url2": "https://www.tanimoto-c.or.jp/connection/maple/" }, "geometry": { "type": "Point", "coordinates": [ 134.028707682803343, 34.265431966082346 ] } },
{ "type": "Feature", "properties": { "内容": "介護付有料老人ホームロイヤルケア高松【特定施設入居者生活介護（有料老人ホーム）】香川県高松市福岡町四丁目２８番２７号", "url": "https://www.kaigokensaku.mhlw.go.jp/37/index.php?action_kouhyou_detail_004_kani=true&JigyosyoCd=3770103434-00&ServiceCd=331&Type=search", "url2": "http://www.royalcare.jp" }, "geometry": { "type": "Point", "coordinates": [ 134.067964299999971, 34.3398494 ] } },
{ "type": "Feature", "properties": { "内容": "介護付有料老人ホーム　ロイヤルケア高松アネックス【特定施設入居者生活介護（有料老人ホーム）】香川県高松市福岡町４丁目２８番１７号", "url": "https://www.kaigokensaku.mhlw.go.jp/37/index.php?action_kouhyou_detail_004_kani=true&JigyosyoCd=3770106106-00&ServiceCd=331&Type=search", "url2": "http:/www.royalcare.jp/" }, "geometry": { "type": "Point", "coordinates": [ 134.067336599999976, 34.339805 ] } },
{ "type": "Feature", "properties": { "内容": "ベストライフ高松【特定施設入居者生活介護（有料老人ホーム）】香川県高松市三名町488ベストライフ高松", "url": "https://www.kaigokensaku.mhlw.go.jp/37/index.php?action_kouhyou_detail_004_kani=true&JigyosyoCd=3770111700-00&ServiceCd=331&Type=search", "url2": null }, "geometry": { "type": "Point", "coordinates": [ 134.038707988360585, 34.291691556460435 ] } },
{ "type": "Feature", "properties": { "内容": "アルファリビング高松紺屋町プレミアム【特定施設入居者生活介護（有料老人ホーム）】香川県高松市紺屋町５－３アルファリビング高松紺屋町", "url": "https://www.kaigokensaku.mhlw.go.jp/37/index.php?action_kouhyou_detail_004_kani=true&JigyosyoCd=3770108839-00&ServiceCd=331&Type=search", "url2": "https://www.a-living.jp/kagawa/konnyamachi" }, "geometry": { "type": "Point", "coordinates": [ 134.046437853778457, 34.344938081476357 ] } },
{ "type": "Feature", "properties": { "内容": "介護付有料老人ホーム　エーデルワイス【特定施設入居者生活介護（有料老人ホーム）】香川県高松市高松町2160-1", "url": "https://www.kaigokensaku.mhlw.go.jp/37/index.php?action_kouhyou_detail_004_kani=true&JigyosyoCd=3770110298-00&ServiceCd=331&Type=search", "url2": "http://www.yuyusya.co.jp/" }, "geometry": { "type": "Point", "coordinates": [ 134.1191976, 34.3415862 ] } },
{ "type": "Feature", "properties": { "内容": "ラ・ナシカこうざい【特定施設入居者生活介護（有料老人ホーム）】香川県高松市香西本町218", "url": "https://www.kaigokensaku.mhlw.go.jp/37/index.php?action_kouhyou_detail_004_kani=true&JigyosyoCd=3770104176-00&ServiceCd=331&Type=search", "url2": "https://www.cedar-group.co.jp" }, "geometry": { "type": "Point", "coordinates": [ 134.004440499999987, 34.345928500000021 ] } },
{ "type": "Feature", "properties": { "内容": "介護付き有料老人ホーム　ナーシングケアホームクローバ【特定施設入居者生活介護（有料老人ホーム）】香川県高松市紙町402-1", "url": "https://www.kaigokensaku.mhlw.go.jp/37/index.php?action_kouhyou_detail_004_kani=true&JigyosyoCd=3770111882-00&ServiceCd=331&Type=search", "url2": "https://clover-takamatsu.com/" }, "geometry": { "type": "Point", "coordinates": [ 134.0362044, 34.3185708 ] } },
{ "type": "Feature", "properties": { "内容": "有料老人ホームじねん【特定施設入居者生活介護（有料老人ホーム）】高松市西ハゼ町３１３－８", "url": "https://www.kaigokensaku.mhlw.go.jp/37/index.php?action_kouhyou_detail_004_kani=true&JigyosyoCd=3770104234-00&ServiceCd=331&Type=search", "url2": null }, "geometry": { "type": "Point", "coordinates": [ 134.033322799999951, 34.3193593 ] } },
{ "type": "Feature", "properties": { "内容": "介護付き有料老人ホームまじゅん高松【特定施設入居者生活介護（有料老人ホーム）】香川県高松市伏石町２００８－５", "url": "https://www.kaigokensaku.mhlw.go.jp/37/index.php?action_kouhyou_detail_004_kani=true&JigyosyoCd=3770112351-00&ServiceCd=331&Type=search", "url2": null }, "geometry": { "type": "Point", "coordinates": [ 134.054372699999988, 34.3208142 ] } },
{ "type": "Feature", "properties": { "内容": "介護付有料老人ホーム　ネムの木【特定施設入居者生活介護（有料老人ホーム）】香川県丸亀市川西町南258-1", "url": "https://www.kaigokensaku.mhlw.go.jp/37/index.php?action_kouhyou_detail_004_kani=true&JigyosyoCd=3770201592-00&ServiceCd=331&Type=search", "url2": "http://www.koushi-f.or.jp" }, "geometry": { "type": "Point", "coordinates": [ 133.833397399999967, 34.2552686 ] } },
{ "type": "Feature", "properties": { "内容": "ケアタウン城下町【特定施設入居者生活介護（有料老人ホーム）】香川県丸亀市中府町5-9-5", "url": "https://www.kaigokensaku.mhlw.go.jp/37/index.php?action_kouhyou_detail_004_kani=true&JigyosyoCd=3770200669-00&ServiceCd=331&Type=search", "url2": "http://www.senju-group.or.jp" }, "geometry": { "type": "Point", "coordinates": [ 133.7932535, 34.2851789 ] } },
{ "type": "Feature", "properties": { "内容": "NP介護付有料老人ホーム楽陽【特定施設入居者生活介護（有料老人ホーム）】坂出市駒止町１－３－５ライフスクエア坂出", "url": "https://www.kaigokensaku.mhlw.go.jp/37/index.php?action_kouhyou_detail_004_kani=true&JigyosyoCd=3770300675-00&ServiceCd=331&Type=search", "url2": "http://www.np.medical.com" }, "geometry": { "type": "Point", "coordinates": [ 133.856416299999978, 34.3113478 ] } },
{ "type": "Feature", "properties": { "内容": "やすらぎホーム　さぬきのくに【特定施設入居者生活介護（有料老人ホーム）】香川県坂出市加茂町120番地1", "url": "https://www.kaigokensaku.mhlw.go.jp/37/index.php?action_kouhyou_detail_004_kani=true&JigyosyoCd=3770300634-00&ServiceCd=331&Type=search", "url2": "http://www.gosikidai.or.jp" }, "geometry": { "type": "Point", "coordinates": [ 133.921644300000025, 34.3020667 ] } },
{ "type": "Feature", "properties": { "内容": "介護付有料老人ホーム　フラワーガーデン京町【特定施設入居者生活介護（有料老人ホーム）】香川県坂出市京町3丁目6番56号", "url": "https://www.kaigokensaku.mhlw.go.jp/37/index.php?action_kouhyou_detail_004_kani=true&JigyosyoCd=3770300709-00&ServiceCd=331&Type=search", "url2": "http://www./maedaseikei..or.jp/kyou/" }, "geometry": { "type": "Point", "coordinates": [ 133.8579557, 34.3175036 ] } },
{ "type": "Feature", "properties": { "内容": "介護付き有料老人ホームもりの木【特定施設入居者生活介護（有料老人ホーム）】香川県観音寺市茂西町一丁目6番3号", "url": "https://www.kaigokensaku.mhlw.go.jp/37/index.php?action_kouhyou_detail_004_kani=true&JigyosyoCd=3710511589-00&ServiceCd=331&Type=search", "url2": null }, "geometry": { "type": "Point", "coordinates": [ 133.656347200000027, 34.1328325 ] } },
{ "type": "Feature", "properties": { "内容": "介護付有料老人ホームましま【特定施設入居者生活介護（有料老人ホーム）】香川県さぬき市長尾東１１２４", "url": "https://www.kaigokensaku.mhlw.go.jp/37/index.php?action_kouhyou_detail_004_kani=true&JigyosyoCd=3770601122-00&ServiceCd=331&Type=search", "url2": "https://syunkidou.or.jp" }, "geometry": { "type": "Point", "coordinates": [ 134.182269571815596, 34.264875707337062 ] } },
{ "type": "Feature", "properties": { "内容": "のぞみ【特定施設入居者生活介護（有料老人ホーム）】香川県東かがわ市三本松1201番地1", "url": "https://www.kaigokensaku.mhlw.go.jp/37/index.php?action_kouhyou_detail_004_kani=true&JigyosyoCd=3770700361-00&ServiceCd=331&Type=search", "url2": "https://idm-hcg.co.jp" }, "geometry": { "type": "Point", "coordinates": [ 134.332997400000011, 34.2488271 ] } },
{ "type": "Feature", "properties": { "内容": "ナーシングホーム　オリーブの郷【特定施設入居者生活介護（有料老人ホーム）】香川県三豊市詫間町詫間679番地41", "url": "https://www.kaigokensaku.mhlw.go.jp/37/index.php?action_kouhyou_detail_004_kani=true&JigyosyoCd=3770800153-00&ServiceCd=331&Type=search", "url2": "http:www.iwasaki-hp.or.jp" }, "geometry": { "type": "Point", "coordinates": [ 133.676793699999962, 34.2220153 ] } },
{ "type": "Feature", "properties": { "内容": "ナーシングホームくすの木【特定施設入居者生活介護（有料老人ホーム）】香川県木田郡三木町池戸2362番地", "url": "https://www.kaigokensaku.mhlw.go.jp/37/index.php?action_kouhyou_detail_004_kani=true&JigyosyoCd=3771300500-00&ServiceCd=331&Type=search", "url2": null }, "geometry": { "type": "Point", "coordinates": [ 134.123208400000067, 34.2763773 ] } },
{ "type": "Feature", "properties": { "内容": "彩りの家【特定施設入居者生活介護（有料老人ホーム）】香川県綾歌郡宇多津町浜九番丁142-4", "url": "https://www.kaigokensaku.mhlw.go.jp/37/index.php?action_kouhyou_detail_004_kani=true&JigyosyoCd=3771500638-00&ServiceCd=331&Type=search", "url2": "http://www.irodorinoie.jp" }, "geometry": { "type": "Point", "coordinates": [ 133.823482399999989, 34.3129586 ] } }
]
}
