{
"type": "FeatureCollection",
"name": "geo_37_特別支援学校",
"crs": { "type": "name", "properties": { "name": "urn:ogc:def:crs:EPSG::6668" } },
"features": [
{ "type": "Feature", "properties": { "P29_001": "37203", "P29_002": "E137110000011", "P29_003": "16012", "P29_004": "香川大学教育学部附属特別支援学校", "P29_005": "香川県坂出市府中町字綾坂889", "P29_006": "1", "P29_007": "0", "P29_008": "00", "P29_009": null }, "geometry": { "type": "Point", "coordinates": [ 133.923198515255081, 34.294676982811261 ] } },
{ "type": "Feature", "properties": { "P29_001": "37201", "P29_002": "E137220100017", "P29_003": "16012", "P29_004": "香川県立視覚支援学校", "P29_005": "香川県高松市扇町2-9-12", "P29_006": "2", "P29_007": "0", "P29_008": "00", "P29_009": null }, "geometry": { "type": "Point", "coordinates": [ 134.03512749553667, 34.344395830182357 ] } },
{ "type": "Feature", "properties": { "P29_001": "37201", "P29_002": "E137220100026", "P29_003": "16012", "P29_004": "香川県立聴覚支援学校", "P29_005": "香川県高松市太田上町513-1", "P29_006": "2", "P29_007": "0", "P29_008": "00", "P29_009": null }, "geometry": { "type": "Point", "coordinates": [ 134.041565154265527, 34.29745090412424 ] } },
{ "type": "Feature", "properties": { "P29_001": "37201", "P29_002": "E137220100035", "P29_003": "16012", "P29_004": "香川県立香川中部支援学校", "P29_005": "香川県高松市田村町784", "P29_006": "2", "P29_007": "0", "P29_008": "00", "P29_009": null }, "geometry": { "type": "Point", "coordinates": [ 134.029716829089551, 34.305671614502081 ] } },
{ "type": "Feature", "properties": { "P29_001": "37201", "P29_002": "E137220100044", "P29_003": "16012", "P29_004": "香川県立高松支援学校", "P29_005": "香川県高松市田村町1098-1", "P29_006": "2", "P29_007": "0", "P29_008": "00", "P29_009": null }, "geometry": { "type": "Point", "coordinates": [ 134.032053103312023, 34.305467444723554 ] } },
{ "type": "Feature", "properties": { "P29_001": "37202", "P29_002": "E137220200016", "P29_003": "16012", "P29_004": "香川県立香川丸亀支援学校", "P29_005": "香川県丸亀市飯野町東分592-1", "P29_006": "2", "P29_007": "0", "P29_008": "00", "P29_009": null }, "geometry": { "type": "Point", "coordinates": [ 133.825001648586664, 34.291802455201648 ] } },
{ "type": "Feature", "properties": { "P29_001": "37204", "P29_002": "E137220400014", "P29_003": "16012", "P29_004": "香川県立善通寺支援学校", "P29_005": "香川県善通寺市仙遊町2-1-2", "P29_006": "2", "P29_007": "0", "P29_008": "00", "P29_009": null }, "geometry": { "type": "Point", "coordinates": [ 133.770599878719651, 34.23033466282677 ] } },
{ "type": "Feature", "properties": { "P29_001": "37205", "P29_002": "E137220500013", "P29_003": "16012", "P29_004": "香川県立香川西部支援学校", "P29_005": "香川県観音寺市出作町字池下712", "P29_006": "2", "P29_007": "0", "P29_008": "00", "P29_009": null }, "geometry": { "type": "Point", "coordinates": [ 133.677526867000097, 34.113564076966227 ] } },
{ "type": "Feature", "properties": { "P29_001": "37206", "P29_002": "E137220600012", "P29_003": "16012", "P29_004": "香川県立香川東部支援学校", "P29_005": "香川県さぬき市長尾西475", "P29_006": "2", "P29_007": "0", "P29_008": "00", "P29_009": null }, "geometry": { "type": "Point", "coordinates": [ 134.17084629116107, 34.271046779093325 ] } },
{ "type": "Feature", "properties": { "P29_001": "37324", "P29_002": "E137232400010", "P29_003": "16012", "P29_004": "香川県立小豆島みんなの支援学校", "P29_005": "香川県小豆郡小豆島町池田1789", "P29_006": "2", "P29_007": "0", "P29_008": "00", "P29_009": null }, "geometry": { "type": "Point", "coordinates": [ 134.23581824178342, 34.479213199073406 ] } }
]
}
