{
"type": "FeatureCollection",
"name": "geo_37_認知症対応型通所介護",
"crs": { "type": "name", "properties": { "name": "urn:ogc:def:crs:OGC:1.3:CRS84" } },
"features": [
{ "type": "Feature", "properties": { "内容": "デイサービスセンター玉藻荘【認知症対応型通所介護】高松市北浜町7番10号", "url": "https://www.kaigokensaku.mhlw.go.jp/37/index.php?action_kouhyou_detail_004_kani=true&JigyosyoCd=3770104101-00&ServiceCd=720&Type=search", "url2": "http://www.sanuki-sha.or.jp/" }, "geometry": { "type": "Point", "coordinates": [ 134.0560901, 34.3502513 ] } },
{ "type": "Feature", "properties": { "内容": "プチ夕凪【認知症対応型通所介護】香川県高松市林町1987番地1", "url": "https://www.kaigokensaku.mhlw.go.jp/37/index.php?action_kouhyou_detail_004_kani=true&JigyosyoCd=3770104226-00&ServiceCd=720&Type=search", "url2": "https://yunagi-gr.com/group/" }, "geometry": { "type": "Point", "coordinates": [ 134.0716076, 34.3075045 ] } },
{ "type": "Feature", "properties": { "内容": "グループホームひまわり【認知症対応型通所介護】香川県高松市鬼無町藤井126番地1", "url": "https://www.kaigokensaku.mhlw.go.jp/37/index.php?action_kouhyou_detail_004_kani=true&JigyosyoCd=3770104218-00&ServiceCd=720&Type=search", "url2": null }, "geometry": { "type": "Point", "coordinates": [ 133.996720399999987, 34.3283032 ] } },
{ "type": "Feature", "properties": { "内容": "おりいぶ荘デイサービスセンター【認知症対応型通所介護】香川県高松市太田下町2020番地1", "url": "https://www.kaigokensaku.mhlw.go.jp/37/index.php?action_kouhyou_detail_004_kani=true&JigyosyoCd=3770101529-00&ServiceCd=720&Type=search", "url2": "https://hatsukikai.or.jp/" }, "geometry": { "type": "Point", "coordinates": [ 134.0389735, 34.3043471 ] } },
{ "type": "Feature", "properties": { "内容": "さくら荘デイサ－ビスセンタ－【認知症対応型通所介護】高松市林町76番地14", "url": "https://www.kaigokensaku.mhlw.go.jp/37/index.php?action_kouhyou_detail_004_kani=true&JigyosyoCd=3770100323-00&ServiceCd=720&Type=search", "url2": "https://hatsukikai.or.jp" }, "geometry": { "type": "Point", "coordinates": [ 134.0662774, 34.2942428 ] } },
{ "type": "Feature", "properties": { "内容": "法寿苑デイサービスセンター【認知症対応型通所介護】香川県高松市木太町3308番地", "url": "https://www.kaigokensaku.mhlw.go.jp/37/index.php?action_kouhyou_detail_004_kani=true&JigyosyoCd=3770103632-00&ServiceCd=720&Type=search", "url2": "https://www.kouzenkai.jp/" }, "geometry": { "type": "Point", "coordinates": [ 134.075244699999985, 34.3278117 ] } },
{ "type": "Feature", "properties": { "内容": "シオンの丘デイサービスセンター海【認知症対応型通所介護】高松市香西北町260番地", "url": "https://www.kaigokensaku.mhlw.go.jp/37/index.php?action_kouhyou_detail_004_kani=true&JigyosyoCd=3770102733-00&ServiceCd=720&Type=search", "url2": "http://www.bokuyoukai.or.jp/qhm/" }, "geometry": { "type": "Point", "coordinates": [ 133.995138900000029, 34.354258 ] } },
{ "type": "Feature", "properties": { "内容": "デイサービスセンター　なかの町【認知症対応型通所介護】香川県高松市中野町24-7", "url": "https://www.kaigokensaku.mhlw.go.jp/37/index.php?action_kouhyou_detail_004_kani=true&JigyosyoCd=3790100469-00&ServiceCd=720&Type=search", "url2": "http://www.sanuki-sha.or.jp" }, "geometry": { "type": "Point", "coordinates": [ 134.043638469975321, 34.333308202227151 ] } },
{ "type": "Feature", "properties": { "内容": "ネムの木　共用型デイサービス　円座【認知症対応型通所介護】香川県高松市円座町西村94番地1", "url": "https://www.kaigokensaku.mhlw.go.jp/37/index.php?action_kouhyou_detail_004_kani=true&JigyosyoCd=3790100980-00&ServiceCd=720&Type=search", "url2": "http://www.koushi-f.or.jp/" }, "geometry": { "type": "Point", "coordinates": [ 134.0080112, 34.2885522 ] } },
{ "type": "Feature", "properties": { "内容": "らく楽一宮【認知症対応型通所介護】香川県高松市一宮町１５６８番地１", "url": "https://www.kaigokensaku.mhlw.go.jp/37/index.php?action_kouhyou_detail_004_kani=true&JigyosyoCd=3770102550-00&ServiceCd=720&Type=search", "url2": "http://www.rakuraku-group.jp" }, "geometry": { "type": "Point", "coordinates": [ 134.020522199999959, 34.2920037 ] } },
{ "type": "Feature", "properties": { "内容": "認知症対応型デイサービス大樹【認知症対応型通所介護】香川県高松市国分寺町国分18-1", "url": "https://www.kaigokensaku.mhlw.go.jp/37/index.php?action_kouhyou_detail_004_kani=true&JigyosyoCd=3790100758-00&ServiceCd=720&Type=search", "url2": null }, "geometry": { "type": "Point", "coordinates": [ 133.9585968, 34.3037556 ] } },
{ "type": "Feature", "properties": { "内容": "デイサービスセンター華うさぎ【認知症対応型通所介護】丸亀市川西町北998-1", "url": "https://www.kaigokensaku.mhlw.go.jp/37/index.php?action_kouhyou_detail_004_kani=true&JigyosyoCd=3790200160-00&ServiceCd=720&Type=search", "url2": null }, "geometry": { "type": "Point", "coordinates": [ 133.8173567, 34.2668645 ] } },
{ "type": "Feature", "properties": { "内容": "デイサービスセンター桃の木【認知症対応型通所介護】丸亀市飯山町川原185-1", "url": "https://www.kaigokensaku.mhlw.go.jp/37/index.php?action_kouhyou_detail_004_kani=true&JigyosyoCd=3790200210-00&ServiceCd=720&Type=search", "url2": "koufukukai.or.jp" }, "geometry": { "type": "Point", "coordinates": [ 133.8520775, 34.2627954 ] } },
{ "type": "Feature", "properties": { "内容": "天宝苑デイサービスセンター【認知症対応型通所介護】香川県丸亀市宗古町16", "url": "https://www.kaigokensaku.mhlw.go.jp/37/index.php?action_kouhyou_detail_004_kani=true&JigyosyoCd=3770200545-00&ServiceCd=720&Type=search", "url2": "http://yoshida-hp.jimdo.com" }, "geometry": { "type": "Point", "coordinates": [ 133.7956835, 34.2927391 ] } },
{ "type": "Feature", "properties": { "内容": "ネムの木　共用型デイサービス丸亀【認知症対応型通所介護】香川県丸亀市川西町南甲220番地1", "url": "https://www.kaigokensaku.mhlw.go.jp/37/index.php?action_kouhyou_detail_004_kani=true&JigyosyoCd=3790200434-00&ServiceCd=720&Type=search", "url2": "https://www.koushi-f.or.jp/" }, "geometry": { "type": "Point", "coordinates": [ 133.832782637029169, 34.256023127940686 ] } },
{ "type": "Feature", "properties": { "内容": "グループホームやすらぎの家きやま【認知症対応型通所介護】香川県坂出市川津町２００１番地１", "url": "https://www.kaigokensaku.mhlw.go.jp/37/index.php?action_kouhyou_detail_004_kani=true&JigyosyoCd=3790300028-00&ServiceCd=720&Type=search", "url2": "http://www.kbn.ne.jp/home/kym0007" }, "geometry": { "type": "Point", "coordinates": [ 133.8695236, 34.2923126 ] } },
{ "type": "Feature", "properties": { "内容": "認知症対応型通所介護事業所　グループホームみかんの花【認知症対応型通所介護】香川県坂出市大屋冨町３１００番地３０", "url": "https://www.kaigokensaku.mhlw.go.jp/37/index.php?action_kouhyou_detail_004_kani=true&JigyosyoCd=3790300168-00&ServiceCd=720&Type=search", "url2": "http://www.shouju.or.jp/" }, "geometry": { "type": "Point", "coordinates": [ 133.89314760000002, 34.3563392 ] } },
{ "type": "Feature", "properties": { "内容": "脳いきいきデイサービス　ねんりん学校【認知症対応型通所介護】香川県善通寺市中村町849", "url": "https://www.kaigokensaku.mhlw.go.jp/37/index.php?action_kouhyou_detail_004_kani=true&JigyosyoCd=3790400067-00&ServiceCd=720&Type=search", "url2": "http://www.junshinkai.com/" }, "geometry": { "type": "Point", "coordinates": [ 133.764371, 34.244897 ] } },
{ "type": "Feature", "properties": { "内容": "華の杜デイサービスセンター【認知症対応型通所介護】香川県観音寺市柞田町乙１４０－３番地", "url": "https://www.kaigokensaku.mhlw.go.jp/37/index.php?action_kouhyou_detail_004_kani=true&JigyosyoCd=3790500049-00&ServiceCd=720&Type=search", "url2": null }, "geometry": { "type": "Point", "coordinates": [ 133.654951100000062, 34.1055189 ] } },
{ "type": "Feature", "properties": { "内容": "地域密着型認知症対応型通所介護　ヌーベルかんざき【認知症対応型通所介護】香川県さぬき市寒川町神前字脇3502番地1", "url": "https://www.kaigokensaku.mhlw.go.jp/37/index.php?action_kouhyou_detail_004_kani=true&JigyosyoCd=3790600054-00&ServiceCd=720&Type=search", "url2": "http://www.yu-syo.or.jp" }, "geometry": { "type": "Point", "coordinates": [ 134.209504399999986, 34.2923603 ] } },
{ "type": "Feature", "properties": { "内容": "グループホームたんぽぽの家【認知症対応型通所介護】香川県東かがわ市湊263-1", "url": "https://www.kaigokensaku.mhlw.go.jp/37/index.php?action_kouhyou_detail_004_kani=true&JigyosyoCd=3790700045-00&ServiceCd=720&Type=search", "url2": "https://www.tanpoponoie.jp" }, "geometry": { "type": "Point", "coordinates": [ 134.350721, 34.2500605 ] } },
{ "type": "Feature", "properties": { "内容": "グループホームたんぽぽの家Ⅱ【認知症対応型通所介護】湊319番地1", "url": "https://www.kaigokensaku.mhlw.go.jp/37/index.php?action_kouhyou_detail_004_kani=true&JigyosyoCd=3790700086-00&ServiceCd=720&Type=search", "url2": "https://www.tanpoponoie.jp" }, "geometry": { "type": "Point", "coordinates": [ 135.9579694, 35.0569311 ] } },
{ "type": "Feature", "properties": { "内容": "デイサービスセンターみの【認知症対応型通所介護】香川県三豊市三野町大見乙91-12", "url": "https://www.kaigokensaku.mhlw.go.jp/37/index.php?action_kouhyou_detail_004_kani=true&JigyosyoCd=3771700535-00&ServiceCd=720&Type=search", "url2": "http://minofukushikai.sun-age.or.jp" }, "geometry": { "type": "Point", "coordinates": [ 133.7206251, 34.2266288 ] } },
{ "type": "Feature", "properties": { "内容": "グループホーム高瀬【認知症対応型通所介護】三豊市高瀬町新名１４７６－１", "url": "https://www.kaigokensaku.mhlw.go.jp/37/index.php?action_kouhyou_detail_004_kani=true&JigyosyoCd=3790800084-00&ServiceCd=720&Type=search", "url2": null }, "geometry": { "type": "Point", "coordinates": [ 133.715066200000024, 34.1927514 ] } },
{ "type": "Feature", "properties": { "内容": "ディサービス　せとの花【認知症対応型通所介護】香川県三豊市詫間町詫間2073番地", "url": "https://www.kaigokensaku.mhlw.go.jp/37/index.php?action_kouhyou_detail_004_kani=true&JigyosyoCd=3771700782-00&ServiceCd=720&Type=search", "url2": "http://www.takumafukushi.com/" }, "geometry": { "type": "Point", "coordinates": [ 133.671219299999962, 34.2209683 ] } },
{ "type": "Feature", "properties": { "内容": "高瀬町老人デイサービスセンター　のぞみ荘【認知症対応型通所介護】香川県三豊市高瀬町比地中2986-9", "url": "https://www.kaigokensaku.mhlw.go.jp/37/index.php?action_kouhyou_detail_004_kani=true&JigyosyoCd=3771700949-00&ServiceCd=720&Type=search", "url2": null }, "geometry": { "type": "Point", "coordinates": [ 133.703191923942541, 34.1739763 ] } },
{ "type": "Feature", "properties": { "内容": "デイサービス　れんげハウス【認知症対応型通所介護】香川県木田郡三木町大字池戸2074-5", "url": "https://www.kaigokensaku.mhlw.go.jp/37/index.php?action_kouhyou_detail_004_kani=true&JigyosyoCd=3791300019-00&ServiceCd=720&Type=search", "url2": "g-h-renge-house@leaf.ocn.ne.jp" }, "geometry": { "type": "Point", "coordinates": [ 134.120006, 34.287612 ] } },
{ "type": "Feature", "properties": { "内容": "デイサービスセンター桜荘【認知症対応型通所介護】香川県仲多度郡多度津町葛原384", "url": "https://www.kaigokensaku.mhlw.go.jp/37/index.php?action_kouhyou_detail_004_kani=true&JigyosyoCd=3791600061-00&ServiceCd=720&Type=search", "url2": null }, "geometry": { "type": "Point", "coordinates": [ 133.7667534, 34.2537405 ] } },
{ "type": "Feature", "properties": { "内容": "グループホームみどり【認知症対応型通所介護】香川県仲多度郡多度津町寿町７番３号", "url": "https://www.kaigokensaku.mhlw.go.jp/37/index.php?action_kouhyou_detail_004_kani=true&JigyosyoCd=3791600087-00&ServiceCd=720&Type=search", "url2": "http://katouhp.net/" }, "geometry": { "type": "Point", "coordinates": [ 133.75882660000002, 34.2701493 ] } },
{ "type": "Feature", "properties": { "内容": "多度津デイサービスセンター【認知症対応型通所介護】香川県仲多度郡多度津町西港町127番地8", "url": "https://www.kaigokensaku.mhlw.go.jp/37/index.php?action_kouhyou_detail_004_kani=true&JigyosyoCd=3771600040-00&ServiceCd=720&Type=search", "url2": "http://toryoen.jp/" }, "geometry": { "type": "Point", "coordinates": [ 133.737896281614638, 34.2649027685204 ] } }
]
}
