{
"type": "FeatureCollection",
"name": "geo_37_認知症対応型共同生活介護",
"crs": { "type": "name", "properties": { "name": "urn:ogc:def:crs:OGC:1.3:CRS84" } },
"features": [
{ "type": "Feature", "properties": { "内容": "グループホーム　邑【認知症対応型共同生活介護】高松市前田西町1080-2", "url": "https://www.kaigokensaku.mhlw.go.jp/37/index.php?action_kouhyou_detail_004_kani=true&JigyosyoCd=3770102741-00&ServiceCd=320&Type=search", "url2": "http://www.syurikai.com/" }, "geometry": { "type": "Point", "coordinates": [ 134.0994981, 34.2964847 ] } },
{ "type": "Feature", "properties": { "内容": "グループホーム語り愛【認知症対応型共同生活介護】香川県高松市円座町字道下２８８－１", "url": "https://www.kaigokensaku.mhlw.go.jp/37/index.php?action_kouhyou_detail_004_kani=true&JigyosyoCd=3790100337-00&ServiceCd=320&Type=search", "url2": "http://www.junshinkai.com/" }, "geometry": { "type": "Point", "coordinates": [ 133.997043673171987, 34.293560623055967 ] } },
{ "type": "Feature", "properties": { "内容": "グループホームそよの里【認知症対応型共同生活介護】香川県高松市多肥上町504-2", "url": "https://www.kaigokensaku.mhlw.go.jp/37/index.php?action_kouhyou_detail_004_kani=true&JigyosyoCd=3770102626-00&ServiceCd=320&Type=search", "url2": null }, "geometry": { "type": "Point", "coordinates": [ 134.050298399999974, 34.2884795 ] } },
{ "type": "Feature", "properties": { "内容": "グループホーム　エーデルワイス【認知症対応型共同生活介護】香川県高松市高松町2160-1", "url": "https://www.kaigokensaku.mhlw.go.jp/37/index.php?action_kouhyou_detail_004_kani=true&JigyosyoCd=3790100618-00&ServiceCd=320&Type=search", "url2": "http://www.yuyusya.co.jp/" }, "geometry": { "type": "Point", "coordinates": [ 134.118790499999989, 34.3411108 ] } },
{ "type": "Feature", "properties": { "内容": "グループホームこすもす【認知症対応型共同生活介護】高松市太田下町1868番地2", "url": "https://www.kaigokensaku.mhlw.go.jp/37/index.php?action_kouhyou_detail_004_kani=true&JigyosyoCd=3770102535-00&ServiceCd=320&Type=search", "url2": "https://kaigo-cosmos.com/" }, "geometry": { "type": "Point", "coordinates": [ 134.043545499999937, 34.3070857 ] } },
{ "type": "Feature", "properties": { "内容": "グループホーム　愛の里【認知症対応型共同生活介護】香川県高松市上福岡町2005-11", "url": "https://www.kaigokensaku.mhlw.go.jp/37/index.php?action_kouhyou_detail_004_kani=true&JigyosyoCd=3770103111-00&ServiceCd=320&Type=search", "url2": "http://www.k2.dion.ne.jp/^ainosato/" }, "geometry": { "type": "Point", "coordinates": [ 134.061221499999988, 34.3303155 ] } },
{ "type": "Feature", "properties": { "内容": "グループホームミモザ【認知症対応型共同生活介護】高松市新田町甲2181-1", "url": "https://www.kaigokensaku.mhlw.go.jp/37/index.php?action_kouhyou_detail_004_kani=true&JigyosyoCd=3770102824-00&ServiceCd=320&Type=search", "url2": "https://careservice-hasegawa.jp" }, "geometry": { "type": "Point", "coordinates": [ 134.102144195106604, 34.316381698756921 ] } },
{ "type": "Feature", "properties": { "内容": "グループホームアカシア【認知症対応型共同生活介護】高松市新田町甲2180-1", "url": "https://www.kaigokensaku.mhlw.go.jp/37/index.php?action_kouhyou_detail_004_kani=true&JigyosyoCd=3790100832-00&ServiceCd=320&Type=search", "url2": "http://www.careservice-hasegawa.jp/" }, "geometry": { "type": "Point", "coordinates": [ 134.102242342662606, 34.316165555005703 ] } },
{ "type": "Feature", "properties": { "内容": "グループホーム菜の花【認知症対応型共同生活介護】香川県高松市飯田町１０４番地１", "url": "https://www.kaigokensaku.mhlw.go.jp/37/index.php?action_kouhyou_detail_004_kani=true&JigyosyoCd=3790101020-00&ServiceCd=320&Type=search", "url2": "https://yuyusya.co.jp/" }, "geometry": { "type": "Point", "coordinates": [ 133.9959182, 34.3145014 ] } },
{ "type": "Feature", "properties": { "内容": "グループホーム　ほおずき【認知症対応型共同生活介護】香川県高松市松並町649番地1", "url": "https://www.kaigokensaku.mhlw.go.jp/37/index.php?action_kouhyou_detail_004_kani=true&JigyosyoCd=3770102758-00&ServiceCd=320&Type=search", "url2": null }, "geometry": { "type": "Point", "coordinates": [ 134.0259441, 34.3136835 ] } },
{ "type": "Feature", "properties": { "内容": "グループホーム　ほととぎす【認知症対応型共同生活介護】香川県高松市香川町川東下672－5", "url": "https://www.kaigokensaku.mhlw.go.jp/37/index.php?action_kouhyou_detail_004_kani=true&JigyosyoCd=3771400482-00&ServiceCd=320&Type=search", "url2": null }, "geometry": { "type": "Point", "coordinates": [ 134.030321100000037, 34.2425496 ] } },
{ "type": "Feature", "properties": { "内容": "グループホーム春風荘【認知症対応型共同生活介護】高松市円座町１３００番地2", "url": "https://www.kaigokensaku.mhlw.go.jp/37/index.php?action_kouhyou_detail_004_kani=true&JigyosyoCd=3770103079-00&ServiceCd=320&Type=search", "url2": "http://www.happylifeai.co.jp/" }, "geometry": { "type": "Point", "coordinates": [ 134.014537, 34.2843349 ] } },
{ "type": "Feature", "properties": { "内容": "グループホーム木太【認知症対応型共同生活介護】高松市木太町３７４９番地３ケアセンター木太", "url": "https://www.kaigokensaku.mhlw.go.jp/37/index.php?action_kouhyou_detail_004_kani=true&JigyosyoCd=3770103608-00&ServiceCd=320&Type=search", "url2": "http://m-koujyukai.or.jp" }, "geometry": { "type": "Point", "coordinates": [ 134.078816700000061, 34.3236009 ] } },
{ "type": "Feature", "properties": { "内容": "グループホームひまわり【認知症対応型共同生活介護】香川県高松市鬼無町藤井126-1", "url": "https://www.kaigokensaku.mhlw.go.jp/37/index.php?action_kouhyou_detail_004_kani=true&JigyosyoCd=3770104218-00&ServiceCd=320&Type=search", "url2": null }, "geometry": { "type": "Point", "coordinates": [ 133.9966624, 34.3283305 ] } },
{ "type": "Feature", "properties": { "内容": "グループホーム　うちんく【認知症対応型共同生活介護】香川県高松市川島本町切戸２７６－１", "url": "https://www.kaigokensaku.mhlw.go.jp/37/index.php?action_kouhyou_detail_004_kani=true&JigyosyoCd=3770101982-00&ServiceCd=320&Type=search", "url2": null }, "geometry": { "type": "Point", "coordinates": [ 134.085984516007983, 34.279582828039807 ] } },
{ "type": "Feature", "properties": { "内容": "グループホーム　あいむ【認知症対応型共同生活介護】香川県高松市国分寺町新名482-1", "url": "https://www.kaigokensaku.mhlw.go.jp/37/index.php?action_kouhyou_detail_004_kani=true&JigyosyoCd=3771500521-00&ServiceCd=320&Type=search", "url2": "http://www.hiiragi.com" }, "geometry": { "type": "Point", "coordinates": [ 133.957758399999989, 34.2920976 ] } },
{ "type": "Feature", "properties": { "内容": "認知症高齢者グループホーム若葉荘【認知症対応型共同生活介護】香川県高松市三谷町1654番地5", "url": "https://www.kaigokensaku.mhlw.go.jp/37/index.php?action_kouhyou_detail_004_kani=true&JigyosyoCd=3770101768-00&ServiceCd=320&Type=search", "url2": "https://seimeikai.jp/wakaba/" }, "geometry": { "type": "Point", "coordinates": [ 134.060986299999968, 34.2809972 ] } },
{ "type": "Feature", "properties": { "内容": "認知症高齢者グループホーム第三若葉荘【認知症対応型共同生活介護】香川県高松市上林町822番地1", "url": "https://www.kaigokensaku.mhlw.go.jp/37/index.php?action_kouhyou_detail_004_kani=true&JigyosyoCd=3770102014-00&ServiceCd=320&Type=search", "url2": "https://seimeikai.jp/wakaba/" }, "geometry": { "type": "Point", "coordinates": [ 134.059314299999983, 34.2860604 ] } },
{ "type": "Feature", "properties": { "内容": "認知症高齢者グループホーム第五若葉荘【認知症対応型共同生活介護】香川県高松市三谷町1643番地1", "url": "https://www.kaigokensaku.mhlw.go.jp/37/index.php?action_kouhyou_detail_004_kani=true&JigyosyoCd=3770102675-00&ServiceCd=320&Type=search", "url2": "https://seimeikai.jp/wakaba/" }, "geometry": { "type": "Point", "coordinates": [ 134.0601365, 34.2830136 ] } },
{ "type": "Feature", "properties": { "内容": "認知症高齢者グループホーム第六若葉荘【認知症対応型共同生活介護】香川県高松市三谷町4551番地6", "url": "https://www.kaigokensaku.mhlw.go.jp/37/index.php?action_kouhyou_detail_004_kani=true&JigyosyoCd=3770103723-00&ServiceCd=320&Type=search", "url2": "https://seimeikai.jp/wakaba/" }, "geometry": { "type": "Point", "coordinates": [ 134.060028099999954, 34.2688182 ] } },
{ "type": "Feature", "properties": { "内容": "グループホーム　悠悠香南【認知症対応型共同生活介護】香川県高松市香南町西庄182-1", "url": "https://www.kaigokensaku.mhlw.go.jp/37/index.php?action_kouhyou_detail_004_kani=true&JigyosyoCd=3771400219-00&ServiceCd=320&Type=search", "url2": "http://yuyu.client.jp/" }, "geometry": { "type": "Point", "coordinates": [ 133.992807800000037, 34.2493112 ] } },
{ "type": "Feature", "properties": { "内容": "グループホーム　悠悠不動の滝【認知症対応型共同生活介護】香川県高松市塩江町安原上東203番地6", "url": "https://www.kaigokensaku.mhlw.go.jp/37/index.php?action_kouhyou_detail_004_kani=true&JigyosyoCd=3771400284-00&ServiceCd=320&Type=search", "url2": "htpp://yuyu.client.jp/" }, "geometry": { "type": "Point", "coordinates": [ 134.086869299999989, 34.17953420000002 ] } },
{ "type": "Feature", "properties": { "内容": "リーラの家　やしま【認知症対応型共同生活介護】高松市屋島西町893-1", "url": "https://www.kaigokensaku.mhlw.go.jp/37/index.php?action_kouhyou_detail_004_kani=true&JigyosyoCd=3790100253-00&ServiceCd=320&Type=search", "url2": null }, "geometry": { "type": "Point", "coordinates": [ 134.094706, 34.3501815 ] } },
{ "type": "Feature", "properties": { "内容": "グループホームやすらぎ【認知症対応型共同生活介護】香川県高松市塩上町一丁目4番10", "url": "https://www.kaigokensaku.mhlw.go.jp/37/index.php?action_kouhyou_detail_004_kani=true&JigyosyoCd=3770102295-00&ServiceCd=320&Type=search", "url2": "http://www.yamamoto-a.co.jp" }, "geometry": { "type": "Point", "coordinates": [ 134.054087435512031, 34.337961345536101 ] } },
{ "type": "Feature", "properties": { "内容": "グループホーム吉祥【認知症対応型共同生活介護】香川県高松市春日町1336番地1", "url": "https://www.kaigokensaku.mhlw.go.jp/37/index.php?action_kouhyou_detail_004_kani=true&JigyosyoCd=3790100899-00&ServiceCd=320&Type=search", "url2": "http://kisshoh.jｐ" }, "geometry": { "type": "Point", "coordinates": [ 134.0934686, 34.3313946 ] } },
{ "type": "Feature", "properties": { "内容": "グループホームこすもす【認知症対応型共同生活介護】高松市太田下町1868番地2", "url": "https://www.kaigokensaku.mhlw.go.jp/37/index.php?action_kouhyou_detail_004_kani=true&JigyosyoCd=3790101129-00&ServiceCd=320&Type=search", "url2": "https://kaigo-cosmos.com/" }, "geometry": { "type": "Point", "coordinates": [ 134.043523135581978, 34.307057986989243 ] } },
{ "type": "Feature", "properties": { "内容": "グループホーム真珠の湯【認知症対応型共同生活介護】香川県高松市新田町甲2712番地1", "url": "https://www.kaigokensaku.mhlw.go.jp/37/index.php?action_kouhyou_detail_004_kani=true&JigyosyoCd=3770102592-00&ServiceCd=320&Type=search", "url2": null }, "geometry": { "type": "Point", "coordinates": [ 134.099928099999943, 34.3282339 ] } },
{ "type": "Feature", "properties": { "内容": "グループホーム花もめん【認知症対応型共同生活介護】高松市太田下町2020番地1", "url": "https://www.kaigokensaku.mhlw.go.jp/37/index.php?action_kouhyou_detail_004_kani=true&JigyosyoCd=3770104267-00&ServiceCd=320&Type=search", "url2": "https://hatsukikai.or.jp/" }, "geometry": { "type": "Point", "coordinates": [ 134.0389735, 34.3043471 ] } },
{ "type": "Feature", "properties": { "内容": "愛の家グループホーム高松成合【認知症対応型共同生活介護】香川県高松市成合町581番地", "url": "https://www.kaigokensaku.mhlw.go.jp/37/index.php?action_kouhyou_detail_004_kani=true&JigyosyoCd=3790100022-00&ServiceCd=320&Type=search", "url2": "http://www.mcsg.co.jp" }, "geometry": { "type": "Point", "coordinates": [ 134.0125028, 34.3027359 ] } },
{ "type": "Feature", "properties": { "内容": "グループホーム花クッカ【認知症対応型共同生活介護】香川県高松市松福町一丁目12番3号", "url": "https://www.kaigokensaku.mhlw.go.jp/37/index.php?action_kouhyou_detail_004_kani=true&JigyosyoCd=3790100824-00&ServiceCd=320&Type=search", "url2": "https://hatsukikai.or.jp" }, "geometry": { "type": "Point", "coordinates": [ 134.0599796, 34.342531 ] } },
{ "type": "Feature", "properties": { "内容": "グループホーム　悠悠庵治の太陽【認知症対応型共同生活介護】香川県高松市庵治町3822番地1", "url": "https://www.kaigokensaku.mhlw.go.jp/37/index.php?action_kouhyou_detail_004_kani=true&JigyosyoCd=3790100238-00&ServiceCd=320&Type=search", "url2": "http://yuyu.client.jp/" }, "geometry": { "type": "Point", "coordinates": [ 134.139165899999966, 34.3776778 ] } },
{ "type": "Feature", "properties": { "内容": "グループホームひがん【認知症対応型共同生活介護】香川県高松市藤塚町1-11-5", "url": "https://www.kaigokensaku.mhlw.go.jp/37/index.php?action_kouhyou_detail_004_kani=true&JigyosyoCd=3770102204-00&ServiceCd=320&Type=search", "url2": "https://www.dr-navip.jp/kagawa/detail?no=1111" }, "geometry": { "type": "Point", "coordinates": [ 134.046978483623377, 34.333648128687003 ] } },
{ "type": "Feature", "properties": { "内容": "グループホーム　悠悠せんねん村【認知症対応型共同生活介護】香川県高松市香南町西庄695番地1", "url": "https://www.kaigokensaku.mhlw.go.jp/37/index.php?action_kouhyou_detail_004_kani=true&JigyosyoCd=3771400458-00&ServiceCd=320&Type=search", "url2": "http://yuyu.client.jp/" }, "geometry": { "type": "Point", "coordinates": [ 133.989702800000032, 34.2446449 ] } },
{ "type": "Feature", "properties": { "内容": "西春日グループホーム【認知症対応型共同生活介護】高松市西春日町１５１０－１", "url": "https://www.kaigokensaku.mhlw.go.jp/37/index.php?action_kouhyou_detail_004_kani=true&JigyosyoCd=3770101560-00&ServiceCd=320&Type=search", "url2": "https://www.samariya.or.jp" }, "geometry": { "type": "Point", "coordinates": [ 134.020023600000059, 34.315243 ] } },
{ "type": "Feature", "properties": { "内容": "グループホーム新番丁【認知症対応型共同生活介護】番町二丁目14-2", "url": "https://www.kaigokensaku.mhlw.go.jp/37/index.php?action_kouhyou_detail_004_kani=true&JigyosyoCd=3790100816-00&ServiceCd=320&Type=search", "url2": "www.sanuki-sha.or.jp" }, "geometry": { "type": "Point", "coordinates": [ 134.0399965, 34.3449589 ] } },
{ "type": "Feature", "properties": { "内容": "グループホームきらら【認知症対応型共同生活介護】高松市香西南町37-2", "url": "https://www.kaigokensaku.mhlw.go.jp/37/index.php?action_kouhyou_detail_004_kani=true&JigyosyoCd=3770101255-00&ServiceCd=320&Type=search", "url2": null }, "geometry": { "type": "Point", "coordinates": [ 133.9965717, 34.335535 ] } },
{ "type": "Feature", "properties": { "内容": "グループホーム春日【認知症対応型共同生活介護】高松市春日町671-1", "url": "https://www.kaigokensaku.mhlw.go.jp/37/index.php?action_kouhyou_detail_004_kani=true&JigyosyoCd=3770101990-00&ServiceCd=320&Type=search", "url2": null }, "geometry": { "type": "Point", "coordinates": [ 134.087710199999947, 34.3254258 ] } },
{ "type": "Feature", "properties": { "内容": "グループホーム暖暖【認知症対応型共同生活介護】高松市室新町１－８", "url": "https://www.kaigokensaku.mhlw.go.jp/37/index.php?action_kouhyou_detail_004_kani=true&JigyosyoCd=3770102485-00&ServiceCd=320&Type=search", "url2": null }, "geometry": { "type": "Point", "coordinates": [ 134.041919600000028, 34.3226619 ] } },
{ "type": "Feature", "properties": { "内容": "グループホームあい【認知症対応型共同生活介護】香川県高松市川部町1300番地1", "url": "https://www.kaigokensaku.mhlw.go.jp/37/index.php?action_kouhyou_detail_004_kani=true&JigyosyoCd=3790100162-00&ServiceCd=320&Type=search", "url2": null }, "geometry": { "type": "Point", "coordinates": [ 134.014648622090107, 34.260935599211656 ] } },
{ "type": "Feature", "properties": { "内容": "グループホーム　ひまわりの家【認知症対応型共同生活介護】高松市香川町大野901-1", "url": "https://www.kaigokensaku.mhlw.go.jp/37/index.php?action_kouhyou_detail_004_kani=true&JigyosyoCd=3771400243-00&ServiceCd=320&Type=search", "url2": "https://www.tanimoto-c.or.jp/" }, "geometry": { "type": "Point", "coordinates": [ 134.02729260000001, 34.2643986 ] } },
{ "type": "Feature", "properties": { "内容": "リーラの家　さくら【認知症対応型共同生活介護】香川県高松市福岡町4丁目12-18", "url": "https://www.kaigokensaku.mhlw.go.jp/37/index.php?action_kouhyou_detail_004_kani=true&JigyosyoCd=3790100428-00&ServiceCd=320&Type=search", "url2": null }, "geometry": { "type": "Point", "coordinates": [ 138.252924, 36.204824 ] } },
{ "type": "Feature", "properties": { "内容": "グループホームらく楽十川【認知症対応型共同生活介護】十川東町938-1", "url": "https://www.kaigokensaku.mhlw.go.jp/37/index.php?action_kouhyou_detail_004_kani=true&JigyosyoCd=3790100964-00&ServiceCd=320&Type=search", "url2": "http://www.rakuraku-group.jp/" }, "geometry": { "type": "Point", "coordinates": [ 134.1060941, 34.2597743 ] } },
{ "type": "Feature", "properties": { "内容": "ネムの木グループホーム円座【認知症対応型共同生活介護】円座町西村94-1", "url": "https://www.kaigokensaku.mhlw.go.jp/37/index.php?action_kouhyou_detail_004_kani=true&JigyosyoCd=3790100535-00&ServiceCd=320&Type=search", "url2": "www.koushi-f.or.jp/enza-ghome/index.html" }, "geometry": { "type": "Point", "coordinates": [ 134.003475226181081, 34.288562011906258 ] } },
{ "type": "Feature", "properties": { "内容": "グループホームアイムの杜【認知症対応型共同生活介護】香川県高松市国分寺町新居1339番地3", "url": "https://www.kaigokensaku.mhlw.go.jp/37/index.php?action_kouhyou_detail_004_kani=true&JigyosyoCd=3790100840-00&ServiceCd=320&Type=search", "url2": null }, "geometry": { "type": "Point", "coordinates": [ 133.9598495, 34.2983367 ] } },
{ "type": "Feature", "properties": { "内容": "らく楽一宮【認知症対応型共同生活介護】香川県高松市一宮町１５６８番地１", "url": "https://www.kaigokensaku.mhlw.go.jp/37/index.php?action_kouhyou_detail_004_kani=true&JigyosyoCd=3770102550-00&ServiceCd=320&Type=search", "url2": "http://www.rakuraku-group.jp/" }, "geometry": { "type": "Point", "coordinates": [ 134.020522199999959, 34.2920037 ] } },
{ "type": "Feature", "properties": { "内容": "グループホーム　らく楽新田【認知症対応型共同生活介護】香川県高松市新田町1144-3", "url": "https://www.kaigokensaku.mhlw.go.jp/37/index.php?action_kouhyou_detail_004_kani=true&JigyosyoCd=3790100402-00&ServiceCd=320&Type=search", "url2": "http://www.rakuraku-group.jp" }, "geometry": { "type": "Point", "coordinates": [ 134.108317218871321, 34.323708856898406 ] } },
{ "type": "Feature", "properties": { "内容": "高齢者グループホーム　プレスマン【認知症対応型共同生活介護】香川県高松市牟礼町原932-1", "url": "https://www.kaigokensaku.mhlw.go.jp/37/index.php?action_kouhyou_detail_004_kani=true&JigyosyoCd=3771300419-00&ServiceCd=320&Type=search", "url2": "http://www.sanko-hp.com/" }, "geometry": { "type": "Point", "coordinates": [ 134.151028, 34.3304784 ] } },
{ "type": "Feature", "properties": { "内容": "悠久の里　高松西【認知症対応型共同生活介護】香川県高松市飯田町1334番地4", "url": "https://www.kaigokensaku.mhlw.go.jp/37/index.php?action_kouhyou_detail_004_kani=true&JigyosyoCd=3770102816-00&ServiceCd=320&Type=search", "url2": null }, "geometry": { "type": "Point", "coordinates": [ 134.000830200000024, 34.3235817 ] } },
{ "type": "Feature", "properties": { "内容": "ニチイケアセンター古高松　ｸﾞﾙｰﾌﾟﾎｰﾑ　ニチイのほほえみ【認知症対応型共同生活介護】高松市高松町1718-2", "url": "https://www.kaigokensaku.mhlw.go.jp/37/index.php?action_kouhyou_detail_004_kani=true&JigyosyoCd=3790100220-00&ServiceCd=320&Type=search", "url2": null }, "geometry": { "type": "Point", "coordinates": [ 134.112851299999988, 34.336272 ] } },
{ "type": "Feature", "properties": { "内容": "グループホーム　椿【認知症対応型共同生活介護】丸亀市金倉町５３７－２", "url": "https://www.kaigokensaku.mhlw.go.jp/37/index.php?action_kouhyou_detail_004_kani=true&JigyosyoCd=3790200095-00&ServiceCd=320&Type=search", "url2": "http://junshinkai.com/" }, "geometry": { "type": "Point", "coordinates": [ 133.774116899999967, 34.2701692 ] } },
{ "type": "Feature", "properties": { "内容": "グループホームどき【認知症対応型共同生活介護】丸亀市土器町西４丁目２４４どき介護ステーション", "url": "https://www.kaigokensaku.mhlw.go.jp/37/index.php?action_kouhyou_detail_004_kani=true&JigyosyoCd=3770200594-00&ServiceCd=320&Type=search", "url2": "http://kaigostation.co.jp/" }, "geometry": { "type": "Point", "coordinates": [ 133.815231499999982, 34.2826265 ] } },
{ "type": "Feature", "properties": { "内容": "グループホームなぎさ【認知症対応型共同生活介護】香川県丸亀市中府町４丁目１２－１９", "url": "https://www.kaigokensaku.mhlw.go.jp/37/index.php?action_kouhyou_detail_004_kani=true&JigyosyoCd=3790200046-00&ServiceCd=320&Type=search", "url2": "http//www.tamura-clin.com/" }, "geometry": { "type": "Point", "coordinates": [ 133.7893484, 34.2856789 ] } },
{ "type": "Feature", "properties": { "内容": "グループホーム　あやうた【認知症対応型共同生活介護】香川県丸亀市綾歌町栗熊東７８３番地", "url": "https://www.kaigokensaku.mhlw.go.jp/37/index.php?action_kouhyou_detail_004_kani=true&JigyosyoCd=3790200129-00&ServiceCd=320&Type=search", "url2": "http:/www.houjuen-aonoyama.jp" }, "geometry": { "type": "Point", "coordinates": [ 133.887857599999961, 34.2375069 ] } },
{ "type": "Feature", "properties": { "内容": "グループホーム　なごみ【認知症対応型共同生活介護】香川県丸亀市垂水町１３５３番地", "url": "https://www.kaigokensaku.mhlw.go.jp/37/index.php?action_kouhyou_detail_004_kani=true&JigyosyoCd=3770200362-00&ServiceCd=320&Type=search", "url2": "https://www.tarumisou.com" }, "geometry": { "type": "Point", "coordinates": [ 133.829373300000043, 34.2339017 ] } },
{ "type": "Feature", "properties": { "内容": "グループホーム袖村【認知症対応型共同生活介護】香川県丸亀市飯山町西坂元928-1", "url": "https://www.kaigokensaku.mhlw.go.jp/37/index.php?action_kouhyou_detail_004_kani=true&JigyosyoCd=3771500406-00&ServiceCd=320&Type=search", "url2": null }, "geometry": { "type": "Point", "coordinates": [ 133.84168150000005, 34.258605 ] } },
{ "type": "Feature", "properties": { "内容": "グループホームさぬき富士【認知症対応型共同生活介護】香川県丸亀市飯野町東二25番地21", "url": "https://www.kaigokensaku.mhlw.go.jp/37/index.php?action_kouhyou_detail_004_kani=true&JigyosyoCd=3770200412-00&ServiceCd=320&Type=search", "url2": "http//www.jukoen,jp" }, "geometry": { "type": "Point", "coordinates": [ 133.838045052253733, 34.271578229510894 ] } },
{ "type": "Feature", "properties": { "内容": "ネムの木グループホーム丸亀【認知症対応型共同生活介護】香川県丸亀市川西町南甲２２０番地１", "url": "https://www.kaigokensaku.mhlw.go.jp/37/index.php?action_kouhyou_detail_004_kani=true&JigyosyoCd=3790200376-00&ServiceCd=320&Type=search", "url2": "http://www.koushi-f.or.jp" }, "geometry": { "type": "Point", "coordinates": [ 133.832981547176104, 34.255763642520002 ] } },
{ "type": "Feature", "properties": { "内容": "グループホーム桃の木【認知症対応型共同生活介護】丸亀市飯山町川原185-1", "url": "https://www.kaigokensaku.mhlw.go.jp/37/index.php?action_kouhyou_detail_004_kani=true&JigyosyoCd=3790200145-00&ServiceCd=320&Type=search", "url2": "http://koufukukai.or.jp" }, "geometry": { "type": "Point", "coordinates": [ 133.852068300000042, 34.2628288 ] } },
{ "type": "Feature", "properties": { "内容": "グループホーム玉うさぎ【認知症対応型共同生活介護】香川県丸亀市川西町北９９８－１", "url": "https://www.kaigokensaku.mhlw.go.jp/37/index.php?action_kouhyou_detail_004_kani=true&JigyosyoCd=3790200152-00&ServiceCd=320&Type=search", "url2": "koufukukai.or.jp" }, "geometry": { "type": "Point", "coordinates": [ 133.817326099999946, 34.2668922 ] } },
{ "type": "Feature", "properties": { "内容": "医療法人社団厚仁会グループホームこうじん【認知症対応型共同生活介護】香川県丸亀市松屋町11番地1", "url": "https://www.kaigokensaku.mhlw.go.jp/37/index.php?action_kouhyou_detail_004_kani=true&JigyosyoCd=3790200103-00&ServiceCd=320&Type=search", "url2": null }, "geometry": { "type": "Point", "coordinates": [ 133.7963112, 34.2922198 ] } },
{ "type": "Feature", "properties": { "内容": "グループホーム　ほのぼの【認知症対応型共同生活介護】香川県丸亀市土器町東3丁目621番地", "url": "https://www.kaigokensaku.mhlw.go.jp/37/index.php?action_kouhyou_detail_004_kani=true&JigyosyoCd=3790200020-00&ServiceCd=320&Type=search", "url2": "http://nakano-iin.com/honobono/" }, "geometry": { "type": "Point", "coordinates": [ 133.813259199999948, 34.2930113 ] } },
{ "type": "Feature", "properties": { "内容": "ホームすみれ【認知症対応型共同生活介護】香川県坂出市川津町5638-15", "url": "https://www.kaigokensaku.mhlw.go.jp/37/index.php?action_kouhyou_detail_004_kani=true&JigyosyoCd=3790300077-00&ServiceCd=320&Type=search", "url2": null }, "geometry": { "type": "Point", "coordinates": [ 133.850399485678821, 34.280677854055021 ] } },
{ "type": "Feature", "properties": { "内容": "グループホーム　メイプル【認知症対応型共同生活介護】香川県坂出市加茂町591", "url": "https://www.kaigokensaku.mhlw.go.jp/37/index.php?action_kouhyou_detail_004_kani=true&JigyosyoCd=3770300576-00&ServiceCd=320&Type=search", "url2": "http://www.kbn.ne.jp/home/neuronis/main/frame7.html" }, "geometry": { "type": "Point", "coordinates": [ 133.908784400000059, 34.3115512 ] } },
{ "type": "Feature", "properties": { "内容": "グループホーム　やすらぎの家きやま【認知症対応型共同生活介護】香川県坂出市川津町2001番地1", "url": "https://www.kaigokensaku.mhlw.go.jp/37/index.php?action_kouhyou_detail_004_kani=true&JigyosyoCd=3770300279-00&ServiceCd=320&Type=search", "url2": "http://www.kbn.ne.jp/home/kym0007" }, "geometry": { "type": "Point", "coordinates": [ 133.869599599999987, 34.2924531 ] } },
{ "type": "Feature", "properties": { "内容": "グループホーム　みかんの花【認知症対応型共同生活介護】香川県坂出市大屋冨町３１００番地３０", "url": "https://www.kaigokensaku.mhlw.go.jp/37/index.php?action_kouhyou_detail_004_kani=true&JigyosyoCd=3790300101-00&ServiceCd=320&Type=search", "url2": "https://www.shouju.or.jp/" }, "geometry": { "type": "Point", "coordinates": [ 133.893080899999973, 34.3563642 ] } },
{ "type": "Feature", "properties": { "内容": "グループホームたんぽぽの花【認知症対応型共同生活介護】香川県坂出市林田町字東梶甲586番地1", "url": "https://www.kaigokensaku.mhlw.go.jp/37/index.php?action_kouhyou_detail_004_kani=true&JigyosyoCd=3790300218-00&ServiceCd=320&Type=search", "url2": "https://www.shouju.or.jp/" }, "geometry": { "type": "Point", "coordinates": [ 133.893353360140992, 34.326765396442077 ] } },
{ "type": "Feature", "properties": { "内容": "グループホーム　たまもよし【認知症対応型共同生活介護】香川県坂出市加茂町194番地１", "url": "https://www.kaigokensaku.mhlw.go.jp/37/index.php?action_kouhyou_detail_004_kani=true&JigyosyoCd=3770300329-00&ServiceCd=320&Type=search", "url2": "http://www.goshikidai.or.jp" }, "geometry": { "type": "Point", "coordinates": [ 133.922638600000028, 34.3025945 ] } },
{ "type": "Feature", "properties": { "内容": "グループホーム　緑の里【認知症対応型共同生活介護】香川県坂出市寿町1丁目3番1号さくらの花会館　2階", "url": "https://www.kaigokensaku.mhlw.go.jp/37/index.php?action_kouhyou_detail_004_kani=true&JigyosyoCd=3790300200-00&ServiceCd=320&Type=search", "url2": "https://n-keiseikai.com/" }, "geometry": { "type": "Point", "coordinates": [ 133.850366600000029, 34.3136308 ] } },
{ "type": "Feature", "properties": { "内容": "グループホームパンジー【認知症対応型共同生活介護】香川県坂出市京町3丁目6番56号", "url": "https://www.kaigokensaku.mhlw.go.jp/37/index.php?action_kouhyou_detail_004_kani=true&JigyosyoCd=3790300044-00&ServiceCd=320&Type=search", "url2": "http://www.maedaseikei.or.jp/" }, "geometry": { "type": "Point", "coordinates": [ 133.857955700000048, 34.3175036 ] } },
{ "type": "Feature", "properties": { "内容": "社会福祉法人　善通寺福祉会　グループホーム仙遊荘【認知症対応型共同生活介護】香川県善通寺市仙遊町二丁目３番４３号", "url": "https://www.kaigokensaku.mhlw.go.jp/37/index.php?action_kouhyou_detail_004_kani=true&JigyosyoCd=3770400400-00&ServiceCd=320&Type=search", "url2": "http://zen-fukushikai.jp/" }, "geometry": { "type": "Point", "coordinates": [ 133.7702008, 34.2279322 ] } },
{ "type": "Feature", "properties": { "内容": "グループホーム　まおの里【認知症対応型共同生活介護】香川県善通寺市大麻町２０８０番地1", "url": "https://www.kaigokensaku.mhlw.go.jp/37/index.php?action_kouhyou_detail_004_kani=true&JigyosyoCd=3790400034-00&ServiceCd=320&Type=search", "url2": "https://www.osugi-mao.jp" }, "geometry": { "type": "Point", "coordinates": [ 133.800043, 34.2154672 ] } },
{ "type": "Feature", "properties": { "内容": "グループホーム　ねんりん【認知症対応型共同生活介護】善通寺市中村町８４９", "url": "https://www.kaigokensaku.mhlw.go.jp/37/index.php?action_kouhyou_detail_004_kani=true&JigyosyoCd=3790400059-00&ServiceCd=320&Type=search", "url2": "http://www.junshinkai.com/" }, "geometry": { "type": "Point", "coordinates": [ 133.764371, 34.244897 ] } },
{ "type": "Feature", "properties": { "内容": "くれよんルーム【認知症対応型共同生活介護】香川県善通寺市原田町1565番地3", "url": "https://www.kaigokensaku.mhlw.go.jp/37/index.php?action_kouhyou_detail_004_kani=true&JigyosyoCd=3770400244-00&ServiceCd=320&Type=search", "url2": "http://www.senju-group.or.jp" }, "geometry": { "type": "Point", "coordinates": [ 133.7872324, 34.2540493 ] } },
{ "type": "Feature", "properties": { "内容": "楽陽荘グループホームちーず【認知症対応型共同生活介護】香川県観音寺市柞田町甲１９３６番地", "url": "https://www.kaigokensaku.mhlw.go.jp/37/index.php?action_kouhyou_detail_004_kani=true&JigyosyoCd=3790500031-00&ServiceCd=320&Type=search", "url2": "http://www.rakuyousou.com/" }, "geometry": { "type": "Point", "coordinates": [ 133.675133, 34.1136735 ] } },
{ "type": "Feature", "properties": { "内容": "愛の家グループホーム観音寺大野原【認知症対応型共同生活介護】香川県観音寺市大野原町中姫1147-1", "url": "https://www.kaigokensaku.mhlw.go.jp/37/index.php?action_kouhyou_detail_004_kani=true&JigyosyoCd=3790500080-00&ServiceCd=320&Type=search", "url2": "http://www.mcsg.co.jp" }, "geometry": { "type": "Point", "coordinates": [ 133.67110589999993, 34.0866268 ] } },
{ "type": "Feature", "properties": { "内容": "グループホームスマイル【認知症対応型共同生活介護】香川県観音寺市村黒町750番地", "url": "https://www.kaigokensaku.mhlw.go.jp/37/index.php?action_kouhyou_detail_004_kani=true&JigyosyoCd=3790500023-00&ServiceCd=320&Type=search", "url2": null }, "geometry": { "type": "Point", "coordinates": [ 133.6660723, 34.1329518 ] } },
{ "type": "Feature", "properties": { "内容": "けあビジョンホーム観音寺【認知症対応型共同生活介護】香川県観音寺市吉岡町812-1", "url": "https://www.kaigokensaku.mhlw.go.jp/37/index.php?action_kouhyou_detail_004_kani=true&JigyosyoCd=3790500148-00&ServiceCd=320&Type=search", "url2": null }, "geometry": { "type": "Point", "coordinates": [ 133.6892846, 34.1340305 ] } },
{ "type": "Feature", "properties": { "内容": "冨士グループホームほほえみ【認知症対応型共同生活介護】香川県観音寺市観音寺町甲2899-3", "url": "https://www.kaigokensaku.mhlw.go.jp/37/index.php?action_kouhyou_detail_004_kani=true&JigyosyoCd=3770500415-00&ServiceCd=320&Type=search", "url2": null }, "geometry": { "type": "Point", "coordinates": [ 133.6498014, 34.1276968 ] } },
{ "type": "Feature", "properties": { "内容": "グループホームたんぽぽ【認知症対応型共同生活介護】香川県観音寺市吉岡町960-10", "url": "https://www.kaigokensaku.mhlw.go.jp/37/index.php?action_kouhyou_detail_004_kani=true&JigyosyoCd=3790500221-00&ServiceCd=320&Type=search", "url2": "https://yuyusya.co.jp/" }, "geometry": { "type": "Point", "coordinates": [ 133.685873413491834, 34.133555398504541 ] } },
{ "type": "Feature", "properties": { "内容": "グループホーム　ネムの木【認知症対応型共同生活介護】香川県観音寺市豊浜町姫浜103番地1", "url": "https://www.kaigokensaku.mhlw.go.jp/37/index.php?action_kouhyou_detail_004_kani=true&JigyosyoCd=3790500106-00&ServiceCd=320&Type=search", "url2": "http://www.koushi-f.or.jp" }, "geometry": { "type": "Point", "coordinates": [ 133.639347499999985, 34.084890900000019 ] } },
{ "type": "Feature", "properties": { "内容": "サマリヤ大川グループホーム【認知症対応型共同生活介護】香川県さぬき市大川町田面１１９８", "url": "https://www.kaigokensaku.mhlw.go.jp/37/index.php?action_kouhyou_detail_004_kani=true&JigyosyoCd=3771100611-00&ServiceCd=320&Type=search", "url2": "http://www.samariya.or.jp/" }, "geometry": { "type": "Point", "coordinates": [ 134.263909099999978, 34.2495412 ] } },
{ "type": "Feature", "properties": { "内容": "グループホーム志度玉浦園【認知症対応型共同生活介護】香川県さぬき市志度1610-1", "url": "https://www.kaigokensaku.mhlw.go.jp/37/index.php?action_kouhyou_detail_004_kani=true&JigyosyoCd=3770600090-00&ServiceCd=320&Type=search", "url2": "http：//ｗｗｗ.tamauraen.or.jp/" }, "geometry": { "type": "Point", "coordinates": [ 134.1943278, 34.319239 ] } },
{ "type": "Feature", "properties": { "内容": "グループホーム　さわやかハウス【認知症対応型共同生活介護】香川県さぬき市津田町津田２２０５番地", "url": "https://www.kaigokensaku.mhlw.go.jp/37/index.php?action_kouhyou_detail_004_kani=true&JigyosyoCd=3790600021-00&ServiceCd=320&Type=search", "url2": "https://sawayakakaigo.or.jp/" }, "geometry": { "type": "Point", "coordinates": [ 134.240196500000025, 34.2943693 ] } },
{ "type": "Feature", "properties": { "内容": "有情の里【認知症対応型共同生活介護】香川県さぬき市大川町田面78－1", "url": "https://www.kaigokensaku.mhlw.go.jp/37/index.php?action_kouhyou_detail_004_kani=true&JigyosyoCd=3770600173-00&ServiceCd=320&Type=search", "url2": null }, "geometry": { "type": "Point", "coordinates": [ 134.250432, 34.2580011 ] } },
{ "type": "Feature", "properties": { "内容": "すばるグループホーム【認知症対応型共同生活介護】香川県東かがわ市馬篠330番地10", "url": "https://www.kaigokensaku.mhlw.go.jp/37/index.php?action_kouhyou_detail_004_kani=true&JigyosyoCd=3790700102-00&ServiceCd=320&Type=search", "url2": null }, "geometry": { "type": "Point", "coordinates": [ 134.288001376582343, 34.269624603543022 ] } },
{ "type": "Feature", "properties": { "内容": "グループホームあすか【認知症対応型共同生活介護】東かがわ市川東88-3", "url": "https://www.kaigokensaku.mhlw.go.jp/37/index.php?action_kouhyou_detail_004_kani=true&JigyosyoCd=3771100579-00&ServiceCd=320&Type=search", "url2": "https://idm-hcg.co.jp" }, "geometry": { "type": "Point", "coordinates": [ 134.331497899999931, 34.24906 ] } },
{ "type": "Feature", "properties": { "内容": "グループホームミモザ園【認知症対応型共同生活介護】香川県東かがわ市白鳥１７５４－１", "url": "https://www.kaigokensaku.mhlw.go.jp/37/index.php?action_kouhyou_detail_004_kani=true&JigyosyoCd=3770700098-00&ServiceCd=320&Type=search", "url2": "https://www.ohta-medical.org/" }, "geometry": { "type": "Point", "coordinates": [ 134.334647799999971, 34.2366755 ] } },
{ "type": "Feature", "properties": { "内容": "グループホームたんぽぽの家【認知症対応型共同生活介護】香川県東かがわ市湊263-1", "url": "https://www.kaigokensaku.mhlw.go.jp/37/index.php?action_kouhyou_detail_004_kani=true&JigyosyoCd=3770700254-00&ServiceCd=320&Type=search", "url2": "https://www.tanpoponoie.jp" }, "geometry": { "type": "Point", "coordinates": [ 134.350721, 34.2500605 ] } },
{ "type": "Feature", "properties": { "内容": "グループホームたんぽぽの家Ⅱ【認知症対応型共同生活介護】湊319番地1", "url": "https://www.kaigokensaku.mhlw.go.jp/37/index.php?action_kouhyou_detail_004_kani=true&JigyosyoCd=3790700060-00&ServiceCd=320&Type=search", "url2": "https://www.tanpoponoie.jp/" }, "geometry": { "type": "Point", "coordinates": [ 134.350441967727647, 34.250100265490232 ] } },
{ "type": "Feature", "properties": { "内容": "グループホームあじさい【認知症対応型共同生活介護】香川県東かがわ市引田922番地18", "url": "https://www.kaigokensaku.mhlw.go.jp/37/index.php?action_kouhyou_detail_004_kani=true&JigyosyoCd=3771100520-00&ServiceCd=320&Type=search", "url2": "http:/www.shikoku.ne.jp/zuishou/" }, "geometry": { "type": "Point", "coordinates": [ 134.397764700000039, 34.2143374 ] } },
{ "type": "Feature", "properties": { "内容": "旭グループホーム【認知症対応型共同生活介護】三豊市高瀬町上高瀬5388番地262", "url": "https://www.kaigokensaku.mhlw.go.jp/37/index.php?action_kouhyou_detail_004_kani=true&JigyosyoCd=3771700907-00&ServiceCd=320&Type=search", "url2": null }, "geometry": { "type": "Point", "coordinates": [ 133.7503729, 34.2042782 ] } },
{ "type": "Feature", "properties": { "内容": "グループホームせとうち【認知症対応型共同生活介護】香川県三豊市三野町吉津甲６０５番地２", "url": "https://www.kaigokensaku.mhlw.go.jp/37/index.php?action_kouhyou_detail_004_kani=true&JigyosyoCd=3770800146-00&ServiceCd=320&Type=search", "url2": "http://setouchi-fukushi.com/" }, "geometry": { "type": "Point", "coordinates": [ 133.697506400000066, 34.2000175 ] } },
{ "type": "Feature", "properties": { "内容": "グループホーム　高瀬【認知症対応型共同生活介護】香川県三豊市高瀬町新名１４７６－１", "url": "https://www.kaigokensaku.mhlw.go.jp/37/index.php?action_kouhyou_detail_004_kani=true&JigyosyoCd=3771700774-00&ServiceCd=320&Type=search", "url2": null }, "geometry": { "type": "Point", "coordinates": [ 133.715066200000024, 34.1927514 ] } },
{ "type": "Feature", "properties": { "内容": "グループホームゆめクラブ【認知症対応型共同生活介護】三野町下高瀬362番地", "url": "https://www.kaigokensaku.mhlw.go.jp/37/index.php?action_kouhyou_detail_004_kani=true&JigyosyoCd=3790800142-00&ServiceCd=320&Type=search", "url2": "http://setouchi-fukushi.com/" }, "geometry": { "type": "Point", "coordinates": [ 133.698842922831801, 34.199735975007975 ] } },
{ "type": "Feature", "properties": { "内容": "認知症グループホームあいあい【認知症対応型共同生活介護】三豊市仁尾町仁尾辛42-16", "url": "https://www.kaigokensaku.mhlw.go.jp/37/index.php?action_kouhyou_detail_004_kani=true&JigyosyoCd=3770800161-00&ServiceCd=320&Type=search", "url2": "http://www.junsinkai.com/" }, "geometry": { "type": "Point", "coordinates": [ 133.645372400000042, 34.1925356 ] } },
{ "type": "Feature", "properties": { "内容": "グループホームとよなか【認知症対応型共同生活介護】香川県三豊市豊中町笠田竹田697番地1", "url": "https://www.kaigokensaku.mhlw.go.jp/37/index.php?action_kouhyou_detail_004_kani=true&JigyosyoCd=3771700832-00&ServiceCd=320&Type=search", "url2": "http://www.toyonakasou.jp/" }, "geometry": { "type": "Point", "coordinates": [ 133.695546799999988, 34.1554374 ] } },
{ "type": "Feature", "properties": { "内容": "グループホーム　せとの家【認知症対応型共同生活介護】香川県三豊市詫間町詫間２０７３番地", "url": "https://www.kaigokensaku.mhlw.go.jp/37/index.php?action_kouhyou_detail_004_kani=true&JigyosyoCd=3771700790-00&ServiceCd=320&Type=search", "url2": "http://www.takumafukushi.com/" }, "geometry": { "type": "Point", "coordinates": [ 133.671219299999962, 34.2209683 ] } },
{ "type": "Feature", "properties": { "内容": "グループホーム　オリーブ苑【認知症対応型共同生活介護】香川県三豊市詫間町詫間679-40", "url": "https://www.kaigokensaku.mhlw.go.jp/37/index.php?action_kouhyou_detail_004_kani=true&JigyosyoCd=3771700899-00&ServiceCd=320&Type=search", "url2": "http://www.iwasaki-hp.or.jp" }, "geometry": { "type": "Point", "coordinates": [ 133.676568800000041, 34.2220708 ] } },
{ "type": "Feature", "properties": { "内容": "グループホームやまもと【認知症対応型共同生活介護】香川県三豊市山本町辻３６７番地１", "url": "https://www.kaigokensaku.mhlw.go.jp/37/index.php?action_kouhyou_detail_004_kani=true&JigyosyoCd=3790800050-00&ServiceCd=320&Type=search", "url2": "http://grouphomenishino.com" }, "geometry": { "type": "Point", "coordinates": [ 133.724276, 34.1169537 ] } },
{ "type": "Feature", "properties": { "内容": "グループホーム北のおひさま【認知症対応型共同生活介護】香川県小豆郡土庄町屋形崎字空開甲９６９番地", "url": "https://www.kaigokensaku.mhlw.go.jp/37/index.php?action_kouhyou_detail_004_kani=true&JigyosyoCd=3771200296-00&ServiceCd=320&Type=search", "url2": "http://www.sunshine-kai.com" }, "geometry": { "type": "Point", "coordinates": [ 134.223524200000043, 34.526413 ] } },
{ "type": "Feature", "properties": { "内容": "グループホーム青空【認知症対応型共同生活介護】香川県小豆郡小豆島町西村甲2121-1", "url": "https://www.kaigokensaku.mhlw.go.jp/37/index.php?action_kouhyou_detail_004_kani=true&JigyosyoCd=3771200304-00&ServiceCd=320&Type=search", "url2": "http://www.ogenki-aozora.jp/" }, "geometry": { "type": "Point", "coordinates": [ 134.270158900000069, 34.4695595 ] } },
{ "type": "Feature", "properties": { "内容": "グループホーム　くすの木【認知症対応型共同生活介護】香川県木田郡三木町池戸2362番地", "url": "https://www.kaigokensaku.mhlw.go.jp/37/index.php?action_kouhyou_detail_004_kani=true&JigyosyoCd=3771300427-00&ServiceCd=320&Type=search", "url2": null }, "geometry": { "type": "Point", "coordinates": [ 134.123208400000067, 34.2763773 ] } },
{ "type": "Feature", "properties": { "内容": "グループホーム　れんげハウス【認知症対応型共同生活介護】香川県木田郡三木町大字池戸2074-5グループホーム　れんげハウス", "url": "https://www.kaigokensaku.mhlw.go.jp/37/index.php?action_kouhyou_detail_004_kani=true&JigyosyoCd=3791300019-00&ServiceCd=320&Type=search", "url2": "http://rengehouse.com" }, "geometry": { "type": "Point", "coordinates": [ 134.120008900000016, 34.2876116 ] } },
{ "type": "Feature", "properties": { "内容": "グループホームゆうゆう三木【認知症対応型共同生活介護】香川県木田郡三木町上高岡2396番地3", "url": "https://www.kaigokensaku.mhlw.go.jp/37/index.php?action_kouhyou_detail_004_kani=true&JigyosyoCd=3791300050-00&ServiceCd=320&Type=search", "url2": "http://www.yuyusya.co.jp/" }, "geometry": { "type": "Point", "coordinates": [ 134.146963, 34.2522246 ] } },
{ "type": "Feature", "properties": { "内容": "医療法人社団　一真会　グループホームまごころ【認知症対応型共同生活介護】香川県木田郡三木町井戸533-3", "url": "https://www.kaigokensaku.mhlw.go.jp/37/index.php?action_kouhyou_detail_004_kani=true&JigyosyoCd=3771300393-00&ServiceCd=320&Type=search", "url2": "http://www.kawahito.or.jp/" }, "geometry": { "type": "Point", "coordinates": [ 134.156663464912441, 34.252584357125677 ] } },
{ "type": "Feature", "properties": { "内容": "グループホーム冨士【認知症対応型共同生活介護】綾歌郡宇多津町2643-3", "url": "https://www.kaigokensaku.mhlw.go.jp/37/index.php?action_kouhyou_detail_004_kani=true&JigyosyoCd=3771500430-00&ServiceCd=320&Type=search", "url2": null }, "geometry": { "type": "Point", "coordinates": [ 133.815485599999988, 34.3054256 ] } },
{ "type": "Feature", "properties": { "内容": "グループホーム　さくら【認知症対応型共同生活介護】綾歌郡綾川町滝宮５５７－５", "url": "https://www.kaigokensaku.mhlw.go.jp/37/index.php?action_kouhyou_detail_004_kani=true&JigyosyoCd=3771500752-00&ServiceCd=320&Type=search", "url2": "http://www.mizobuchi-clinic.or.jp" }, "geometry": { "type": "Point", "coordinates": [ 133.923988099999974, 34.247044 ] } },
{ "type": "Feature", "properties": { "内容": "グループホームプラム【認知症対応型共同生活介護】香川県綾歌郡綾川町滝宮１１２２番地１", "url": "https://www.kaigokensaku.mhlw.go.jp/37/index.php?action_kouhyou_detail_004_kani=true&JigyosyoCd=3791500022-00&ServiceCd=320&Type=search", "url2": null }, "geometry": { "type": "Point", "coordinates": [ 133.9228382, 34.2466357 ] } },
{ "type": "Feature", "properties": { "内容": "認知症対応型共同生活介護グループホームこんぴら【認知症対応型共同生活介護】香川県仲多度郡琴平町167番地", "url": "https://www.kaigokensaku.mhlw.go.jp/37/index.php?action_kouhyou_detail_004_kani=true&JigyosyoCd=3771600610-00&ServiceCd=320&Type=search", "url2": "http://www.eisei-hp.or.jp" }, "geometry": { "type": "Point", "coordinates": [ 133.822923189898006, 34.189404522334684 ] } },
{ "type": "Feature", "properties": { "内容": "グループホーム　青い鳥【認知症対応型共同生活介護】香川県仲多度郡多度津町葛原451-1", "url": "https://www.kaigokensaku.mhlw.go.jp/37/index.php?action_kouhyou_detail_004_kani=true&JigyosyoCd=3771600636-00&ServiceCd=320&Type=search", "url2": null }, "geometry": { "type": "Point", "coordinates": [ 133.7662113, 34.2534722 ] } },
{ "type": "Feature", "properties": { "内容": "グループホーム　みどり【認知症対応型共同生活介護】香川県仲多度郡多度津町寿町7番３号", "url": "https://www.kaigokensaku.mhlw.go.jp/37/index.php?action_kouhyou_detail_004_kani=true&JigyosyoCd=3791600079-00&ServiceCd=320&Type=search", "url2": "http://katouhp.net/" }, "geometry": { "type": "Point", "coordinates": [ 133.75882660000002, 34.2701493 ] } },
{ "type": "Feature", "properties": { "内容": "グループホーム　愛寿苑【認知症対応型共同生活介護】香川県仲多度郡多度津町青木１４８番地", "url": "https://www.kaigokensaku.mhlw.go.jp/37/index.php?action_kouhyou_detail_004_kani=true&JigyosyoCd=3791600129-00&ServiceCd=320&Type=search", "url2": null }, "geometry": { "type": "Point", "coordinates": [ 133.7489712, 34.2572485 ] } },
{ "type": "Feature", "properties": { "内容": "グループホーム　よりあい【認知症対応型共同生活介護】香川県仲多度郡まんのう町東高篠285-1", "url": "https://www.kaigokensaku.mhlw.go.jp/37/index.php?action_kouhyou_detail_004_kani=true&JigyosyoCd=3791600020-00&ServiceCd=320&Type=search", "url2": "https://www.seiyuukai.jp/" }, "geometry": { "type": "Point", "coordinates": [ 133.828826700000036, 34.2155173 ] } },
{ "type": "Feature", "properties": { "内容": "グループホーム　かりんの郷【認知症対応型共同生活介護】香川県仲多度郡まんのう町炭所西1521番地1", "url": "https://www.kaigokensaku.mhlw.go.jp/37/index.php?action_kouhyou_detail_004_kani=true&JigyosyoCd=3771600503-00&ServiceCd=320&Type=search", "url2": "http://www.karinnosato.biz/" }, "geometry": { "type": "Point", "coordinates": [ 133.879654699999946, 34.1802415 ] } }
]
}
