{
"type": "FeatureCollection",
"name": "geo_37_地域密着型通所介護",
"crs": { "type": "name", "properties": { "name": "urn:ogc:def:crs:OGC:1.3:CRS84" } },
"features": [
{ "type": "Feature", "properties": { "内容": "ディサービスそよの里多肥上町【地域密着型通所介護】高松市多肥上町５１０番地", "url": "https://www.kaigokensaku.mhlw.go.jp/37/index.php?action_kouhyou_detail_004_kani=true&JigyosyoCd=3770107260-00&ServiceCd=780&Type=search", "url2": null }, "geometry": { "type": "Point", "coordinates": [ 134.05064010000001, 34.2884961 ] } },
{ "type": "Feature", "properties": { "内容": "リハプライド南海ちょくし【地域密着型通所介護】香川県高松市勅使町227番地1", "url": "https://www.kaigokensaku.mhlw.go.jp/37/index.php?action_kouhyou_detail_004_kani=true&JigyosyoCd=3790100592-00&ServiceCd=780&Type=search", "url2": "https://www.rehapride.co.jp/chokushi/" }, "geometry": { "type": "Point", "coordinates": [ 134.0138829, 34.3075159 ] } },
{ "type": "Feature", "properties": { "内容": "リハビリデイサービスYuu　高松店【地域密着型通所介護】香川県高松市内町3-11ロイヤルハイツビル内町1階", "url": "https://www.kaigokensaku.mhlw.go.jp/37/index.php?action_kouhyou_detail_004_kani=true&JigyosyoCd=3770107609-00&ServiceCd=780&Type=search", "url2": "http://www.my-nagomi.com" }, "geometry": { "type": "Point", "coordinates": [ 134.053168066270445, 34.346330012729005 ] } },
{ "type": "Feature", "properties": { "内容": "デイサービスラポールクラブ【地域密着型通所介護】高松市木太町2604番地3", "url": "https://www.kaigokensaku.mhlw.go.jp/37/index.php?action_kouhyou_detail_004_kani=true&JigyosyoCd=3770107773-00&ServiceCd=780&Type=search", "url2": null }, "geometry": { "type": "Point", "coordinates": [ 134.078845099999967, 34.3360074 ] } },
{ "type": "Feature", "properties": { "内容": "デイサービスそよの里【地域密着型通所介護】香川県高松市上福岡町714-1", "url": "https://www.kaigokensaku.mhlw.go.jp/37/index.php?action_kouhyou_detail_004_kani=true&JigyosyoCd=3770105512-00&ServiceCd=780&Type=search", "url2": null }, "geometry": { "type": "Point", "coordinates": [ 134.0661096, 34.3340406 ] } },
{ "type": "Feature", "properties": { "内容": "アコルデイサービス【地域密着型通所介護】香川県高松市藤塚町1丁目13-7第3八十川ビル1階", "url": "https://www.kaigokensaku.mhlw.go.jp/37/index.php?action_kouhyou_detail_004_kani=true&JigyosyoCd=3790100485-00&ServiceCd=780&Type=search", "url2": null }, "geometry": { "type": "Point", "coordinates": [ 134.04793369999993, 34.3334479 ] } },
{ "type": "Feature", "properties": { "内容": "ルアナデイサービス【地域密着型通所介護】香川県高松市高松町2312-4", "url": "https://www.kaigokensaku.mhlw.go.jp/37/index.php?action_kouhyou_detail_004_kani=true&JigyosyoCd=3790100790-00&ServiceCd=780&Type=search", "url2": "https://sun-walk.co.jp/" }, "geometry": { "type": "Point", "coordinates": [ 134.1181037, 34.3399332 ] } },
{ "type": "Feature", "properties": { "内容": "ＮＰデイサービス　やしまリハビリステーション【地域密着型通所介護】香川県高松市春日町片田1642番地1", "url": "https://www.kaigokensaku.mhlw.go.jp/37/index.php?action_kouhyou_detail_004_kani=true&JigyosyoCd=3770108433-00&ServiceCd=780&Type=search", "url2": "yashimareha@np-medical.com" }, "geometry": { "type": "Point", "coordinates": [ 134.090123419960037, 34.339832741935112 ] } },
{ "type": "Feature", "properties": { "内容": "松繩サロンデイサービスセンター【地域密着型通所介護】高松市松縄町1091-2", "url": "https://www.kaigokensaku.mhlw.go.jp/37/index.php?action_kouhyou_detail_004_kani=true&JigyosyoCd=3770106098-00&ServiceCd=780&Type=search", "url2": "www.hakueikai.net" }, "geometry": { "type": "Point", "coordinates": [ 134.062996500000054, 34.316421 ] } },
{ "type": "Feature", "properties": { "内容": "いきいきらいふSPA高松本町【地域密着型通所介護】高松市本町10番26号", "url": "https://www.kaigokensaku.mhlw.go.jp/37/index.php?action_kouhyou_detail_004_kani=true&JigyosyoCd=3770108516-00&ServiceCd=780&Type=search", "url2": "http://www.ikiiki-kagawa.jp/" }, "geometry": { "type": "Point", "coordinates": [ 134.054259699999989, 34.3478515 ] } },
{ "type": "Feature", "properties": { "内容": "デイサービスセンター　ふくろうの森【地域密着型通所介護】香川県高松市牟礼町原320-1", "url": "https://www.kaigokensaku.mhlw.go.jp/37/index.php?action_kouhyou_detail_004_kani=true&JigyosyoCd=3770108383-00&ServiceCd=780&Type=search", "url2": null }, "geometry": { "type": "Point", "coordinates": [ 134.161465662426707, 34.323624426684802 ] } },
{ "type": "Feature", "properties": { "内容": "レコードブック栗林駅前【地域密着型通所介護】香川県高松市藤塚町3丁目19-43オレンジコート栗林1階", "url": "https://www.kaigokensaku.mhlw.go.jp/37/index.php?action_kouhyou_detail_004_kani=true&JigyosyoCd=3790100576-00&ServiceCd=780&Type=search", "url2": "https://www.recordbook.jp/" }, "geometry": { "type": "Point", "coordinates": [ 134.0531238, 34.3320933 ] } },
{ "type": "Feature", "properties": { "内容": "バーン夕凪【地域密着型通所介護】林町1999-1　2階", "url": "https://www.kaigokensaku.mhlw.go.jp/37/index.php?action_kouhyou_detail_004_kani=true&JigyosyoCd=3770108342-00&ServiceCd=780&Type=search", "url2": "http://yunagi-gr.com/" }, "geometry": { "type": "Point", "coordinates": [ 134.071818609806172, 34.309035433020874 ] } },
{ "type": "Feature", "properties": { "内容": "デイサービス　樹楽もとやま【地域密着型通所介護】香川県高松市木太町4241-2", "url": "https://www.kaigokensaku.mhlw.go.jp/37/index.php?action_kouhyou_detail_004_kani=true&JigyosyoCd=3770107542-00&ServiceCd=780&Type=search", "url2": "https://so-ke-n.com/" }, "geometry": { "type": "Point", "coordinates": [ 134.07586290859831, 34.313060273778191 ] } },
{ "type": "Feature", "properties": { "内容": "デイサービス大野たんぽぽ【地域密着型通所介護】香川県高松市香川町大野2242番地5号", "url": "https://www.kaigokensaku.mhlw.go.jp/37/index.php?action_kouhyou_detail_004_kani=true&JigyosyoCd=3790100550-00&ServiceCd=780&Type=search", "url2": "https://www.oono-tanpopo.com/" }, "geometry": { "type": "Point", "coordinates": [ 134.0211426, 34.2753186 ] } },
{ "type": "Feature", "properties": { "内容": "デイサービスいちえ【地域密着型通所介護】香川県高松市元山町１０６０番地２", "url": "https://www.kaigokensaku.mhlw.go.jp/37/index.php?action_kouhyou_detail_004_kani=true&JigyosyoCd=3790100410-00&ServiceCd=780&Type=search", "url2": null }, "geometry": { "type": "Point", "coordinates": [ 134.0819692, 34.3109967 ] } },
{ "type": "Feature", "properties": { "内容": "NPデイサービス　せとリハビリステーション【地域密着型通所介護】香川県高松市木太町3222", "url": "https://www.kaigokensaku.mhlw.go.jp/37/index.php?action_kouhyou_detail_004_kani=true&JigyosyoCd=3770107526-00&ServiceCd=780&Type=search", "url2": "http://www.np-medical.com" }, "geometry": { "type": "Point", "coordinates": [ 134.076558200000022, 34.3333667 ] } },
{ "type": "Feature", "properties": { "内容": "ほねつぎ介護デイサービス木太町店【地域密着型通所介護】香川県高松市木太町3322番地6", "url": "https://www.kaigokensaku.mhlw.go.jp/37/index.php?action_kouhyou_detail_004_kani=true&JigyosyoCd=3790100675-00&ServiceCd=780&Type=search", "url2": "https://medihamo.com" }, "geometry": { "type": "Point", "coordinates": [ 134.074821499999985, 34.3263565 ] } },
{ "type": "Feature", "properties": { "内容": "デイリー・クローバ【地域密着型通所介護】香川県高松市紙町４０２番地1", "url": "https://www.kaigokensaku.mhlw.go.jp/37/index.php?action_kouhyou_detail_004_kani=true&JigyosyoCd=3770103285-00&ServiceCd=780&Type=search", "url2": "https://clover-takamatsu.com/" }, "geometry": { "type": "Point", "coordinates": [ 134.036156099999971, 34.3185983 ] } },
{ "type": "Feature", "properties": { "内容": "田町サロンデイサービスセンター【地域密着型通所介護】香川県高松市田町1-6", "url": "https://www.kaigokensaku.mhlw.go.jp/37/index.php?action_kouhyou_detail_004_kani=true&JigyosyoCd=3790101012-00&ServiceCd=780&Type=search", "url2": "hakueikai.net" }, "geometry": { "type": "Point", "coordinates": [ 134.048677199999986, 34.3383681 ] } },
{ "type": "Feature", "properties": { "内容": "リハプライド高松中央【地域密着型通所介護】香川県高松市多肥上町1867-14", "url": "https://www.kaigokensaku.mhlw.go.jp/37/index.php?action_kouhyou_detail_004_kani=true&JigyosyoCd=3790100667-00&ServiceCd=780&Type=search", "url2": "https://www.rehapride.co.jp/takamatsuchuo/" }, "geometry": { "type": "Point", "coordinates": [ 134.053791157672123, 34.281767664997126 ] } },
{ "type": "Feature", "properties": { "内容": "リハビリテーション颯高松【地域密着型通所介護】香川県高松市松並町938－1タケダビル1階", "url": "https://www.kaigokensaku.mhlw.go.jp/37/index.php?action_kouhyou_detail_004_kani=true&JigyosyoCd=3790100634-00&ServiceCd=780&Type=search", "url2": "https://www.lifeact-llc.com/" }, "geometry": { "type": "Point", "coordinates": [ 134.0307503, 34.320019500000015 ] } },
{ "type": "Feature", "properties": { "内容": "さんごのおうち機能訓練型デイサービス【地域密着型通所介護】香川県高松市塩上町10番地5池商はせ川ビル２階", "url": "https://www.kaigokensaku.mhlw.go.jp/37/index.php?action_kouhyou_detail_004_kani=true&JigyosyoCd=3770108748-00&ServiceCd=780&Type=search", "url2": "http://sangono-ouchi.com/" }, "geometry": { "type": "Point", "coordinates": [ 134.050843500000042, 34.3363635 ] } },
{ "type": "Feature", "properties": { "内容": "やまぶきデイサービスセンター【地域密着型通所介護】香川県高松市三谷町２７１番地１", "url": "https://www.kaigokensaku.mhlw.go.jp/37/index.php?action_kouhyou_detail_004_kani=true&JigyosyoCd=3790100543-00&ServiceCd=780&Type=search", "url2": "https://hatsukikai.or.jp" }, "geometry": { "type": "Point", "coordinates": [ 134.07556790000001, 34.2772952 ] } },
{ "type": "Feature", "properties": { "内容": "仏生山の森デイサービスセンター【地域密着型通所介護】高松市仏生山甲882-1", "url": "https://www.kaigokensaku.mhlw.go.jp/37/index.php?action_kouhyou_detail_004_kani=true&JigyosyoCd=3790100683-00&ServiceCd=780&Type=search", "url2": "https://hatsukikai.or.jp" }, "geometry": { "type": "Point", "coordinates": [ 134.041335, 34.27805 ] } },
{ "type": "Feature", "properties": { "内容": "デイサービスらく楽柏原【地域密着型通所介護】国分寺町柏原1059-2", "url": "https://www.kaigokensaku.mhlw.go.jp/37/index.php?action_kouhyou_detail_004_kani=true&JigyosyoCd=3790101079-00&ServiceCd=780&Type=search", "url2": null }, "geometry": { "type": "Point", "coordinates": [ 133.9482609, 34.293116 ] } },
{ "type": "Feature", "properties": { "内容": "ほねつぎデイサービス　木太町【地域密着型通所介護】高松市木太町３３２２－６", "url": "https://www.kaigokensaku.mhlw.go.jp/37/index.php?action_kouhyou_detail_004_kani=true&JigyosyoCd=3790101103-00&ServiceCd=780&Type=search", "url2": null }, "geometry": { "type": "Point", "coordinates": [ 134.0748049, 34.3263571 ] } },
{ "type": "Feature", "properties": { "内容": "デイサービス前田【地域密着型通所介護】高松市中間町415-1", "url": "https://www.kaigokensaku.mhlw.go.jp/37/index.php?action_kouhyou_detail_004_kani=true&JigyosyoCd=3770106684-00&ServiceCd=780&Type=search", "url2": null }, "geometry": { "type": "Point", "coordinates": [ 133.995366099999956, 34.2915283 ] } },
{ "type": "Feature", "properties": { "内容": "デイサービスライフサポートこくぶⅡ【地域密着型通所介護】香川県高松市国分寺町国分732-3", "url": "https://www.kaigokensaku.mhlw.go.jp/37/index.php?action_kouhyou_detail_004_kani=true&JigyosyoCd=3790101087-00&ServiceCd=780&Type=search", "url2": null }, "geometry": { "type": "Point", "coordinates": [ 133.945690500000012, 34.2972516 ] } },
{ "type": "Feature", "properties": { "内容": "リハビリケアサービス　ほほえみ【地域密着型通所介護】高松市木太町３０３１－１５", "url": "https://www.kaigokensaku.mhlw.go.jp/37/index.php?action_kouhyou_detail_004_kani=true&JigyosyoCd=3790100733-00&ServiceCd=780&Type=search", "url2": "https://www.hohoemi-rihacare.co.jp/" }, "geometry": { "type": "Point", "coordinates": [ 134.0811185, 34.329734 ] } },
{ "type": "Feature", "properties": { "内容": "デイサービス　とと田町【地域密着型通所介護】香川県高松市田町8-1リバーボールビル1F", "url": "https://www.kaigokensaku.mhlw.go.jp/37/index.php?action_kouhyou_detail_004_kani=true&JigyosyoCd=3790100998-00&ServiceCd=780&Type=search", "url2": null }, "geometry": { "type": "Point", "coordinates": [ 134.048801220237749, 34.336472070388744 ] } },
{ "type": "Feature", "properties": { "内容": "パーキンソン病特化型デイサービスBeaver【地域密着型通所介護】香川県高松市前田東町1070-1", "url": "https://www.kaigokensaku.mhlw.go.jp/37/index.php?action_kouhyou_detail_004_kani=true&JigyosyoCd=3790101152-00&ServiceCd=780&Type=search", "url2": "https://funny-life-llc-2024.com/beaver/" }, "geometry": { "type": "Point", "coordinates": [ 134.1053257, 34.2948807 ] } },
{ "type": "Feature", "properties": { "内容": "ボーン夕凪【地域密着型通所介護】香川県高松市林町1999番地1　1階", "url": "https://www.kaigokensaku.mhlw.go.jp/37/index.php?action_kouhyou_detail_004_kani=true&JigyosyoCd=3770108235-00&ServiceCd=780&Type=search", "url2": "http:yunagi-gr.com/" }, "geometry": { "type": "Point", "coordinates": [ 134.071803605440948, 34.309003538960312 ] } },
{ "type": "Feature", "properties": { "内容": "アジア夕凪【地域密着型通所介護】香川県高松市林町1986番地1", "url": "https://www.kaigokensaku.mhlw.go.jp/37/index.php?action_kouhyou_detail_004_kani=true&JigyosyoCd=3770106361-00&ServiceCd=780&Type=search", "url2": "https://yunagi-gr.com/asia/" }, "geometry": { "type": "Point", "coordinates": [ 134.0712546, 34.3075059 ] } },
{ "type": "Feature", "properties": { "内容": "空港通りガーデンクラブ【地域密着型通所介護】香川町川東下1292-3", "url": "https://www.kaigokensaku.mhlw.go.jp/37/index.php?action_kouhyou_detail_004_kani=true&JigyosyoCd=3770106429-00&ServiceCd=780&Type=search", "url2": "http://bsc.am-planning.net/" }, "geometry": { "type": "Point", "coordinates": [ 134.026476016241389, 34.250025038497569 ] } },
{ "type": "Feature", "properties": { "内容": "クッキング夕凪【地域密着型通所介護】林町1988番地17", "url": "https://www.kaigokensaku.mhlw.go.jp/37/index.php?action_kouhyou_detail_004_kani=true&JigyosyoCd=3790100436-00&ServiceCd=780&Type=search", "url2": "http://yunagi-gr.com/cooking/" }, "geometry": { "type": "Point", "coordinates": [ 134.071571, 34.307919 ] } },
{ "type": "Feature", "properties": { "内容": "ステップ夕凪【地域密着型通所介護】香川県高松市林町1985番地7", "url": "https://www.kaigokensaku.mhlw.go.jp/37/index.php?action_kouhyou_detail_004_kani=true&JigyosyoCd=3770105496-00&ServiceCd=780&Type=search", "url2": "https://yunagi-gr.com/" }, "geometry": { "type": "Point", "coordinates": [ 134.0710317, 34.3069757 ] } },
{ "type": "Feature", "properties": { "内容": "仏生山デイトレネクスト【地域密着型通所介護】高松市多肥上町1846-1", "url": "https://www.kaigokensaku.mhlw.go.jp/37/index.php?action_kouhyou_detail_004_kani=true&JigyosyoCd=3770105538-00&ServiceCd=780&Type=search", "url2": "http://bam.am-planning.net/" }, "geometry": { "type": "Point", "coordinates": [ 134.052831991914445, 34.282839768676311 ] } },
{ "type": "Feature", "properties": { "内容": "デイサービス　サンテリハ【地域密着型通所介護】高松市今里町1-23-26", "url": "https://www.kaigokensaku.mhlw.go.jp/37/index.php?action_kouhyou_detail_004_kani=true&JigyosyoCd=3770107559-00&ServiceCd=780&Type=search", "url2": null }, "geometry": { "type": "Point", "coordinates": [ 134.057004900000038, 34.3257924 ] } },
{ "type": "Feature", "properties": { "内容": "デイサービス花泉【地域密着型通所介護】一宮町880番地1ケア＆ホスピタリティ花泉", "url": "https://www.kaigokensaku.mhlw.go.jp/37/index.php?action_kouhyou_detail_004_kani=true&JigyosyoCd=3770107187-00&ServiceCd=780&Type=search", "url2": "www.kishokai.com/" }, "geometry": { "type": "Point", "coordinates": [ 134.028938299999936, 34.2923233 ] } },
{ "type": "Feature", "properties": { "内容": "デイサービス扇寿【地域密着型通所介護】香川県高松市香南町横井492番地1", "url": "https://www.kaigokensaku.mhlw.go.jp/37/index.php?action_kouhyou_detail_004_kani=true&JigyosyoCd=3771400359-00&ServiceCd=780&Type=search", "url2": "care-net.biz/37/senjyu/" }, "geometry": { "type": "Point", "coordinates": [ 134.011903500000017, 34.2448793 ] } },
{ "type": "Feature", "properties": { "内容": "早稲田イーライフ高松峰山【地域密着型通所介護】香川県高松市西春日町1111番地1峰山くらしひろば内", "url": "https://www.kaigokensaku.mhlw.go.jp/37/index.php?action_kouhyou_detail_004_kani=true&JigyosyoCd=3790100741-00&ServiceCd=780&Type=search", "url2": null }, "geometry": { "type": "Point", "coordinates": [ 134.029084, 34.322838 ] } },
{ "type": "Feature", "properties": { "内容": "きーまい新田【地域密着型通所介護】香川県高松市新田町甲879番地1", "url": "https://www.kaigokensaku.mhlw.go.jp/37/index.php?action_kouhyou_detail_004_kani=true&JigyosyoCd=3790100972-00&ServiceCd=780&Type=search", "url2": "https://www.kimai-shinden.com" }, "geometry": { "type": "Point", "coordinates": [ 134.106495588109226, 34.322892946925691 ] } },
{ "type": "Feature", "properties": { "内容": "樹楽六条【地域密着型通所介護】香川県高松市六条町556-3", "url": "https://www.kaigokensaku.mhlw.go.jp/37/index.php?action_kouhyou_detail_004_kani=true&JigyosyoCd=3770109126-00&ServiceCd=780&Type=search", "url2": "https://www.kiraku-ac.com/shisetsu/home/kagawa/rokujyo.php?staff=" }, "geometry": { "type": "Point", "coordinates": [ 134.076665, 34.291535 ] } },
{ "type": "Feature", "properties": { "内容": "NPデイサービス　やしまリハビリステーション【地域密着型通所介護】香川県高松市春日町片田1642番地1", "url": "https://www.kaigokensaku.mhlw.go.jp/37/index.php?action_kouhyou_detail_004_kani=true&JigyosyoCd=3790101236-00&ServiceCd=780&Type=search", "url2": null }, "geometry": { "type": "Point", "coordinates": [ 134.0898809, 34.339358 ] } },
{ "type": "Feature", "properties": { "内容": "デイサービス羽衣【地域密着型通所介護】香川県高松市十川西町692番地1", "url": "https://www.kaigokensaku.mhlw.go.jp/37/index.php?action_kouhyou_detail_004_kani=true&JigyosyoCd=3770108698-00&ServiceCd=780&Type=search", "url2": null }, "geometry": { "type": "Point", "coordinates": [ 134.107690814613306, 34.26954885242148 ] } },
{ "type": "Feature", "properties": { "内容": "屋島やすらぎ【地域密着型通所介護】高松市屋島東町１４１４番地", "url": "https://www.kaigokensaku.mhlw.go.jp/37/index.php?action_kouhyou_detail_004_kani=true&JigyosyoCd=3770103046-00&ServiceCd=780&Type=search", "url2": "https://yashima-yasuragi.jp" }, "geometry": { "type": "Point", "coordinates": [ 134.116193240475468, 34.346492168951414 ] } },
{ "type": "Feature", "properties": { "内容": "通所介護施設　翔鶴【地域密着型通所介護】香川県高松市香南町岡371番地1", "url": "https://www.kaigokensaku.mhlw.go.jp/37/index.php?action_kouhyou_detail_004_kani=true&JigyosyoCd=3770107922-00&ServiceCd=780&Type=search", "url2": "ayada-clinic-yuusyoukai.com" }, "geometry": { "type": "Point", "coordinates": [ 134.026598842722251, 34.229828815349585 ] } },
{ "type": "Feature", "properties": { "内容": "デイサービスセンター松縄【地域密着型通所介護】香川県高松市松縄町28番地13", "url": "https://www.kaigokensaku.mhlw.go.jp/37/index.php?action_kouhyou_detail_004_kani=true&JigyosyoCd=3790100857-00&ServiceCd=780&Type=search", "url2": "https://kaigostation.co.jp/" }, "geometry": { "type": "Point", "coordinates": [ 134.0646801, 34.3235247 ] } },
{ "type": "Feature", "properties": { "内容": "ﾃﾞｲサービスぽっぽ藤塚【地域密着型通所介護】香川県高松市栗林町1丁目3-24", "url": "https://www.kaigokensaku.mhlw.go.jp/37/index.php?action_kouhyou_detail_004_kani=true&JigyosyoCd=3790100931-00&ServiceCd=780&Type=search", "url2": "http://www.kagawa.coop" }, "geometry": { "type": "Point", "coordinates": [ 134.048110926597587, 34.33263816885183 ] } },
{ "type": "Feature", "properties": { "内容": "デイハウスよりあい【地域密着型通所介護】香川県高松市郷東町7番地7", "url": "https://www.kaigokensaku.mhlw.go.jp/37/index.php?action_kouhyou_detail_004_kani=true&JigyosyoCd=3770102881-00&ServiceCd=780&Type=search", "url2": "https://yoriai-maimai-haruka.com/" }, "geometry": { "type": "Point", "coordinates": [ 134.012128527508594, 34.343412289695763 ] } },
{ "type": "Feature", "properties": { "内容": "屋島ガーデンクラブ【地域密着型通所介護】香川県高松市牟礼町牟礼3720-1屋島ガーデンクラブ", "url": "https://www.kaigokensaku.mhlw.go.jp/37/index.php?action_kouhyou_detail_004_kani=true&JigyosyoCd=3770106957-00&ServiceCd=780&Type=search", "url2": "https://www.amplanning.biz/" }, "geometry": { "type": "Point", "coordinates": [ 134.123375099999976, 34.355203099999983 ] } },
{ "type": "Feature", "properties": { "内容": "デイサービス輪【地域密着型通所介護】高松市牟礼町牟礼3251番地1", "url": "https://www.kaigokensaku.mhlw.go.jp/37/index.php?action_kouhyou_detail_004_kani=true&JigyosyoCd=3770107310-00&ServiceCd=780&Type=search", "url2": "http://www.llc-nenrin.com/" }, "geometry": { "type": "Point", "coordinates": [ 134.12986079999996, 34.3540587 ] } },
{ "type": "Feature", "properties": { "内容": "ナウラデイサービスセンター【地域密着型通所介護】香川県高松市松福町一丁目12番3号", "url": "https://www.kaigokensaku.mhlw.go.jp/37/index.php?action_kouhyou_detail_004_kani=true&JigyosyoCd=3790100865-00&ServiceCd=780&Type=search", "url2": "https://hatsukikai.or.jp" }, "geometry": { "type": "Point", "coordinates": [ 134.0599796, 34.342531 ] } },
{ "type": "Feature", "properties": { "内容": "デイサービスセンター松縄Ⅱ【地域密着型通所介護】香川県高松市松縄町1125-2", "url": "https://www.kaigokensaku.mhlw.go.jp/37/index.php?action_kouhyou_detail_004_kani=true&JigyosyoCd=3790101095-00&ServiceCd=780&Type=search", "url2": null }, "geometry": { "type": "Point", "coordinates": [ 134.060046199999988, 34.315959 ] } },
{ "type": "Feature", "properties": { "内容": "デイサービス香川ひだまり【地域密着型通所介護】香川県高松市香川町川東下1190-1", "url": "https://www.kaigokensaku.mhlw.go.jp/37/index.php?action_kouhyou_detail_004_kani=true&JigyosyoCd=3790101202-00&ServiceCd=780&Type=search", "url2": "https://fukushi-hidamari.or.jp/" }, "geometry": { "type": "Point", "coordinates": [ 134.030804635581973, 34.247059257070219 ] } },
{ "type": "Feature", "properties": { "内容": "デイサービス　すずかけの径【地域密着型通所介護】高松市上福岡町919番地1", "url": "https://www.kaigokensaku.mhlw.go.jp/37/index.php?action_kouhyou_detail_004_kani=true&JigyosyoCd=3770107401-00&ServiceCd=780&Type=search", "url2": "http://www.shikoku.ne.jp/zuishou/" }, "geometry": { "type": "Point", "coordinates": [ 134.067279703199603, 34.326925501166471 ] } },
{ "type": "Feature", "properties": { "内容": "デイハウスまいまい【地域密着型通所介護】香川県高松市郷東町7番地3", "url": "https://www.kaigokensaku.mhlw.go.jp/37/index.php?action_kouhyou_detail_004_kani=true&JigyosyoCd=3770105876-00&ServiceCd=780&Type=search", "url2": null }, "geometry": { "type": "Point", "coordinates": [ 134.012611900000024, 34.3433066 ] } },
{ "type": "Feature", "properties": { "内容": "デイサービス母笑【地域密着型通所介護】香川県高松市牟礼町大町2133番地7", "url": "https://www.kaigokensaku.mhlw.go.jp/37/index.php?action_kouhyou_detail_004_kani=true&JigyosyoCd=3790100915-00&ServiceCd=780&Type=search", "url2": null }, "geometry": { "type": "Point", "coordinates": [ 134.137031, 34.3367375 ] } },
{ "type": "Feature", "properties": { "内容": "ケアサービス優悠【地域密着型通所介護】香川県高松市三谷町487番地優悠サービス付き高齢者向け住宅", "url": "https://www.kaigokensaku.mhlw.go.jp/37/index.php?action_kouhyou_detail_004_kani=true&JigyosyoCd=3790101186-00&ServiceCd=780&Type=search", "url2": "https：//yuyu.site" }, "geometry": { "type": "Point", "coordinates": [ 134.072251099999988, 34.2760921 ] } },
{ "type": "Feature", "properties": { "内容": "瀬戸日和【地域密着型通所介護】香川県高松市上林町495番地", "url": "https://www.kaigokensaku.mhlw.go.jp/37/index.php?action_kouhyou_detail_004_kani=true&JigyosyoCd=3790100519-00&ServiceCd=780&Type=search", "url2": "aoba-naika.jp" }, "geometry": { "type": "Point", "coordinates": [ 134.0678623, 34.2918664 ] } },
{ "type": "Feature", "properties": { "内容": "さんさん浅野デイサービスセンター【地域密着型通所介護】香川県高松市香川町浅野６６７番地１", "url": "https://www.kaigokensaku.mhlw.go.jp/37/index.php?action_kouhyou_detail_004_kani=true&JigyosyoCd=3770108284-00&ServiceCd=780&Type=search", "url2": "http://www.sansan-kai.com/" }, "geometry": { "type": "Point", "coordinates": [ 134.037159773896747, 34.261036858201365 ] } },
{ "type": "Feature", "properties": { "内容": "デイサービスハピネス【地域密着型通所介護】香川県高松市中山町772番地1", "url": "https://www.kaigokensaku.mhlw.go.jp/37/index.php?action_kouhyou_detail_004_kani=true&JigyosyoCd=3770105165-00&ServiceCd=780&Type=search", "url2": "http://www.shinboukai.net/" }, "geometry": { "type": "Point", "coordinates": [ 133.96513250000001, 34.3437296 ] } },
{ "type": "Feature", "properties": { "内容": "きょう京錦にしき【地域密着型通所介護】香川県高松市錦町2-6-13", "url": "https://www.kaigokensaku.mhlw.go.jp/37/index.php?action_kouhyou_detail_004_kani=true&JigyosyoCd=3790100626-00&ServiceCd=780&Type=search", "url2": "http://www.kyounishiki.com/" }, "geometry": { "type": "Point", "coordinates": [ 134.0410157, 34.3469441 ] } },
{ "type": "Feature", "properties": { "内容": "ほたるの里指定通所介護事業所【地域密着型通所介護】香川県高松市国分寺町国分1284番地1", "url": "https://www.kaigokensaku.mhlw.go.jp/37/index.php?action_kouhyou_detail_004_kani=true&JigyosyoCd=3771500463-00&ServiceCd=780&Type=search", "url2": "http://www.npo-ajisai.net/" }, "geometry": { "type": "Point", "coordinates": [ 133.941336800000045, 34.3065295 ] } },
{ "type": "Feature", "properties": { "内容": "デイサービスなごみ高松【地域密着型通所介護】多肥上町2219番地5", "url": "https://www.kaigokensaku.mhlw.go.jp/37/index.php?action_kouhyou_detail_004_kani=true&JigyosyoCd=3770108276-00&ServiceCd=780&Type=search", "url2": null }, "geometry": { "type": "Point", "coordinates": [ 134.057156289440883, 34.277358890568657 ] } },
{ "type": "Feature", "properties": { "内容": "デイサービス　なつめ【地域密着型通所介護】香川県高松市木太町1188-2", "url": "https://www.kaigokensaku.mhlw.go.jp/37/index.php?action_kouhyou_detail_004_kani=true&JigyosyoCd=3770109076-00&ServiceCd=780&Type=search", "url2": null }, "geometry": { "type": "Point", "coordinates": [ 134.06977, 34.3202266 ] } },
{ "type": "Feature", "properties": { "内容": "PASリハビリセンターなごみ高松【地域密着型通所介護】香川県高松市下田井町38番地4", "url": "https://www.kaigokensaku.mhlw.go.jp/37/index.php?action_kouhyou_detail_004_kani=true&JigyosyoCd=3790100394-00&ServiceCd=780&Type=search", "url2": null }, "geometry": { "type": "Point", "coordinates": [ 134.093723863008336, 34.299902766363857 ] } },
{ "type": "Feature", "properties": { "内容": "デイサービス　花らんまん【地域密着型通所介護】香川県高松市浜ノ町60番65号花らんまん", "url": "https://www.kaigokensaku.mhlw.go.jp/37/index.php?action_kouhyou_detail_004_kani=true&JigyosyoCd=3790100584-00&ServiceCd=780&Type=search", "url2": "http://www.zuishou.ne.jp" }, "geometry": { "type": "Point", "coordinates": [ 134.040349, 34.3513638 ] } },
{ "type": "Feature", "properties": { "内容": "デイサービス暖暖【地域密着型通所介護】香川県高松市室新町１－８", "url": "https://www.kaigokensaku.mhlw.go.jp/37/index.php?action_kouhyou_detail_004_kani=true&JigyosyoCd=3790100873-00&ServiceCd=780&Type=search", "url2": null }, "geometry": { "type": "Point", "coordinates": [ 134.041892600000011, 34.3226267 ] } },
{ "type": "Feature", "properties": { "内容": "IMCデイサービス太田上町【地域密着型通所介護】香川県高松市太田上町14", "url": "https://www.kaigokensaku.mhlw.go.jp/37/index.php?action_kouhyou_detail_004_kani=true&JigyosyoCd=3790101210-00&ServiceCd=780&Type=search", "url2": "https://imc-ls.com" }, "geometry": { "type": "Point", "coordinates": [ 134.0398961, 34.2900684 ] } },
{ "type": "Feature", "properties": { "内容": "デイサービスセンター寿【地域密着型通所介護】香川県高松市番町4丁目13番12号", "url": "https://www.kaigokensaku.mhlw.go.jp/37/index.php?action_kouhyou_detail_004_kani=true&JigyosyoCd=3770106882-00&ServiceCd=780&Type=search", "url2": "http://www.daijyuan.com/" }, "geometry": { "type": "Point", "coordinates": [ 134.040457599999968, 34.3402213 ] } },
{ "type": "Feature", "properties": { "内容": "アルファデイサービスセンター紺屋町【地域密着型通所介護】香川県高松市紺屋町5-3", "url": "https://www.kaigokensaku.mhlw.go.jp/37/index.php?action_kouhyou_detail_004_kani=true&JigyosyoCd=3770108664-00&ServiceCd=780&Type=search", "url2": "http://ｗｗｗ.anabuki-medical.jp" }, "geometry": { "type": "Point", "coordinates": [ 134.046093400000018, 34.3449849 ] } },
{ "type": "Feature", "properties": { "内容": "ヤング夕凪【地域密着型通所介護】香川県高松市林町1999-12", "url": "https://www.kaigokensaku.mhlw.go.jp/37/index.php?action_kouhyou_detail_004_kani=true&JigyosyoCd=3770107815-00&ServiceCd=780&Type=search", "url2": "http://yunagi‐ｇｒ.ｃｏm/" }, "geometry": { "type": "Point", "coordinates": [ 134.069879899999933, 34.3010831 ] } },
{ "type": "Feature", "properties": { "内容": "NPデイサービス　せとリハビリステーション【地域密着型通所介護】木太町3222", "url": "https://www.kaigokensaku.mhlw.go.jp/37/index.php?action_kouhyou_detail_004_kani=true&JigyosyoCd=3790101228-00&ServiceCd=780&Type=search", "url2": null }, "geometry": { "type": "Point", "coordinates": [ 134.076958778438097, 34.333457630084382 ] } },
{ "type": "Feature", "properties": { "内容": "IMCデイサービス下田井【地域密着型通所介護】香川県高松市下田井町80番地2", "url": "https://www.kaigokensaku.mhlw.go.jp/37/index.php?action_kouhyou_detail_004_kani=true&JigyosyoCd=3790100527-00&ServiceCd=780&Type=search", "url2": "http://www.medicalpark-imc/com/coo" }, "geometry": { "type": "Point", "coordinates": [ 134.0910493, 34.2982175 ] } },
{ "type": "Feature", "properties": { "内容": "デイサービス六条さんち【地域密着型通所介護】香川県高松市六条町1315-1", "url": "https://www.kaigokensaku.mhlw.go.jp/37/index.php?action_kouhyou_detail_004_kani=true&JigyosyoCd=3790101293-00&ServiceCd=780&Type=search", "url2": "https://tanoshii-h.com" }, "geometry": { "type": "Point", "coordinates": [ 134.082561484655798, 34.305622037382072 ] } },
{ "type": "Feature", "properties": { "内容": "デイサービス　こもれび【地域密着型通所介護】高松市牟礼町牟礼2120番地　1", "url": "https://www.kaigokensaku.mhlw.go.jp/37/index.php?action_kouhyou_detail_004_kani=true&JigyosyoCd=3770106593-00&ServiceCd=780&Type=search", "url2": "http://care-net.biz/37/wakaba/" }, "geometry": { "type": "Point", "coordinates": [ 134.126897101358054, 34.34302193748718 ] } },
{ "type": "Feature", "properties": { "内容": "デイサービスらく楽一宮【地域密着型通所介護】香川県高松市一宮町１５７０番地", "url": "https://www.kaigokensaku.mhlw.go.jp/37/index.php?action_kouhyou_detail_004_kani=true&JigyosyoCd=3770105090-00&ServiceCd=780&Type=search", "url2": null }, "geometry": { "type": "Point", "coordinates": [ 134.020425, 34.2917149 ] } },
{ "type": "Feature", "properties": { "内容": "デイサービス　泉【地域密着型通所介護】高松市一宮町1568番地10", "url": "https://www.kaigokensaku.mhlw.go.jp/37/index.php?action_kouhyou_detail_004_kani=true&JigyosyoCd=3770106270-00&ServiceCd=780&Type=search", "url2": "http://www.rakuraku-group.jp/" }, "geometry": { "type": "Point", "coordinates": [ 134.020813800000042, 34.291926 ] } },
{ "type": "Feature", "properties": { "内容": "デイリー・クローバ【地域密着型通所介護】香川県高松市紙町４０２番地1", "url": "https://www.kaigokensaku.mhlw.go.jp/37/index.php?action_kouhyou_detail_004_kani=true&JigyosyoCd=3790101137-00&ServiceCd=780&Type=search", "url2": "https://clover-takamatsu.com/" }, "geometry": { "type": "Point", "coordinates": [ 134.0362044, 34.3185708 ] } },
{ "type": "Feature", "properties": { "内容": "デイサービスセンター林町【地域密着型通所介護】香川県高松市林町2516-12", "url": "https://www.kaigokensaku.mhlw.go.jp/37/index.php?action_kouhyou_detail_004_kani=true&JigyosyoCd=3790101269-00&ServiceCd=780&Type=search", "url2": "https://kaigostation.co.jp/" }, "geometry": { "type": "Point", "coordinates": [ 134.0657656, 34.3081927 ] } },
{ "type": "Feature", "properties": { "内容": "デイサービスセンターTRAIN【地域密着型通所介護】香川県高松市丸亀町3-13丸亀町参番街西館3階", "url": "https://www.kaigokensaku.mhlw.go.jp/37/index.php?action_kouhyou_detail_004_kani=true&JigyosyoCd=3790100956-00&ServiceCd=780&Type=search", "url2": "train-ing.jp" }, "geometry": { "type": "Point", "coordinates": [ 134.049924319539258, 34.344815154125079 ] } },
{ "type": "Feature", "properties": { "内容": "デイサービス飯田【地域密着型通所介護】香川県高松市飯田町1211番1", "url": "https://www.kaigokensaku.mhlw.go.jp/37/index.php?action_kouhyou_detail_004_kani=true&JigyosyoCd=3790101244-00&ServiceCd=780&Type=search", "url2": null }, "geometry": { "type": "Point", "coordinates": [ 134.0069335, 34.3211243 ] } },
{ "type": "Feature", "properties": { "内容": "わかくさデイトレセンター【地域密着型通所介護】高松市元山町1238-1", "url": "https://www.kaigokensaku.mhlw.go.jp/37/index.php?action_kouhyou_detail_004_kani=true&JigyosyoCd=3770105967-00&ServiceCd=780&Type=search", "url2": "http://www7b.biglobe.ne.jp/~wakakusas/index.html" }, "geometry": { "type": "Point", "coordinates": [ 134.0824556, 34.3137074 ] } },
{ "type": "Feature", "properties": { "内容": "デイサービス青空【地域密着型通所介護】伏石町2171番地7", "url": "https://www.kaigokensaku.mhlw.go.jp/37/index.php?action_kouhyou_detail_004_kani=true&JigyosyoCd=3790101335-00&ServiceCd=780&Type=search", "url2": "https://www.sora-takamatsu.jp/" }, "geometry": { "type": "Point", "coordinates": [ 134.058099700000014, 34.3068465 ] } },
{ "type": "Feature", "properties": { "内容": "ライフサポーターいしかわ高松【地域密着型通所介護】高松市林町1194-1", "url": "https://www.kaigokensaku.mhlw.go.jp/37/index.php?action_kouhyou_detail_004_kani=true&JigyosyoCd=3790101194-00&ServiceCd=780&Type=search", "url2": null }, "geometry": { "type": "Point", "coordinates": [ 134.071505428008777, 34.299034337591884 ] } },
{ "type": "Feature", "properties": { "内容": "NPO法人こかげ　一の風デイサービスセンター【地域密着型通所介護】香川県丸亀市通町52-6", "url": "https://www.kaigokensaku.mhlw.go.jp/37/index.php?action_kouhyou_detail_004_kani=true&JigyosyoCd=3770201469-00&ServiceCd=780&Type=search", "url2": "http://wwwe.pikara.ne.jp/kokage/" }, "geometry": { "type": "Point", "coordinates": [ 133.796534015955871, 34.290002780160684 ] } },
{ "type": "Feature", "properties": { "内容": "チャペルデイセンター【地域密着型通所介護】丸亀市垂水町１９－２", "url": "https://www.kaigokensaku.mhlw.go.jp/37/index.php?action_kouhyou_detail_004_kani=true&JigyosyoCd=3770200974-00&ServiceCd=780&Type=search", "url2": null }, "geometry": { "type": "Point", "coordinates": [ 133.835837602377296, 34.222025267538186 ] } },
{ "type": "Feature", "properties": { "内容": "レコードブック丸亀駅前【地域密着型通所介護】香川県丸亀市通町175-3", "url": "https://www.kaigokensaku.mhlw.go.jp/37/index.php?action_kouhyou_detail_004_kani=true&JigyosyoCd=3790200244-00&ServiceCd=780&Type=search", "url2": "https://jr-shikoku.recordbook.jp/facility.html" }, "geometry": { "type": "Point", "coordinates": [ 133.794278100000042, 34.2921392 ] } },
{ "type": "Feature", "properties": { "内容": "なでしこまるがめデイサービス【地域密着型通所介護】香川県丸亀市田村町1343番地", "url": "https://www.kaigokensaku.mhlw.go.jp/37/index.php?action_kouhyou_detail_004_kani=true&JigyosyoCd=3790200335-00&ServiceCd=780&Type=search", "url2": "https://care-nadeshiko.jp" }, "geometry": { "type": "Point", "coordinates": [ 133.7944329, 34.2662396 ] } },
{ "type": "Feature", "properties": { "内容": "デイサービス　たいよう【地域密着型通所介護】香川県丸亀市飯山町東坂元4120番地10", "url": "https://www.kaigokensaku.mhlw.go.jp/37/index.php?action_kouhyou_detail_004_kani=true&JigyosyoCd=3770201568-00&ServiceCd=780&Type=search", "url2": "http://www.nonohana2019.com/" }, "geometry": { "type": "Point", "coordinates": [ 133.858391282087155, 34.276266581593866 ] } },
{ "type": "Feature", "properties": { "内容": "フィットネスデイサービス　ファンデイズ・丸亀【地域密着型通所介護】川西町南１２８０番地１（フジグラン丸亀内）", "url": "https://www.kaigokensaku.mhlw.go.jp/37/index.php?action_kouhyou_detail_004_kani=true&JigyosyoCd=3790200269-00&ServiceCd=780&Type=search", "url2": "http://www.fundays358.com" }, "geometry": { "type": "Point", "coordinates": [ 133.835745200000019, 34.2404174 ] } },
{ "type": "Feature", "properties": { "内容": "ゆうなぎデイサービス【地域密着型通所介護】丸亀市飯山町西坂元1206番地12", "url": "https://www.kaigokensaku.mhlw.go.jp/37/index.php?action_kouhyou_detail_004_kani=true&JigyosyoCd=3770201048-00&ServiceCd=780&Type=search", "url2": null }, "geometry": { "type": "Point", "coordinates": [ 133.836086099999989, 34.258496 ] } },
{ "type": "Feature", "properties": { "内容": "デイサービス京極の里【地域密着型通所介護】香川県丸亀市田村町1286番地1", "url": "https://www.kaigokensaku.mhlw.go.jp/37/index.php?action_kouhyou_detail_004_kani=true&JigyosyoCd=3790200285-00&ServiceCd=780&Type=search", "url2": null }, "geometry": { "type": "Point", "coordinates": [ 133.794432899999947, 34.2662396 ] } },
{ "type": "Feature", "properties": { "内容": "デイサービスセンターだん【地域密着型通所介護】香川県丸亀市川西町北1222-3", "url": "https://www.kaigokensaku.mhlw.go.jp/37/index.php?action_kouhyou_detail_004_kani=true&JigyosyoCd=3770201600-00&ServiceCd=780&Type=search", "url2": "https://www.hide-dan.com" }, "geometry": { "type": "Point", "coordinates": [ 133.81955640000001, 34.267714400000017 ] } },
{ "type": "Feature", "properties": { "内容": "デイサービスたいよう【地域密着型通所介護】香川県丸亀市飯山町東坂元4120-10", "url": "https://www.kaigokensaku.mhlw.go.jp/37/index.php?action_kouhyou_detail_004_kani=true&JigyosyoCd=3790200392-00&ServiceCd=780&Type=search", "url2": null }, "geometry": { "type": "Point", "coordinates": [ 133.8583849, 34.2762402 ] } },
{ "type": "Feature", "properties": { "内容": "フィットネスデイサービス　ファンデイズ・丸亀【地域密着型通所介護】香川県丸亀市川西町南１２８０番地１フジグラン丸亀内", "url": "https://www.kaigokensaku.mhlw.go.jp/37/index.php?action_kouhyou_detail_004_kani=true&JigyosyoCd=3790200426-00&ServiceCd=780&Type=search", "url2": null }, "geometry": { "type": "Point", "coordinates": [ 133.835332750310414, 34.241251017358287 ] } },
{ "type": "Feature", "properties": { "内容": "通所介護　あい・あーるケアセンター【地域密着型通所介護】香川県丸亀市飯山町西坂元1110-1", "url": "https://www.kaigokensaku.mhlw.go.jp/37/index.php?action_kouhyou_detail_004_kani=true&JigyosyoCd=3770201667-00&ServiceCd=780&Type=search", "url2": "http://activeai.main.jp/" }, "geometry": { "type": "Point", "coordinates": [ 133.839052700000025, 34.2544493 ] } },
{ "type": "Feature", "properties": { "内容": "ライフサポーターいしかわ丸亀【地域密着型通所介護】香川県丸亀市土器町東三丁目531番地", "url": "https://www.kaigokensaku.mhlw.go.jp/37/index.php?action_kouhyou_detail_004_kani=true&JigyosyoCd=3790200418-00&ServiceCd=780&Type=search", "url2": null }, "geometry": { "type": "Point", "coordinates": [ 133.8147199, 34.2912396 ] } },
{ "type": "Feature", "properties": { "内容": "デイサービス　和音【地域密着型通所介護】香川県丸亀市中津町296-2", "url": "https://www.kaigokensaku.mhlw.go.jp/37/index.php?action_kouhyou_detail_004_kani=true&JigyosyoCd=3770201626-00&ServiceCd=780&Type=search", "url2": "http://day-waon.jimdo.com/" }, "geometry": { "type": "Point", "coordinates": [ 133.769886400000019, 34.280020799999967 ] } },
{ "type": "Feature", "properties": { "内容": "デイサービス　くりくま【地域密着型通所介護】香川県丸亀市綾歌町栗熊東782番地特別養護老人ホーム　宝樹リノ4階", "url": "https://www.kaigokensaku.mhlw.go.jp/37/index.php?action_kouhyou_detail_004_kani=true&JigyosyoCd=3790200236-00&ServiceCd=780&Type=search", "url2": "https://houjuen.web.fc2.com" }, "geometry": { "type": "Point", "coordinates": [ 133.887527099999943, 34.2372514 ] } },
{ "type": "Feature", "properties": { "内容": "デイサービス音色【地域密着型通所介護】香川県丸亀市川西町北828番地1", "url": "https://www.kaigokensaku.mhlw.go.jp/37/index.php?action_kouhyou_detail_004_kani=true&JigyosyoCd=3790200384-00&ServiceCd=780&Type=search", "url2": "http://hp.kaipoke.biz/pky/" }, "geometry": { "type": "Point", "coordinates": [ 133.818959299999989, 34.2664525 ] } },
{ "type": "Feature", "properties": { "内容": "わかくさデイトレセンター丸亀【地域密着型通所介護】香川県丸亀市中府町1-3-1", "url": "https://www.kaigokensaku.mhlw.go.jp/37/index.php?action_kouhyou_detail_004_kani=true&JigyosyoCd=3790200251-00&ServiceCd=780&Type=search", "url2": null }, "geometry": { "type": "Point", "coordinates": [ 133.797272799999973, 34.277486100000012 ] } },
{ "type": "Feature", "properties": { "内容": "シャロームデイセンター【地域密着型通所介護】丸亀市垂水町１６－５０", "url": "https://www.kaigokensaku.mhlw.go.jp/37/index.php?action_kouhyou_detail_004_kani=true&JigyosyoCd=3770200313-00&ServiceCd=780&Type=search", "url2": null }, "geometry": { "type": "Point", "coordinates": [ 133.836276099999964, 34.2212752 ] } },
{ "type": "Feature", "properties": { "内容": "ほねつぎデイサービス丸亀【地域密着型通所介護】香川県丸亀市郡家町2509-1", "url": "https://www.kaigokensaku.mhlw.go.jp/37/index.php?action_kouhyou_detail_004_kani=true&JigyosyoCd=3790200327-00&ServiceCd=780&Type=search", "url2": "https://www.honetsugi-kaigo.com/service/" }, "geometry": { "type": "Point", "coordinates": [ 133.812050190178297, 34.257203143623912 ] } },
{ "type": "Feature", "properties": { "内容": "デイサービス「アニメイト」【地域密着型通所介護】丸亀市今津町739-6", "url": "https://www.kaigokensaku.mhlw.go.jp/37/index.php?action_kouhyou_detail_004_kani=true&JigyosyoCd=3770200842-00&ServiceCd=780&Type=search", "url2": null }, "geometry": { "type": "Point", "coordinates": [ 133.783121199999982, 34.282718 ] } },
{ "type": "Feature", "properties": { "内容": "デイサービスセンターふくろう【地域密着型通所介護】入船町1丁目2-31住宅型有料老人ホーム愛の音", "url": "https://www.kaigokensaku.mhlw.go.jp/37/index.php?action_kouhyou_detail_004_kani=true&JigyosyoCd=3770301095-00&ServiceCd=780&Type=search", "url2": "http://www.shouju.or.jp/" }, "geometry": { "type": "Point", "coordinates": [ 133.85499649999997, 34.3196826 ] } },
{ "type": "Feature", "properties": { "内容": "デイサービスセンター結　坂出【地域密着型通所介護】香川県坂出市府中町4982番地", "url": "https://www.kaigokensaku.mhlw.go.jp/37/index.php?action_kouhyou_detail_004_kani=true&JigyosyoCd=3770301020-00&ServiceCd=780&Type=search", "url2": "http://.yui-sakaide.com/" }, "geometry": { "type": "Point", "coordinates": [ 133.916121500000031, 34.2927373 ] } },
{ "type": "Feature", "properties": { "内容": "デイサービスセンターふるさと【地域密着型通所介護】香川県善通寺市善通寺町１８４７番地１", "url": "https://www.kaigokensaku.mhlw.go.jp/37/index.php?action_kouhyou_detail_004_kani=true&JigyosyoCd=3770400665-00&ServiceCd=780&Type=search", "url2": "http://www.kaigo-eiko.jp/" }, "geometry": { "type": "Point", "coordinates": [ 133.772487, 34.2176776 ] } },
{ "type": "Feature", "properties": { "内容": "デイサービスセンター　おひいさん【地域密着型通所介護】香川県善通寺市生野町1308番地3", "url": "https://www.kaigokensaku.mhlw.go.jp/37/index.php?action_kouhyou_detail_004_kani=true&JigyosyoCd=3770400707-00&ServiceCd=780&Type=search", "url2": "http://www.seiyuukai.jp/" }, "geometry": { "type": "Point", "coordinates": [ 133.790369781614686, 34.224192798609032 ] } },
{ "type": "Feature", "properties": { "内容": "デイサービス　しんちゃん家【地域密着型通所介護】香川県善通寺市生野町1658番地1", "url": "https://www.kaigokensaku.mhlw.go.jp/37/index.php?action_kouhyou_detail_004_kani=true&JigyosyoCd=3790400109-00&ServiceCd=780&Type=search", "url2": null }, "geometry": { "type": "Point", "coordinates": [ 133.787161, 34.2221088 ] } },
{ "type": "Feature", "properties": { "内容": "にこにこ観音寺デイサービス【地域密着型通所介護】香川県観音寺市室本町１３２５－５８－２", "url": "https://www.kaigokensaku.mhlw.go.jp/37/index.php?action_kouhyou_detail_004_kani=true&JigyosyoCd=3790500155-00&ServiceCd=780&Type=search", "url2": null }, "geometry": { "type": "Point", "coordinates": [ 133.645806499999907, 34.1569818 ] } },
{ "type": "Feature", "properties": { "内容": "デイサービスセンターとよはま荘【地域密着型通所介護】香川県観音寺市豊浜町和田浜1575-1", "url": "https://www.kaigokensaku.mhlw.go.jp/37/index.php?action_kouhyou_detail_004_kani=true&JigyosyoCd=3790500163-00&ServiceCd=780&Type=search", "url2": null }, "geometry": { "type": "Point", "coordinates": [ 133.6367176, 34.0711231 ] } },
{ "type": "Feature", "properties": { "内容": "デイサービスセンター　LEAF【地域密着型通所介護】香川県観音寺市植田町608番地3", "url": "https://www.kaigokensaku.mhlw.go.jp/37/index.php?action_kouhyou_detail_004_kani=true&JigyosyoCd=3770500654-00&ServiceCd=780&Type=search", "url2": "ds-leaf.com" }, "geometry": { "type": "Point", "coordinates": [ 133.679756978524864, 34.125251088924919 ] } },
{ "type": "Feature", "properties": { "内容": "デイサービスセンターはあとおん・きらめき【地域密着型通所介護】香川県観音寺市植田町1400番地", "url": "https://www.kaigokensaku.mhlw.go.jp/37/index.php?action_kouhyou_detail_004_kani=true&JigyosyoCd=3770500670-00&ServiceCd=780&Type=search", "url2": "http://mig-hearton.com/" }, "geometry": { "type": "Point", "coordinates": [ 133.671299282803346, 34.12320305647409 ] } },
{ "type": "Feature", "properties": { "内容": "松井病院デイサービスセンター【地域密着型通所介護】香川県観音寺市村黒町750番地", "url": "https://www.kaigokensaku.mhlw.go.jp/37/index.php?action_kouhyou_detail_004_kani=true&JigyosyoCd=3770500191-00&ServiceCd=780&Type=search", "url2": null }, "geometry": { "type": "Point", "coordinates": [ 133.6660723, 34.1329518 ] } },
{ "type": "Feature", "properties": { "内容": "デイサービスいしかわ【地域密着型通所介護】香川県観音寺市大野原町大野原４５９６番地", "url": "https://www.kaigokensaku.mhlw.go.jp/37/index.php?action_kouhyou_detail_004_kani=true&JigyosyoCd=3770500548-00&ServiceCd=780&Type=search", "url2": "http://dayishikawa.jp" }, "geometry": { "type": "Point", "coordinates": [ 133.651068500000065, 34.0892876 ] } },
{ "type": "Feature", "properties": { "内容": "リハビリステーション華蓮【地域密着型通所介護】香川県観音寺市池之尻町1025番地1", "url": "https://www.kaigokensaku.mhlw.go.jp/37/index.php?action_kouhyou_detail_004_kani=true&JigyosyoCd=3790500189-00&ServiceCd=780&Type=search", "url2": "http://activevision.co.jp/" }, "geometry": { "type": "Point", "coordinates": [ 133.691437107663802, 34.111321100497484 ] } },
{ "type": "Feature", "properties": { "内容": "ひまわりの家デイサービス【地域密着型通所介護】香川県観音寺市原町字上岡721番3", "url": "https://www.kaigokensaku.mhlw.go.jp/37/index.php?action_kouhyou_detail_004_kani=true&JigyosyoCd=3770500571-00&ServiceCd=780&Type=search", "url2": null }, "geometry": { "type": "Point", "coordinates": [ 133.710031198239136, 34.108943743436193 ] } },
{ "type": "Feature", "properties": { "内容": "デイサービスアヤメ【地域密着型通所介護】香川県観音寺市大野原町花稲366番地", "url": "https://www.kaigokensaku.mhlw.go.jp/37/index.php?action_kouhyou_detail_004_kani=true&JigyosyoCd=3790500205-00&ServiceCd=780&Type=search", "url2": null }, "geometry": { "type": "Point", "coordinates": [ 133.6418639, 34.0934069 ] } },
{ "type": "Feature", "properties": { "内容": "デイサービスセンターゆらく【地域密着型通所介護】香川県さぬき市大川町富田西２５８１番地", "url": "https://www.kaigokensaku.mhlw.go.jp/37/index.php?action_kouhyou_detail_004_kani=true&JigyosyoCd=3770600561-00&ServiceCd=780&Type=search", "url2": "www.day-yuraku.com" }, "geometry": { "type": "Point", "coordinates": [ 134.223372599999948, 34.2645836 ] } },
{ "type": "Feature", "properties": { "内容": "サマリヤ大川デイサービス【地域密着型通所介護】香川県さぬき市大川町田面1198", "url": "https://www.kaigokensaku.mhlw.go.jp/37/index.php?action_kouhyou_detail_004_kani=true&JigyosyoCd=3770600413-00&ServiceCd=780&Type=search", "url2": "http://www.samariya.or.jp/" }, "geometry": { "type": "Point", "coordinates": [ 134.263909099999978, 34.2495412 ] } },
{ "type": "Feature", "properties": { "内容": "デイサービス　あじさい【地域密着型通所介護】香川県さぬき市長尾名1126番地", "url": "https://www.kaigokensaku.mhlw.go.jp/37/index.php?action_kouhyou_detail_004_kani=true&JigyosyoCd=3770600496-00&ServiceCd=780&Type=search", "url2": "https://www.ajisai3yoshi.com" }, "geometry": { "type": "Point", "coordinates": [ 134.175048299999986, 34.236859699999989 ] } },
{ "type": "Feature", "properties": { "内容": "デイサービス　ファインケア【地域密着型通所介護】さぬき市志度2211-2", "url": "https://www.kaigokensaku.mhlw.go.jp/37/index.php?action_kouhyou_detail_004_kani=true&JigyosyoCd=3770600736-00&ServiceCd=780&Type=search", "url2": null }, "geometry": { "type": "Point", "coordinates": [ 134.1782469038192, 34.318182347279865 ] } },
{ "type": "Feature", "properties": { "内容": "デイサービスセンター　あい【地域密着型通所介護】さぬき市大川町南川343-4", "url": "https://www.kaigokensaku.mhlw.go.jp/37/index.php?action_kouhyou_detail_004_kani=true&JigyosyoCd=3770600470-00&ServiceCd=780&Type=search", "url2": "https://toumei-hotaru.com" }, "geometry": { "type": "Point", "coordinates": [ 134.233941700000059, 34.2481689 ] } },
{ "type": "Feature", "properties": { "内容": "脳機能リハビリセンター　かがわ【地域密着型通所介護】香川県さぬき市昭和１１０７－１", "url": "https://www.kaigokensaku.mhlw.go.jp/37/index.php?action_kouhyou_detail_004_kani=true&JigyosyoCd=3770600546-00&ServiceCd=780&Type=search", "url2": "www.sanga-noukinou.com/" }, "geometry": { "type": "Point", "coordinates": [ 134.163027, 34.248605 ] } },
{ "type": "Feature", "properties": { "内容": "デイサービスこころ【地域密着型通所介護】香川県さぬき市大川町南川字一の瀬２１４番地１", "url": "https://www.kaigokensaku.mhlw.go.jp/37/index.php?action_kouhyou_detail_004_kani=true&JigyosyoCd=3770600967-00&ServiceCd=780&Type=search", "url2": null }, "geometry": { "type": "Point", "coordinates": [ 134.235331663507083, 34.253745584040203 ] } },
{ "type": "Feature", "properties": { "内容": "有情くらぶ【地域密着型通所介護】香川県さぬき市大川町田面７１－１", "url": "https://www.kaigokensaku.mhlw.go.jp/37/index.php?action_kouhyou_detail_004_kani=true&JigyosyoCd=3770600520-00&ServiceCd=780&Type=search", "url2": null }, "geometry": { "type": "Point", "coordinates": [ 134.250823699999955, 34.2579678 ] } },
{ "type": "Feature", "properties": { "内容": "パレットハウスにしべり【地域密着型通所介護】香川県さぬき市長尾東823番地１", "url": "https://www.kaigokensaku.mhlw.go.jp/37/index.php?action_kouhyou_detail_004_kani=true&JigyosyoCd=3770601064-00&ServiceCd=780&Type=search", "url2": null }, "geometry": { "type": "Point", "coordinates": [ 134.179019199999971, 34.2660943 ] } },
{ "type": "Feature", "properties": { "内容": "デイサービス　さぬき【地域密着型通所介護】香川県さぬき市大川町富田西1598番地", "url": "https://www.kaigokensaku.mhlw.go.jp/37/index.php?action_kouhyou_detail_004_kani=true&JigyosyoCd=3790600070-00&ServiceCd=780&Type=search", "url2": null }, "geometry": { "type": "Point", "coordinates": [ 134.227385599999934, 34.2610492 ] } },
{ "type": "Feature", "properties": { "内容": "デイサービスけんこう倶楽部【地域密着型通所介護】水主304番地1", "url": "https://www.kaigokensaku.mhlw.go.jp/37/index.php?action_kouhyou_detail_004_kani=true&JigyosyoCd=3790700094-00&ServiceCd=780&Type=search", "url2": null }, "geometry": { "type": "Point", "coordinates": [ 134.322548899999987, 34.2348754 ] } },
{ "type": "Feature", "properties": { "内容": "通所介護ファインケア【地域密着型通所介護】東かがわ市馬篠249-1", "url": "https://www.kaigokensaku.mhlw.go.jp/37/index.php?action_kouhyou_detail_004_kani=true&JigyosyoCd=3770700353-00&ServiceCd=780&Type=search", "url2": null }, "geometry": { "type": "Point", "coordinates": [ 134.288385299999959, 34.2689702 ] } },
{ "type": "Feature", "properties": { "内容": "すばるデイサービス松原【地域密着型通所介護】東かがわ市松原615番地1", "url": "https://www.kaigokensaku.mhlw.go.jp/37/index.php?action_kouhyou_detail_004_kani=true&JigyosyoCd=3770700437-00&ServiceCd=780&Type=search", "url2": null }, "geometry": { "type": "Point", "coordinates": [ 134.364599577632106, 34.244182948037995 ] } },
{ "type": "Feature", "properties": { "内容": "デイサービスセンター町田【地域密着型通所介護】香川県東かがわ市町田689", "url": "https://www.kaigokensaku.mhlw.go.jp/37/index.php?action_kouhyou_detail_004_kani=true&JigyosyoCd=3770700346-00&ServiceCd=780&Type=search", "url2": null }, "geometry": { "type": "Point", "coordinates": [ 134.301362199999971, 34.2525392 ] } },
{ "type": "Feature", "properties": { "内容": "デイサービスセンターふるさとたかせ【地域密着型通所介護】香川県三豊市高瀬町羽方638番地1", "url": "https://www.kaigokensaku.mhlw.go.jp/37/index.php?action_kouhyou_detail_004_kani=true&JigyosyoCd=3770800625-00&ServiceCd=780&Type=search", "url2": null }, "geometry": { "type": "Point", "coordinates": [ 133.7292943, 34.1390149 ] } },
{ "type": "Feature", "properties": { "内容": "古民家デイサービスそえる【地域密着型通所介護】香川県三豊市高瀬町佐股甲2169-1", "url": "https://www.kaigokensaku.mhlw.go.jp/37/index.php?action_kouhyou_detail_004_kani=true&JigyosyoCd=3790800183-00&ServiceCd=780&Type=search", "url2": null }, "geometry": { "type": "Point", "coordinates": [ 133.744287899999989, 34.1550106 ] } },
{ "type": "Feature", "properties": { "内容": "三豊市立西香川病院　小規模デイサービスセンター「うちん家」【地域密着型通所介護】香川県三豊市高瀬町下麻1281番地1", "url": "https://www.kaigokensaku.mhlw.go.jp/37/index.php?action_kouhyou_detail_004_kani=true&JigyosyoCd=3770800211-00&ServiceCd=780&Type=search", "url2": "http://city.mitoyo.lg.jp" }, "geometry": { "type": "Point", "coordinates": [ 133.76453140000001, 34.1771352 ] } },
{ "type": "Feature", "properties": { "内容": "樋本デイサービス【地域密着型通所介護】香川県三豊市山本町財田西837番地1", "url": "https://www.kaigokensaku.mhlw.go.jp/37/index.php?action_kouhyou_detail_004_kani=true&JigyosyoCd=3770800633-00&ServiceCd=780&Type=search", "url2": "https://www.hinomoto-llc.com/" }, "geometry": { "type": "Point", "coordinates": [ 133.740592099999958, 34.115673900000012 ] } },
{ "type": "Feature", "properties": { "内容": "デイサービスセンターせとうち【地域密着型通所介護】香川県三豊市詫間町松崎2780番地159", "url": "https://www.kaigokensaku.mhlw.go.jp/37/index.php?action_kouhyou_detail_004_kani=true&JigyosyoCd=3790800167-00&ServiceCd=780&Type=search", "url2": "https://setouchi-fukushi.com" }, "geometry": { "type": "Point", "coordinates": [ 133.6894821, 34.2236227 ] } },
{ "type": "Feature", "properties": { "内容": "にこにこ三豊デイサービス【地域密着型通所介護】香川県三豊市高瀬町上高瀬1883番地1", "url": "https://www.kaigokensaku.mhlw.go.jp/37/index.php?action_kouhyou_detail_004_kani=true&JigyosyoCd=3771700923-00&ServiceCd=780&Type=search", "url2": "http://care-net.biz/37/nponikonikomitoyo/" }, "geometry": { "type": "Point", "coordinates": [ 133.725848869975266, 34.186460438031801 ] } },
{ "type": "Feature", "properties": { "内容": "大浜デイサービスセンター【地域密着型通所介護】香川県三豊市詫間町大浜甲1836番地3", "url": "https://www.kaigokensaku.mhlw.go.jp/37/index.php?action_kouhyou_detail_004_kani=true&JigyosyoCd=3790800217-00&ServiceCd=780&Type=search", "url2": "http://takumaso.com/" }, "geometry": { "type": "Point", "coordinates": [ 133.6131382, 34.236683 ] } },
{ "type": "Feature", "properties": { "内容": "デイサービスゆめクラブ【地域密着型通所介護】香川県三豊市三野町吉津甲537番地2", "url": "https://www.kaigokensaku.mhlw.go.jp/37/index.php?action_kouhyou_detail_004_kani=true&JigyosyoCd=3770800542-00&ServiceCd=780&Type=search", "url2": "https://setouchi-fukushi.com/" }, "geometry": { "type": "Point", "coordinates": [ 133.698656300000039, 34.1999647 ] } },
{ "type": "Feature", "properties": { "内容": "健康デイゆめクラブ【地域密着型通所介護】香川県三豊市三野町吉津甲537番地2", "url": "https://www.kaigokensaku.mhlw.go.jp/37/index.php?action_kouhyou_detail_004_kani=true&JigyosyoCd=3790800175-00&ServiceCd=780&Type=search", "url2": "https://setouchi-fukushi.com/" }, "geometry": { "type": "Point", "coordinates": [ 133.6806995, 34.1986309 ] } },
{ "type": "Feature", "properties": { "内容": "デイサービスセンターひまわり【地域密着型通所介護】香川県三豊市詫間町詫間7068-1", "url": "https://www.kaigokensaku.mhlw.go.jp/37/index.php?action_kouhyou_detail_004_kani=true&JigyosyoCd=3770800450-00&ServiceCd=780&Type=search", "url2": null }, "geometry": { "type": "Point", "coordinates": [ 133.665988345998045, 34.215813711709835 ] } },
{ "type": "Feature", "properties": { "内容": "リハ・スタジオうらしま【地域密着型通所介護】香川県三豊市詫間町詫間6784-94", "url": "https://www.kaigokensaku.mhlw.go.jp/37/index.php?action_kouhyou_detail_004_kani=true&JigyosyoCd=3790800100-00&ServiceCd=780&Type=search", "url2": "https://urashima-kaigo.com" }, "geometry": { "type": "Point", "coordinates": [ 133.685747282803277, 34.217383220426626 ] } },
{ "type": "Feature", "properties": { "内容": "つなぎの森【地域密着型通所介護】香川県三豊市豊中町比地大783番地1", "url": "https://www.kaigokensaku.mhlw.go.jp/37/index.php?action_kouhyou_detail_004_kani=true&JigyosyoCd=3790800225-00&ServiceCd=780&Type=search", "url2": null }, "geometry": { "type": "Point", "coordinates": [ 133.68761155026246, 34.170154564434654 ] } },
{ "type": "Feature", "properties": { "内容": "デイサービスうらしま　四国損害保険株式会社【地域密着型通所介護】香川県三豊市詫間町詫間6784-95", "url": "https://www.kaigokensaku.mhlw.go.jp/37/index.php?action_kouhyou_detail_004_kani=true&JigyosyoCd=3771700709-00&ServiceCd=780&Type=search", "url2": null }, "geometry": { "type": "Point", "coordinates": [ 133.685862728836071, 34.217382310939051 ] } },
{ "type": "Feature", "properties": { "内容": "リハビリでい詫間【地域密着型通所介護】香川県三豊市詫間町詫間581-11", "url": "https://www.kaigokensaku.mhlw.go.jp/37/index.php?action_kouhyou_detail_004_kani=true&JigyosyoCd=3770800617-00&ServiceCd=780&Type=search", "url2": "https://day-takuma.studio.site/" }, "geometry": { "type": "Point", "coordinates": [ 133.6785305085983, 34.219626415503953 ] } },
{ "type": "Feature", "properties": { "内容": "デイサービスセンターくにち【地域密着型通所介護】香川県三豊市高瀬町下勝間2015番地2", "url": "https://www.kaigokensaku.mhlw.go.jp/37/index.php?action_kouhyou_detail_004_kani=true&JigyosyoCd=3790800191-00&ServiceCd=780&Type=search", "url2": null }, "geometry": { "type": "Point", "coordinates": [ 133.7133313, 34.1745768 ] } },
{ "type": "Feature", "properties": { "内容": "古民家デイサービスりあん【地域密着型通所介護】香川県三豊市財田町財田上７０３９－１", "url": "https://www.kaigokensaku.mhlw.go.jp/37/index.php?action_kouhyou_detail_004_kani=true&JigyosyoCd=3790800118-00&ServiceCd=780&Type=search", "url2": "http://hp.kaipoke.biz/2pu/" }, "geometry": { "type": "Point", "coordinates": [ 133.8121367, 34.120474 ] } },
{ "type": "Feature", "properties": { "内容": "機能訓練型デイサービスくらふと【地域密着型通所介護】香川県小豆郡土庄町淵崎甲1400番地18", "url": "https://www.kaigokensaku.mhlw.go.jp/37/index.php?action_kouhyou_detail_004_kani=true&JigyosyoCd=3791200136-00&ServiceCd=780&Type=search", "url2": null }, "geometry": { "type": "Point", "coordinates": [ 134.1880971, 34.486901900000014 ] } },
{ "type": "Feature", "properties": { "内容": "フィジカルデイ　Re：Move【地域密着型通所介護】香川県小豆郡土庄町渕崎甲1447-1DCMダイキ　テナント棟", "url": "https://www.kaigokensaku.mhlw.go.jp/37/index.php?action_kouhyou_detail_004_kani=true&JigyosyoCd=3791200144-00&ServiceCd=780&Type=search", "url2": null }, "geometry": { "type": "Point", "coordinates": [ 134.187067, 34.487449 ] } },
{ "type": "Feature", "properties": { "内容": "豊島ナオミ荘　デイサービスセンター【地域密着型通所介護】小豆郡土庄町豊島家浦43-10", "url": "https://www.kaigokensaku.mhlw.go.jp/37/index.php?action_kouhyou_detail_004_kani=true&JigyosyoCd=3771200171-00&ServiceCd=780&Type=search", "url2": "http://www.ans.co.jp/n/naomi/" }, "geometry": { "type": "Point", "coordinates": [ 134.07582560000003, 34.4948314 ] } },
{ "type": "Feature", "properties": { "内容": "機能訓練センター　スマイルウォーク【地域密着型通所介護】香川県小豆郡小豆島町安田甲１３６－６", "url": "https://www.kaigokensaku.mhlw.go.jp/37/index.php?action_kouhyou_detail_004_kani=true&JigyosyoCd=3771200536-00&ServiceCd=780&Type=search", "url2": null }, "geometry": { "type": "Point", "coordinates": [ 134.315840900000012, 34.479629 ] } },
{ "type": "Feature", "properties": { "内容": "デイサービス笑【地域密着型通所介護】香川県木田郡三木町大字氷上字西丸岡5042番地1", "url": "https://www.kaigokensaku.mhlw.go.jp/37/index.php?action_kouhyou_detail_004_kani=true&JigyosyoCd=3791300068-00&ServiceCd=780&Type=search", "url2": "https://sites.google.com/view/deisabisuemi/%E3%83%9B%E3%83%BC%E3%83%A0" }, "geometry": { "type": "Point", "coordinates": [ 134.131669, 34.2552779 ] } },
{ "type": "Feature", "properties": { "内容": "デイサービスノア【地域密着型通所介護】香川県木田郡三木町池戸2709番地10", "url": "https://www.kaigokensaku.mhlw.go.jp/37/index.php?action_kouhyou_detail_004_kani=true&JigyosyoCd=3791300035-00&ServiceCd=780&Type=search", "url2": null }, "geometry": { "type": "Point", "coordinates": [ 134.126925699999987, 34.2760972 ] } },
{ "type": "Feature", "properties": { "内容": "フレンドケア通所介護吉鈴【地域密着型通所介護】香川県木田郡三木町大字下高岡375番地１", "url": "https://www.kaigokensaku.mhlw.go.jp/37/index.php?action_kouhyou_detail_004_kani=true&JigyosyoCd=3771300724-00&ServiceCd=780&Type=search", "url2": "https://kichirin.jp/pages/47/" }, "geometry": { "type": "Point", "coordinates": [ 134.151855866331516, 34.25870383051226 ] } },
{ "type": "Feature", "properties": { "内容": "デイサービス絆　直島【地域密着型通所介護】香川県香川郡直島町2396-12", "url": "https://www.kaigokensaku.mhlw.go.jp/37/index.php?action_kouhyou_detail_004_kani=true&JigyosyoCd=3791400025-00&ServiceCd=780&Type=search", "url2": "http://kizuna.hp.gogo.jp/pc/" }, "geometry": { "type": "Point", "coordinates": [ 133.998283600000036, 34.4605448 ] } },
{ "type": "Feature", "properties": { "内容": "レファシード直島　デイサービスセンター【地域密着型通所介護】香川県香川郡直島町3749-1", "url": "https://www.kaigokensaku.mhlw.go.jp/37/index.php?action_kouhyou_detail_004_kani=true&JigyosyoCd=3771400383-00&ServiceCd=780&Type=search", "url2": null }, "geometry": { "type": "Point", "coordinates": [ 133.998283600000036, 34.4605448 ] } },
{ "type": "Feature", "properties": { "内容": "デイサービス　一合一笑　滝宮【地域密着型通所介護】滝宮1639-1", "url": "https://www.kaigokensaku.mhlw.go.jp/37/index.php?action_kouhyou_detail_004_kani=true&JigyosyoCd=3771501214-00&ServiceCd=780&Type=search", "url2": "http//first-smile.jp" }, "geometry": { "type": "Point", "coordinates": [ 133.915729300000066, 34.2525014 ] } },
{ "type": "Feature", "properties": { "内容": "はるちゃん家【地域密着型通所介護】香川県綾歌郡綾川町畑田12‐2", "url": "https://www.kaigokensaku.mhlw.go.jp/37/index.php?action_kouhyou_detail_004_kani=true&JigyosyoCd=3791500055-00&ServiceCd=780&Type=search", "url2": null }, "geometry": { "type": "Point", "coordinates": [ 133.9840269, 34.2654653 ] } },
{ "type": "Feature", "properties": { "内容": "デイサービスみりみり【地域密着型通所介護】香川県仲多度郡多度津町寿町4-20", "url": "https://www.kaigokensaku.mhlw.go.jp/37/index.php?action_kouhyou_detail_004_kani=true&JigyosyoCd=3791600137-00&ServiceCd=780&Type=search", "url2": null }, "geometry": { "type": "Point", "coordinates": [ 133.7577416, 34.2690447 ] } },
{ "type": "Feature", "properties": { "内容": "デイサービス　せせらぎ【地域密着型通所介護】香川県仲多度郡多度津町寿町２番１７号", "url": "https://www.kaigokensaku.mhlw.go.jp/37/index.php?action_kouhyou_detail_004_kani=true&JigyosyoCd=3771601121-00&ServiceCd=780&Type=search", "url2": "http://katouhp.net/" }, "geometry": { "type": "Point", "coordinates": [ 133.758304400000043, 34.2705937 ] } },
{ "type": "Feature", "properties": { "内容": "デイサービス　ゆず【地域密着型通所介護】香川県仲多度郡多度津町栄町２丁目４番１０号", "url": "https://www.kaigokensaku.mhlw.go.jp/37/index.php?action_kouhyou_detail_004_kani=true&JigyosyoCd=3771601063-00&ServiceCd=780&Type=search", "url2": "https://tetsuya-tadotsu.com/" }, "geometry": { "type": "Point", "coordinates": [ 133.756990500000029, 34.27426 ] } },
{ "type": "Feature", "properties": { "内容": "デイサービスセンター　よりあい【地域密着型通所介護】香川県仲多度郡まんのう町東高篠285-1", "url": "https://www.kaigokensaku.mhlw.go.jp/37/index.php?action_kouhyou_detail_004_kani=true&JigyosyoCd=3771600966-00&ServiceCd=780&Type=search", "url2": "http:www.seiyukai.jp" }, "geometry": { "type": "Point", "coordinates": [ 133.828826700000036, 34.2155173 ] } },
{ "type": "Feature", "properties": { "内容": "通所介護　百百の家【地域密着型通所介護】香川県仲多度郡まんのう町四條７７７番地", "url": "https://www.kaigokensaku.mhlw.go.jp/37/index.php?action_kouhyou_detail_004_kani=true&JigyosyoCd=3771600412-00&ServiceCd=780&Type=search", "url2": "http://www.oguni.or.jp/" }, "geometry": { "type": "Point", "coordinates": [ 133.837046369975269, 34.195638707797883 ] } }
]
}
