{
"type": "FeatureCollection",
"name": "geo_37_中学校",
"crs": { "type": "name", "properties": { "name": "urn:ogc:def:crs:EPSG::6668" } },
"features": [
{ "type": "Feature", "properties": { "P29_001": "37201", "P29_002": "C137110000016", "P29_003": "16002", "P29_004": "香川大学教育学部附属高松中学校", "P29_005": "香川県高松市鹿角町394", "P29_006": "1", "P29_007": "1", "P29_008": "00", "P29_009": null }, "geometry": { "type": "Point", "coordinates": [ 134.03236810192567, 34.299461145911494 ] } },
{ "type": "Feature", "properties": { "P29_001": "37203", "P29_002": "C137110000025", "P29_003": "16002", "P29_004": "香川大学教育学部附属坂出中学校", "P29_005": "香川県坂出市青葉町1-7", "P29_006": "1", "P29_007": "1", "P29_008": "00", "P29_009": null }, "geometry": { "type": "Point", "coordinates": [ 133.854209631570939, 34.308767096224244 ] } },
{ "type": "Feature", "properties": { "P29_001": "37201", "P29_002": "C137220100012", "P29_003": "16002", "P29_004": "香川県立高松北中学校", "P29_005": "香川県高松市牟礼町牟礼1583-1", "P29_006": "2", "P29_007": "1", "P29_008": "00", "P29_009": null }, "geometry": { "type": "Point", "coordinates": [ 134.142773947686095, 34.346122135781727 ] } },
{ "type": "Feature", "properties": { "P29_001": "37201", "P29_002": "C137220100021", "P29_003": "16002", "P29_004": "高松市立桜町中学校", "P29_005": "香川県高松市桜町2-12-4", "P29_006": "3", "P29_007": "1", "P29_008": "00", "P29_009": null }, "geometry": { "type": "Point", "coordinates": [ 134.052149862454172, 34.326294635910045 ] } },
{ "type": "Feature", "properties": { "P29_001": "37201", "P29_002": "C137220100030", "P29_003": "16002", "P29_004": "高松市立紫雲中学校", "P29_005": "香川県高松市紫雲町8-25", "P29_006": "3", "P29_007": "1", "P29_008": "00", "P29_009": null }, "geometry": { "type": "Point", "coordinates": [ 134.033276756671967, 34.340823036667963 ] } },
{ "type": "Feature", "properties": { "P29_001": "37201", "P29_002": "C137220100049", "P29_003": "16002", "P29_004": "高松市立紫雲中学校みねやま分校", "P29_005": "香川県高松市西宝町2-6-9", "P29_006": "3", "P29_007": "1", "P29_008": "00", "P29_009": null }, "geometry": { "type": "Point", "coordinates": [ 134.030363895320193, 34.33983254016087 ] } },
{ "type": "Feature", "properties": { "P29_001": "37201", "P29_002": "C137220100058", "P29_003": "16002", "P29_004": "高松市立玉藻中学校", "P29_005": "香川県高松市上福岡町714-1", "P29_006": "3", "P29_007": "1", "P29_008": "00", "P29_009": null }, "geometry": { "type": "Point", "coordinates": [ 134.066198814703171, 34.334009422549677 ] } },
{ "type": "Feature", "properties": { "P29_001": "37201", "P29_002": "C137220100067", "P29_003": "16002", "P29_004": "高松市立高松第一中学校", "P29_005": "香川県高松市松島町2-14-5", "P29_006": "3", "P29_007": "1", "P29_008": "00", "P29_009": null }, "geometry": { "type": "Point", "coordinates": [ 134.062051103138941, 34.338783481191726 ] } },
{ "type": "Feature", "properties": { "P29_001": "37201", "P29_002": "C137220100085", "P29_003": "16002", "P29_004": "高松市立屋島中学校", "P29_005": "香川県高松市屋島中町295", "P29_006": "3", "P29_007": "1", "P29_008": "00", "P29_009": null }, "geometry": { "type": "Point", "coordinates": [ 134.104924718981778, 34.341073431007459 ] } },
{ "type": "Feature", "properties": { "P29_001": "37201", "P29_002": "C137220100094", "P29_003": "16002", "P29_004": "高松市立協和中学校", "P29_005": "香川県高松市元山町88-2", "P29_006": "3", "P29_007": "1", "P29_008": "00", "P29_009": null }, "geometry": { "type": "Point", "coordinates": [ 134.085804893354407, 34.307512743062688 ] } },
{ "type": "Feature", "properties": { "P29_001": "37201", "P29_002": "C137220100101", "P29_003": "16002", "P29_004": "高松市立龍雲中学校", "P29_005": "香川県高松市出作町331-2", "P29_006": "3", "P29_007": "1", "P29_008": "00", "P29_009": null }, "geometry": { "type": "Point", "coordinates": [ 134.050675522367669, 34.282360943333792 ] } },
{ "type": "Feature", "properties": { "P29_001": "37201", "P29_002": "C137220100110", "P29_003": "16002", "P29_004": "高松市立勝賀中学校", "P29_005": "香川県高松市香西南町565", "P29_006": "3", "P29_007": "1", "P29_008": "00", "P29_009": null }, "geometry": { "type": "Point", "coordinates": [ 133.999352354204177, 34.342224946204546 ] } },
{ "type": "Feature", "properties": { "P29_001": "37201", "P29_002": "C137220100129", "P29_003": "16002", "P29_004": "高松市立一宮中学校", "P29_005": "香川県高松市一宮町1185-1", "P29_006": "3", "P29_007": "1", "P29_008": "00", "P29_009": null }, "geometry": { "type": "Point", "coordinates": [ 134.025130249520913, 34.292733275933138 ] } },
{ "type": "Feature", "properties": { "P29_001": "37201", "P29_002": "C137220100138", "P29_003": "16002", "P29_004": "高松市立香東中学校", "P29_005": "香川県高松市円座町771", "P29_006": "3", "P29_007": "1", "P29_008": "00", "P29_009": null }, "geometry": { "type": "Point", "coordinates": [ 134.00912509519452, 34.29489261318647 ] } },
{ "type": "Feature", "properties": { "P29_001": "37201", "P29_002": "C137220100147", "P29_003": "16002", "P29_004": "高松市立下笠居中学校", "P29_005": "香川県高松市生島町372-1", "P29_006": "3", "P29_007": "1", "P29_008": "00", "P29_009": null }, "geometry": { "type": "Point", "coordinates": [ 133.966754382340355, 34.357420691483412 ] } },
{ "type": "Feature", "properties": { "P29_001": "37201", "P29_002": "C137220100156", "P29_003": "16002", "P29_004": "高松市立男木中学校", "P29_005": "香川県高松市男木町165", "P29_006": "3", "P29_007": "1", "P29_008": "00", "P29_009": null }, "geometry": { "type": "Point", "coordinates": [ 134.056832352224546, 34.42002287159265 ] } },
{ "type": "Feature", "properties": { "P29_001": "37201", "P29_002": "C137220100165", "P29_003": "16002", "P29_004": "高松市立山田中学校", "P29_005": "香川県高松市川島東町1257-1", "P29_006": "3", "P29_007": "1", "P29_008": "00", "P29_009": null }, "geometry": { "type": "Point", "coordinates": [ 134.092865224252392, 34.267915625650147 ] } },
{ "type": "Feature", "properties": { "P29_001": "37201", "P29_002": "C137220100174", "P29_003": "16002", "P29_004": "高松市立太田中学校", "P29_005": "香川県高松市太田下町1800", "P29_006": "3", "P29_007": "1", "P29_008": "00", "P29_009": null }, "geometry": { "type": "Point", "coordinates": [ 134.045976001363044, 34.305940998760519 ] } },
{ "type": "Feature", "properties": { "P29_001": "37201", "P29_002": "C137220100183", "P29_003": "16002", "P29_004": "高松市立古高松中学校", "P29_005": "香川県高松市新田町甲190-1", "P29_006": "3", "P29_007": "1", "P29_008": "00", "P29_009": null }, "geometry": { "type": "Point", "coordinates": [ 134.103200202851582, 34.332031952128638 ] } },
{ "type": "Feature", "properties": { "P29_001": "37201", "P29_002": "C137220100192", "P29_003": "16002", "P29_004": "高松市立木太中学校", "P29_005": "香川県高松市木太町5059-3", "P29_006": "3", "P29_007": "1", "P29_008": "00", "P29_009": null }, "geometry": { "type": "Point", "coordinates": [ 134.06742215992881, 34.313803454655982 ] } },
{ "type": "Feature", "properties": { "P29_001": "37201", "P29_002": "C137220100209", "P29_003": "16002", "P29_004": "高松市立牟礼中学校", "P29_005": "香川県高松市牟礼町牟礼46-2", "P29_006": "3", "P29_007": "1", "P29_008": "00", "P29_009": null }, "geometry": { "type": "Point", "coordinates": [ 134.143242547063778, 34.339996250250543 ] } },
{ "type": "Feature", "properties": { "P29_001": "37201", "P29_002": "C137220100218", "P29_003": "16002", "P29_004": "高松市立庵治中学校", "P29_005": "香川県高松市庵治町691-1", "P29_006": "3", "P29_007": "1", "P29_008": "00", "P29_009": null }, "geometry": { "type": "Point", "coordinates": [ 134.130725963847965, 34.383737393596178 ] } },
{ "type": "Feature", "properties": { "P29_001": "37201", "P29_002": "C137220100227", "P29_003": "16002", "P29_004": "高松市立塩江中学校", "P29_005": "香川県高松市塩江町安原上231-1", "P29_006": "3", "P29_007": "1", "P29_008": "00", "P29_009": null }, "geometry": { "type": "Point", "coordinates": [ 134.074216070215641, 34.181533551346028 ] } },
{ "type": "Feature", "properties": { "P29_001": "37201", "P29_002": "C137220100236", "P29_003": "16002", "P29_004": "高松市立香川第一中学校", "P29_005": "香川県高松市香川町浅野1188", "P29_006": "3", "P29_007": "1", "P29_008": "00", "P29_009": null }, "geometry": { "type": "Point", "coordinates": [ 134.030849072055844, 34.253306277865541 ] } },
{ "type": "Feature", "properties": { "P29_001": "37201", "P29_002": "C137220100245", "P29_003": "16002", "P29_004": "高松市立香南中学校", "P29_005": "香川県高松市香南町横井801", "P29_006": "3", "P29_007": "1", "P29_008": "00", "P29_009": null }, "geometry": { "type": "Point", "coordinates": [ 134.008296203455302, 34.243004891485626 ] } },
{ "type": "Feature", "properties": { "P29_001": "37201", "P29_002": "C137220100254", "P29_003": "16002", "P29_004": "高松市立国分寺中学校", "P29_005": "香川県高松市国分寺町新居1131-1", "P29_006": "3", "P29_007": "1", "P29_008": "00", "P29_009": null }, "geometry": { "type": "Point", "coordinates": [ 133.964203065806117, 34.297257391718915 ] } },
{ "type": "Feature", "properties": { "P29_001": "37201", "P29_002": "C137220100263", "P29_003": "16002", "P29_004": "高松市立下笠居中学校五色台分校", "P29_005": "香川県高松市中山町1501-192", "P29_006": "3", "P29_007": "1", "P29_008": "00", "P29_009": null }, "geometry": { "type": "Point", "coordinates": [ 133.954477906950501, 34.342676280372466 ] } },
{ "type": "Feature", "properties": { "P29_001": "37202", "P29_002": "C137220200011", "P29_003": "16002", "P29_004": "丸亀市立東中学校", "P29_005": "香川県丸亀市大手町1-5-1", "P29_006": "3", "P29_007": "1", "P29_008": "00", "P29_009": null }, "geometry": { "type": "Point", "coordinates": [ 133.800504756753895, 34.28991722785733 ] } },
{ "type": "Feature", "properties": { "P29_001": "37202", "P29_002": "C137220200020", "P29_003": "16002", "P29_004": "丸亀市立西中学校", "P29_005": "香川県丸亀市中府町3-11-1", "P29_006": "3", "P29_007": "1", "P29_008": "00", "P29_009": null }, "geometry": { "type": "Point", "coordinates": [ 133.794476392550223, 34.284318072767228 ] } },
{ "type": "Feature", "properties": { "P29_001": "37202", "P29_002": "C137220200039", "P29_003": "16002", "P29_004": "丸亀市立本島中学校", "P29_005": "香川県丸亀市本島町泊18", "P29_006": "3", "P29_007": "1", "P29_008": "00", "P29_009": null }, "geometry": { "type": "Point", "coordinates": [ 133.782865547582162, 34.387433065309366 ] } },
{ "type": "Feature", "properties": { "P29_001": "37202", "P29_002": "C137220200048", "P29_003": "16002", "P29_004": "丸亀市立広島中学校", "P29_005": "香川県丸亀市広島町江の浦439", "P29_006": "3", "P29_007": "9", "P29_008": "00", "P29_009": null }, "geometry": { "type": "Point", "coordinates": [ 133.715558001224366, 34.365154002648168 ] } },
{ "type": "Feature", "properties": { "P29_001": "37202", "P29_002": "C137220200057", "P29_003": "16002", "P29_004": "丸亀市立小手島中学校", "P29_005": "香川県丸亀市広島町小手島2782", "P29_006": "3", "P29_007": "9", "P29_008": "00", "P29_009": null }, "geometry": { "type": "Point", "coordinates": [ 133.651448634979999, 34.37470836061744 ] } },
{ "type": "Feature", "properties": { "P29_001": "37202", "P29_002": "C137220200066", "P29_003": "16002", "P29_004": "丸亀市立南中学校", "P29_005": "香川県丸亀市郡家町3690", "P29_006": "3", "P29_007": "1", "P29_008": "00", "P29_009": null }, "geometry": { "type": "Point", "coordinates": [ 133.813545843707345, 34.267035681452363 ] } },
{ "type": "Feature", "properties": { "P29_001": "37202", "P29_002": "C137220200075", "P29_003": "16002", "P29_004": "丸亀市立綾歌中学校", "P29_005": "香川県丸亀市綾歌町栗熊東431", "P29_006": "3", "P29_007": "1", "P29_008": "00", "P29_009": null }, "geometry": { "type": "Point", "coordinates": [ 133.883047478606045, 34.236884818606491 ] } },
{ "type": "Feature", "properties": { "P29_001": "37202", "P29_002": "C137220200084", "P29_003": "16002", "P29_004": "丸亀市立飯山中学校", "P29_005": "香川県丸亀市飯山町川原1110", "P29_006": "3", "P29_007": "1", "P29_008": "00", "P29_009": null }, "geometry": { "type": "Point", "coordinates": [ 133.861555466346573, 34.26382096903793 ] } },
{ "type": "Feature", "properties": { "P29_001": "37203", "P29_002": "C137220300010", "P29_003": "16002", "P29_004": "坂出市立坂出中学校", "P29_005": "香川県坂出市小山町2-1", "P29_006": "3", "P29_007": "1", "P29_008": "00", "P29_009": null }, "geometry": { "type": "Point", "coordinates": [ 133.85317438363063, 34.299032156411251 ] } },
{ "type": "Feature", "properties": { "P29_001": "37203", "P29_002": "C137220300029", "P29_003": "16002", "P29_004": "坂出市立東部中学校", "P29_005": "香川県坂出市久米町2-7-46", "P29_006": "3", "P29_007": "1", "P29_008": "00", "P29_009": null }, "geometry": { "type": "Point", "coordinates": [ 133.865237560270685, 34.320297395538219 ] } },
{ "type": "Feature", "properties": { "P29_001": "37203", "P29_002": "C137220300038", "P29_003": "16002", "P29_004": "坂出市立白峰中学校", "P29_005": "香川県坂出市林田町181-1", "P29_006": "3", "P29_007": "1", "P29_008": "00", "P29_009": null }, "geometry": { "type": "Point", "coordinates": [ 133.90037156132135, 34.325628839419018 ] } },
{ "type": "Feature", "properties": { "P29_001": "37203", "P29_002": "C137220300047", "P29_003": "16002", "P29_004": "坂出市立瀬居中学校", "P29_005": "香川県坂出市番の州町11", "P29_006": "3", "P29_007": "1", "P29_008": "00", "P29_009": null }, "geometry": { "type": "Point", "coordinates": [ 133.857256070303777, 34.35246298890101 ] } },
{ "type": "Feature", "properties": { "P29_001": "37203", "P29_002": "C137220300056", "P29_003": "16002", "P29_004": "坂出市立岩黒中学校", "P29_005": "香川県坂出市岩黒240", "P29_006": "3", "P29_007": "1", "P29_008": "00", "P29_009": null }, "geometry": { "type": "Point", "coordinates": [ 133.812371308801403, 34.407978187337456 ] } },
{ "type": "Feature", "properties": { "P29_001": "37204", "P29_002": "C137220400019", "P29_003": "16002", "P29_004": "善通寺市立東中学校", "P29_005": "香川県善通寺市生野本町2-14-1", "P29_006": "3", "P29_007": "1", "P29_008": "00", "P29_009": null }, "geometry": { "type": "Point", "coordinates": [ 133.786843628469143, 34.225672979526976 ] } },
{ "type": "Feature", "properties": { "P29_001": "37204", "P29_002": "C137220400028", "P29_003": "16002", "P29_004": "善通寺市立西中学校", "P29_005": "香川県善通寺市文京町4-1-1", "P29_006": "3", "P29_007": "1", "P29_008": "00", "P29_009": null }, "geometry": { "type": "Point", "coordinates": [ 133.780445503399733, 34.223337754189281 ] } },
{ "type": "Feature", "properties": { "P29_001": "37205", "P29_002": "C137220500018", "P29_003": "16002", "P29_004": "観音寺市立観音寺中学校", "P29_005": "香川県観音寺市八幡町2-10-7", "P29_006": "3", "P29_007": "1", "P29_008": "00", "P29_009": null }, "geometry": { "type": "Point", "coordinates": [ 133.64578878705197, 34.136856199805017 ] } },
{ "type": "Feature", "properties": { "P29_001": "37205", "P29_002": "C137220500027", "P29_003": "16002", "P29_004": "観音寺市立中部中学校", "P29_005": "香川県観音寺市柞田町甲1237", "P29_006": "3", "P29_007": "1", "P29_008": "00", "P29_009": null }, "geometry": { "type": "Point", "coordinates": [ 133.665335100360466, 34.118722305023653 ] } },
{ "type": "Feature", "properties": { "P29_001": "37205", "P29_002": "C137220500036", "P29_003": "16002", "P29_004": "観音寺市立伊吹中学校", "P29_005": "香川県観音寺市伊吹町549", "P29_006": "3", "P29_007": "1", "P29_008": "00", "P29_009": null }, "geometry": { "type": "Point", "coordinates": [ 133.538990722194086, 34.128770844582178 ] } },
{ "type": "Feature", "properties": { "P29_001": "37205", "P29_002": "C137220500045", "P29_003": "16002", "P29_004": "観音寺市立大野原中学校", "P29_005": "香川県観音寺市大野原町中姫1189-3", "P29_006": "3", "P29_007": "1", "P29_008": "00", "P29_009": null }, "geometry": { "type": "Point", "coordinates": [ 133.668111645536584, 34.08715416817396 ] } },
{ "type": "Feature", "properties": { "P29_001": "37205", "P29_002": "C137220500054", "P29_003": "16002", "P29_004": "観音寺市立豊浜中学校", "P29_005": "香川県観音寺市豊浜町和田浜717", "P29_006": "3", "P29_007": "1", "P29_008": "00", "P29_009": null }, "geometry": { "type": "Point", "coordinates": [ 133.642767111084481, 34.077321497662751 ] } },
{ "type": "Feature", "properties": { "P29_001": "37206", "P29_002": "C137220600017", "P29_003": "16002", "P29_004": "さぬき市立さぬき南中学校", "P29_005": "香川県さぬき市大川町富田西2823-1", "P29_006": "3", "P29_007": "1", "P29_008": "00", "P29_009": null }, "geometry": { "type": "Point", "coordinates": [ 134.218361858109972, 34.267242459048376 ] } },
{ "type": "Feature", "properties": { "P29_001": "37206", "P29_002": "C137220600026", "P29_003": "16002", "P29_004": "さぬき市立志度中学校", "P29_005": "香川県さぬき市志度2214-4", "P29_006": "3", "P29_007": "1", "P29_008": "00", "P29_009": null }, "geometry": { "type": "Point", "coordinates": [ 134.177538729674438, 34.317557612438051 ] } },
{ "type": "Feature", "properties": { "P29_001": "37206", "P29_002": "C137220600035", "P29_003": "16002", "P29_004": "さぬき市立長尾中学校", "P29_005": "香川県さぬき市長尾東954", "P29_006": "3", "P29_007": "1", "P29_008": "00", "P29_009": null }, "geometry": { "type": "Point", "coordinates": [ 134.177146045856205, 34.2634580563765 ] } },
{ "type": "Feature", "properties": { "P29_001": "37207", "P29_002": "C137220700016", "P29_003": "16002", "P29_004": "東かがわ市立引田中学校", "P29_005": "香川県東かがわ市引田545-1", "P29_006": "3", "P29_007": "1", "P29_008": "00", "P29_009": null }, "geometry": { "type": "Point", "coordinates": [ 134.40408693078777, 34.22301562071209 ] } },
{ "type": "Feature", "properties": { "P29_001": "37207", "P29_002": "C137220700025", "P29_003": "16002", "P29_004": "東かがわ市立白鳥中学校", "P29_005": "香川県東かがわ市白鳥757-1", "P29_006": "3", "P29_007": "1", "P29_008": "00", "P29_009": null }, "geometry": { "type": "Point", "coordinates": [ 134.352148213716646, 34.237837610665629 ] } },
{ "type": "Feature", "properties": { "P29_001": "37207", "P29_002": "C137220700034", "P29_003": "16002", "P29_004": "東かがわ市立大川中学校", "P29_005": "香川県東かがわ市西村1510", "P29_006": "3", "P29_007": "1", "P29_008": "00", "P29_009": null }, "geometry": { "type": "Point", "coordinates": [ 134.322904197373134, 34.24928095678969 ] } },
{ "type": "Feature", "properties": { "P29_001": "37208", "P29_002": "C137220800015", "P29_003": "16002", "P29_004": "三豊市立高瀬中学校", "P29_005": "香川県三豊市高瀬町下勝間2725-1", "P29_006": "3", "P29_007": "1", "P29_008": "00", "P29_009": null }, "geometry": { "type": "Point", "coordinates": [ 133.720917664659538, 34.180134803342689 ] } },
{ "type": "Feature", "properties": { "P29_001": "37208", "P29_002": "C137220800024", "P29_003": "16002", "P29_004": "三豊市立三野津中学校", "P29_005": "香川県三豊市三野町下高瀬720", "P29_006": "3", "P29_007": "1", "P29_008": "00", "P29_009": null }, "geometry": { "type": "Point", "coordinates": [ 133.700296809781946, 34.20558656943453 ] } },
{ "type": "Feature", "properties": { "P29_001": "37208", "P29_002": "C137220800033", "P29_003": "16002", "P29_004": "三豊市立豊中中学校", "P29_005": "香川県三豊市豊中町本山甲148-1", "P29_006": "3", "P29_007": "1", "P29_008": "00", "P29_009": null }, "geometry": { "type": "Point", "coordinates": [ 133.696082761181998, 34.146950858925003 ] } },
{ "type": "Feature", "properties": { "P29_001": "37208", "P29_002": "C137220800042", "P29_003": "16002", "P29_004": "三豊市立詫間中学校", "P29_005": "香川県三豊市詫間町詫間5796-1", "P29_006": "3", "P29_007": "1", "P29_008": "00", "P29_009": null }, "geometry": { "type": "Point", "coordinates": [ 133.657216870785959, 34.233279651172367 ] } },
{ "type": "Feature", "properties": { "P29_001": "37208", "P29_002": "C137220800051", "P29_003": "16002", "P29_004": "三豊市立仁尾中学校", "P29_005": "香川県三豊市仁尾町仁尾辛38-2", "P29_006": "3", "P29_007": "1", "P29_008": "00", "P29_009": null }, "geometry": { "type": "Point", "coordinates": [ 133.64636806831632, 34.195505626953164 ] } },
{ "type": "Feature", "properties": { "P29_001": "37208", "P29_002": "C137220800060", "P29_003": "16002", "P29_004": "三豊市立和光中学校", "P29_005": "香川県三豊市財田町財田上2790", "P29_006": "3", "P29_007": "1", "P29_008": "00", "P29_009": null }, "geometry": { "type": "Point", "coordinates": [ 133.778510154865188, 34.124285558497135 ] } },
{ "type": "Feature", "properties": { "P29_001": "37208", "P29_002": "C137220800079", "P29_003": "16002", "P29_004": "三豊市観音寺市学校組合立三豊中学校", "P29_005": "香川県三豊市山本町辻876", "P29_006": "3", "P29_007": "1", "P29_008": "00", "P29_009": null }, "geometry": { "type": "Point", "coordinates": [ 133.713218015253574, 34.123133575968232 ] } },
{ "type": "Feature", "properties": { "P29_001": "37322", "P29_002": "C137232200016", "P29_003": "16002", "P29_004": "土庄町立土庄中学校", "P29_005": "香川県小豆郡土庄町渕崎甲1936", "P29_006": "3", "P29_007": "1", "P29_008": "00", "P29_009": null }, "geometry": { "type": "Point", "coordinates": [ 134.192211530849363, 34.486409930208971 ] } },
{ "type": "Feature", "properties": { "P29_001": "37322", "P29_002": "C137232200025", "P29_003": "16002", "P29_004": "土庄町立豊島中学校", "P29_005": "香川県小豆郡土庄町豊島家浦2516", "P29_006": "3", "P29_007": "1", "P29_008": "00", "P29_009": null }, "geometry": { "type": "Point", "coordinates": [ 134.061816933964394, 34.484515353199299 ] } },
{ "type": "Feature", "properties": { "P29_001": "37324", "P29_002": "C137232400014", "P29_003": "16002", "P29_004": "小豆島町立小豆島中学校", "P29_005": "香川県小豆郡小豆島町片城甲44-1", "P29_006": "3", "P29_007": "1", "P29_008": "00", "P29_009": null }, "geometry": { "type": "Point", "coordinates": [ 134.310608763102948, 34.480186663650997 ] } },
{ "type": "Feature", "properties": { "P29_001": "37341", "P29_002": "C137234100013", "P29_003": "16002", "P29_004": "三木町立三木中学校", "P29_005": "香川県木田郡三木町大字氷上31", "P29_006": "3", "P29_007": "1", "P29_008": "00", "P29_009": null }, "geometry": { "type": "Point", "coordinates": [ 134.129138052463446, 34.268554295515607 ] } },
{ "type": "Feature", "properties": { "P29_001": "37364", "P29_002": "C137236400015", "P29_003": "16002", "P29_004": "直島町立直島中学校", "P29_005": "香川県香川郡直島町1580", "P29_006": "3", "P29_007": "1", "P29_008": "00", "P29_009": null }, "geometry": { "type": "Point", "coordinates": [ 133.988089998108961, 34.457866998485578 ] } },
{ "type": "Feature", "properties": { "P29_001": "37386", "P29_002": "C137238600019", "P29_003": "16002", "P29_004": "宇多津町立宇多津中学校", "P29_005": "香川県綾歌郡宇多津町3302", "P29_006": "3", "P29_007": "1", "P29_008": "00", "P29_009": null }, "geometry": { "type": "Point", "coordinates": [ 133.836381356674906, 34.30821417835751 ] } },
{ "type": "Feature", "properties": { "P29_001": "37387", "P29_002": "C137238700036", "P29_003": "16002", "P29_004": "綾川町立綾川中学校", "P29_005": "香川県綾歌郡綾川町陶5593-1", "P29_006": "3", "P29_007": "1", "P29_008": "00", "P29_009": null }, "geometry": { "type": "Point", "coordinates": [ 133.945809365060256, 34.247687292092699 ] } },
{ "type": "Feature", "properties": { "P29_001": "37403", "P29_002": "C137240300018", "P29_003": "16002", "P29_004": "琴平町立琴平中学校", "P29_005": "香川県仲多度郡琴平町五條661", "P29_006": "3", "P29_007": "1", "P29_008": "00", "P29_009": null }, "geometry": { "type": "Point", "coordinates": [ 133.828152122865646, 34.188522177621898 ] } },
{ "type": "Feature", "properties": { "P29_001": "37404", "P29_002": "C137240400017", "P29_003": "16002", "P29_004": "多度津町立多度津中学校", "P29_005": "香川県仲多度郡多度津町本通2-11-55", "P29_006": "3", "P29_007": "1", "P29_008": "00", "P29_009": null }, "geometry": { "type": "Point", "coordinates": [ 133.750464317610266, 34.264920472332733 ] } },
{ "type": "Feature", "properties": { "P29_001": "37406", "P29_002": "C137240600015", "P29_003": "16002", "P29_004": "まんのう町立満濃中学校", "P29_005": "香川県仲多度郡まんのう町吉野下957", "P29_006": "3", "P29_007": "1", "P29_008": "00", "P29_009": null }, "geometry": { "type": "Point", "coordinates": [ 133.848243082915701, 34.188300648395568 ] } },
{ "type": "Feature", "properties": { "P29_001": "37201", "P29_002": "C137320100010", "P29_003": "16002", "P29_004": "香川県明善中学校", "P29_005": "香川県高松市亀岡町1-10", "P29_006": "4", "P29_007": "1", "P29_008": "00", "P29_009": null }, "geometry": { "type": "Point", "coordinates": [ 134.042676243048334, 34.337378702213016 ] } },
{ "type": "Feature", "properties": { "P29_001": "37201", "P29_002": "C137320100029", "P29_003": "16002", "P29_004": "香川県大手前高松中学校", "P29_005": "香川県高松市室新町1166", "P29_006": "4", "P29_007": "1", "P29_008": "00", "P29_009": null }, "geometry": { "type": "Point", "coordinates": [ 134.034022233662796, 34.326696064811401 ] } },
{ "type": "Feature", "properties": { "P29_001": "37201", "P29_002": "C137320100038", "P29_003": "16002", "P29_004": "香川誠陵中学校", "P29_005": "香川県高松市鬼無町佐料469-1", "P29_006": "4", "P29_007": "1", "P29_008": "00", "P29_009": null }, "geometry": { "type": "Point", "coordinates": [ 133.986186560744699, 34.33141043267247 ] } },
{ "type": "Feature", "properties": { "P29_001": "37202", "P29_002": "C137320200019", "P29_003": "16002", "P29_004": "大手前丸亀中学校", "P29_005": "香川県丸亀市大手町1-6-1", "P29_006": "4", "P29_007": "1", "P29_008": "00", "P29_009": null }, "geometry": { "type": "Point", "coordinates": [ 133.800833972852473, 34.289232855316349 ] } },
{ "type": "Feature", "properties": { "P29_001": "37202", "P29_002": "C137320200028", "P29_003": "16002", "P29_004": "香川県藤井中学校", "P29_005": "香川県丸亀市新浜町1-3-1", "P29_006": "4", "P29_007": "1", "P29_008": "00", "P29_009": null }, "geometry": { "type": "Point", "coordinates": [ 133.787850245395333, 34.290207760584323 ] } }
]
}
