{
"type": "FeatureCollection",
"name": "geo_37_定期巡回・随時対応型訪問介護看護",
"crs": { "type": "name", "properties": { "name": "urn:ogc:def:crs:OGC:1.3:CRS84" } },
"features": [
{ "type": "Feature", "properties": { "内容": "定期巡回ステーションりあん【定期巡回・随時対応型訪問介護看護】香川県高松市福岡町2丁目12番1号福栄ビル4F　403号室", "url": "https://www.kaigokensaku.mhlw.go.jp/37/index.php?action_kouhyou_detail_004_kani=true&JigyosyoCd=3790100881-00&ServiceCd=760&Type=search", "url2": null }, "geometry": { "type": "Point", "coordinates": [ 134.0659442, 34.3457254 ] } },
{ "type": "Feature", "properties": { "内容": "定期巡回トゥーユー【定期巡回・随時対応型訪問介護看護】香川県高松市香川町463-3住宅型有料老人ホーム　さくらガーデン喜楽　１F", "url": "https://www.kaigokensaku.mhlw.go.jp/37/index.php?action_kouhyou_detail_004_kani=true&JigyosyoCd=3790100774-00&ServiceCd=760&Type=search", "url2": "https://toyou.akiyama-clinic.com/" }, "geometry": { "type": "Point", "coordinates": [ 134.027628457672108, 34.256678323626353 ] } },
{ "type": "Feature", "properties": { "内容": "定期巡回・随時対応型訪問介護看護事業所　愛の手こくぶんじ【定期巡回・随時対応型訪問介護看護】香川県高松市国分寺町新名２０８１－１", "url": "https://www.kaigokensaku.mhlw.go.jp/37/index.php?action_kouhyou_detail_004_kani=true&JigyosyoCd=3790100311-00&ServiceCd=760&Type=search", "url2": null }, "geometry": { "type": "Point", "coordinates": [ 133.952701599999955, 34.2725888 ] } },
{ "type": "Feature", "properties": { "内容": "ココロココ２４【定期巡回・随時対応型訪問介護看護】香川県高松市太田下町3032-2メゾンブランシュ太田１Ｆ", "url": "https://www.kaigokensaku.mhlw.go.jp/37/index.php?action_kouhyou_detail_004_kani=true&JigyosyoCd=3790100691-00&ServiceCd=760&Type=search", "url2": "https://cocolococo.co.jp/" }, "geometry": { "type": "Point", "coordinates": [ 134.053475592642428, 34.303410022563014 ] } },
{ "type": "Feature", "properties": { "内容": "ハピネス地域サポートセンター【定期巡回・随時対応型訪問介護看護】香川県高松市中山町７７２番地１", "url": "https://www.kaigokensaku.mhlw.go.jp/37/index.php?action_kouhyou_detail_004_kani=true&JigyosyoCd=3790100287-00&ServiceCd=760&Type=search", "url2": "http://www.shinboukai.net/" }, "geometry": { "type": "Point", "coordinates": [ 133.973047100000031, 34.3568903 ] } },
{ "type": "Feature", "properties": { "内容": "あかね在宅ケアステーション【定期巡回・随時対応型訪問介護看護】香川県高松市西町4番1号特別養護老人ホームあかね内", "url": "https://www.kaigokensaku.mhlw.go.jp/37/index.php?action_kouhyou_detail_004_kani=true&JigyosyoCd=3790100501-00&ServiceCd=760&Type=search", "url2": "http://www.sw-akane.jp/" }, "geometry": { "type": "Point", "coordinates": [ 134.028010600213094, 34.34647706658648 ] } },
{ "type": "Feature", "properties": { "内容": "定期巡回ステーションLavie【定期巡回・随時対応型訪問介護看護】高松市伏石町1600番地1アゼール三条305", "url": "https://www.kaigokensaku.mhlw.go.jp/37/index.php?action_kouhyou_detail_004_kani=true&JigyosyoCd=3790101277-00&ServiceCd=760&Type=search", "url2": null }, "geometry": { "type": "Point", "coordinates": [ 134.051552, 34.3213276 ] } },
{ "type": "Feature", "properties": { "内容": "定期巡回ステーションずっといえ高松【定期巡回・随時対応型訪問介護看護】香川県高松市福岡町四丁目18番21号", "url": "https://www.kaigokensaku.mhlw.go.jp/37/index.php?action_kouhyou_detail_004_kani=true&JigyosyoCd=3790101319-00&ServiceCd=760&Type=search", "url2": "https://zuttie.co.jp" }, "geometry": { "type": "Point", "coordinates": [ 134.0709401, 34.3413244 ] } },
{ "type": "Feature", "properties": { "内容": "ココロココ24【定期巡回・随時対応型訪問介護看護】香川県丸亀市金倉町1560番地1", "url": "https://www.kaigokensaku.mhlw.go.jp/37/index.php?action_kouhyou_detail_004_kani=true&JigyosyoCd=3790200400-00&ServiceCd=760&Type=search", "url2": "https://cocolococo.co.jp/" }, "geometry": { "type": "Point", "coordinates": [ 133.778885, 34.2652991 ] } },
{ "type": "Feature", "properties": { "内容": "巡回ケア　きやま【定期巡回・随時対応型訪問介護看護】香川県坂出市川津町1986番地22ケアハウス　ハイツ城山", "url": "https://www.kaigokensaku.mhlw.go.jp/37/index.php?action_kouhyou_detail_004_kani=true&JigyosyoCd=3790300135-00&ServiceCd=760&Type=search", "url2": "http://www.nagai-group.com/" }, "geometry": { "type": "Point", "coordinates": [ 133.869985700000029, 34.2917282 ] } },
{ "type": "Feature", "properties": { "内容": "定期巡回・随時対応型訪問介護看護事業所　愛の手ねんりん【定期巡回・随時対応型訪問介護看護】香川県善通寺市中村町851-1", "url": "https://www.kaigokensaku.mhlw.go.jp/37/index.php?action_kouhyou_detail_004_kani=true&JigyosyoCd=3790400091-00&ServiceCd=760&Type=search", "url2": "http://www.junshinkai.com" }, "geometry": { "type": "Point", "coordinates": [ 133.763865, 34.244683 ] } },
{ "type": "Feature", "properties": { "内容": "タイガーケアさぬき【定期巡回・随時対応型訪問介護看護】香川県さぬき市志度1078-1フォブール平岡A201", "url": "https://www.kaigokensaku.mhlw.go.jp/37/index.php?action_kouhyou_detail_004_kani=true&JigyosyoCd=3790600096-00&ServiceCd=760&Type=search", "url2": "https://tigercare4165.com/" }, "geometry": { "type": "Point", "coordinates": [ 134.184120228175431, 34.324084095606963 ] } },
{ "type": "Feature", "properties": { "内容": "オリーブケア24【定期巡回・随時対応型訪問介護看護】香川県小豆郡小豆島蒲生甲2020-1", "url": "https://www.kaigokensaku.mhlw.go.jp/37/index.php?action_kouhyou_detail_004_kani=true&JigyosyoCd=3791200151-00&ServiceCd=760&Type=search", "url2": null }, "geometry": { "type": "Point", "coordinates": [ 134.207691399999987, 34.4843208 ] } }
]
}
