{
"type": "FeatureCollection",
"name": "geo_37_訪問入浴介護",
"crs": { "type": "name", "properties": { "name": "urn:ogc:def:crs:OGC:1.3:CRS84" } },
"features": [
{ "type": "Feature", "properties": { "内容": "訪問入浴ゆづき【訪問入浴介護】香川県高松市香川町川内原４５番地5", "url": "https://www.kaigokensaku.mhlw.go.jp/37/index.php?action_kouhyou_detail_004_kani=true&JigyosyoCd=3770109878-00&ServiceCd=120&Type=search", "url2": "http://hp.kaipoke.biz/eca/" }, "geometry": { "type": "Point", "coordinates": [ 134.041136300000062, 34.2409805 ] } },
{ "type": "Feature", "properties": { "内容": "訪問入浴いろは【訪問入浴介護】香川県高松市林町1193番地3", "url": "https://www.kaigokensaku.mhlw.go.jp/37/index.php?action_kouhyou_detail_004_kani=true&JigyosyoCd=3770102352-00&ServiceCd=120&Type=search", "url2": "https://www.accept-iroha.co.jp/" }, "geometry": { "type": "Point", "coordinates": [ 134.071632064418083, 34.299196047368767 ] } },
{ "type": "Feature", "properties": { "内容": "社会福祉法人　高松市社会福祉協議会【訪問入浴介護】高松市福岡町二丁目２４番１０号", "url": "https://www.kaigokensaku.mhlw.go.jp/37/index.php?action_kouhyou_detail_004_kani=true&JigyosyoCd=3770100042-00&ServiceCd=120&Type=search", "url2": "http://www.takamatsusi-syakyou.or.jp" }, "geometry": { "type": "Point", "coordinates": [ 134.064209, 34.3444018 ] } },
{ "type": "Feature", "properties": { "内容": "アースサポート高松【訪問入浴介護】香川県高松市上之町3丁目2番12号", "url": "https://www.kaigokensaku.mhlw.go.jp/37/index.php?action_kouhyou_detail_004_kani=true&JigyosyoCd=3770105173-00&ServiceCd=120&Type=search", "url2": "http://www.earthsupport.co.jp" }, "geometry": { "type": "Point", "coordinates": [ 134.052388599999972, 34.3246425 ] } },
{ "type": "Feature", "properties": { "内容": "おふろやさん丸亀【訪問入浴介護】香川県丸亀市郡家町3442番地プルミエールアライA1", "url": "https://www.kaigokensaku.mhlw.go.jp/37/index.php?action_kouhyou_detail_004_kani=true&JigyosyoCd=3770201899-00&ServiceCd=120&Type=search", "url2": "https://highbridge.2017" }, "geometry": { "type": "Point", "coordinates": [ 133.8147572, 34.2560449 ] } },
{ "type": "Feature", "properties": { "内容": "セントケア丸亀【訪問入浴介護】香川県丸亀市土器町東7丁目457", "url": "https://www.kaigokensaku.mhlw.go.jp/37/index.php?action_kouhyou_detail_004_kani=true&JigyosyoCd=3770200982-00&ServiceCd=120&Type=search", "url2": "http:/www.saint-care.com" }, "geometry": { "type": "Point", "coordinates": [ 133.812117599999965, 34.2954833 ] } },
{ "type": "Feature", "properties": { "内容": "Ｌｉｆｅ-エイド【訪問入浴介護】香川県丸亀市川西町北2102-1", "url": "https://www.kaigokensaku.mhlw.go.jp/37/index.php?action_kouhyou_detail_004_kani=true&JigyosyoCd=3770202079-00&ServiceCd=120&Type=search", "url2": "https://life-aid3232.com/" }, "geometry": { "type": "Point", "coordinates": [ 133.823373764418022, 34.264264401343887 ] } },
{ "type": "Feature", "properties": { "内容": "社会福祉法人坂出市社会福祉協議会【訪問入浴介護】香川県坂出市白金町一丁目-2番-10号", "url": "https://www.kaigokensaku.mhlw.go.jp/37/index.php?action_kouhyou_detail_004_kani=true&JigyosyoCd=3770300022-00&ServiceCd=120&Type=search", "url2": "http://sakaidesyakyo.jp/" }, "geometry": { "type": "Point", "coordinates": [ 133.846472211841103, 34.313172552985002 ] } },
{ "type": "Feature", "properties": { "内容": "松寿会訪問入浴サービス　松の湯【訪問入浴介護】香川県坂出市大屋冨町3100番地13", "url": "https://www.kaigokensaku.mhlw.go.jp/37/index.php?action_kouhyou_detail_004_kani=true&JigyosyoCd=3770301244-00&ServiceCd=120&Type=search", "url2": "https://www.shouju.or.jp" }, "geometry": { "type": "Point", "coordinates": [ 133.8940416, 34.35563 ] } },
{ "type": "Feature", "properties": { "内容": "おふろやさん【訪問入浴介護】香川県観音寺市三本松町4丁目2番37号", "url": "https://www.kaigokensaku.mhlw.go.jp/37/index.php?action_kouhyou_detail_004_kani=true&JigyosyoCd=3770500845-00&ServiceCd=120&Type=search", "url2": "http://hp.kaipoke.biz/khy/" }, "geometry": { "type": "Point", "coordinates": [ 133.642002100000013, 34.115565 ] } },
{ "type": "Feature", "properties": { "内容": "セントケア観音寺【訪問入浴介護】香川県観音寺市本大町1473-3", "url": "https://www.kaigokensaku.mhlw.go.jp/37/index.php?action_kouhyou_detail_004_kani=true&JigyosyoCd=3770500589-00&ServiceCd=120&Type=search", "url2": "https://www.saint-care.com" }, "geometry": { "type": "Point", "coordinates": [ 133.697407153534414, 34.133749868637096 ] } },
{ "type": "Feature", "properties": { "内容": "訪問入浴幸楽苑【訪問入浴介護】香川県さぬき市造田是弘619-7", "url": "https://www.kaigokensaku.mhlw.go.jp/37/index.php?action_kouhyou_detail_004_kani=true&JigyosyoCd=3770601346-00&ServiceCd=120&Type=search", "url2": "http://kourakuen-iris.co.jp" }, "geometry": { "type": "Point", "coordinates": [ 134.1799221, 34.2809347 ] } },
{ "type": "Feature", "properties": { "内容": "土庄町訪問入浴サービスセンター【訪問入浴介護】香川県小豆郡土庄町淵崎甲1400番地25土庄町国保保健福祉総合施設やすらぎプラザ", "url": "https://www.kaigokensaku.mhlw.go.jp/37/index.php?action_kouhyou_detail_004_kani=true&JigyosyoCd=3771200247-00&ServiceCd=120&Type=search", "url2": null }, "geometry": { "type": "Point", "coordinates": [ 134.1894982, 34.4860967 ] } }
]
}
