{
"type": "FeatureCollection",
"name": "geo_37_各種学校",
"crs": { "type": "name", "properties": { "name": "urn:ogc:def:crs:EPSG::6668" } },
"features": [
{ "type": "Feature", "properties": { "P29_001": "37201", "P29_002": "H237320100018", "P29_003": "16015", "P29_004": "島田芸術舞踊学校", "P29_005": "香川県高松市塩上町1-5-7", "P29_006": "4", "P29_007": "0", "P29_008": "00", "P29_009": null }, "geometry": { "type": "Point", "coordinates": [ 134.054005294245115, 34.337492618188115 ] } },
{ "type": "Feature", "properties": { "P29_001": "37201", "P29_002": "H237320100027", "P29_003": "16015", "P29_004": "久保料理学院", "P29_005": "香川県高松市浜ノ町60-55-608", "P29_006": "4", "P29_007": "0", "P29_008": "00", "P29_009": null }, "geometry": { "type": "Point", "coordinates": [ 134.044942429949515, 34.343362641401278 ] } },
{ "type": "Feature", "properties": { "P29_001": "37201", "P29_002": "H237320100036", "P29_003": "16015", "P29_004": "香川編物学院", "P29_005": "香川県高松市田町4-28", "P29_006": "4", "P29_007": "0", "P29_008": "00", "P29_009": null }, "geometry": { "type": "Point", "coordinates": [ 134.048373179131204, 34.3360434509298 ] } },
{ "type": "Feature", "properties": { "P29_001": "37202", "P29_002": "H237320200017", "P29_003": "16015", "P29_004": "関西手芸学園", "P29_005": "香川県丸亀市西本町2-2-1", "P29_006": "4", "P29_007": "0", "P29_008": "00", "P29_009": null }, "geometry": { "type": "Point", "coordinates": [ 133.7901312879861, 34.288682254957983 ] } },
{ "type": "Feature", "properties": { "P29_001": "37202", "P29_002": "H237320200035", "P29_003": "16015", "P29_004": "丸亀ニュースタイル編物学院", "P29_005": "香川県丸亀市北平山町2-4-21", "P29_006": "4", "P29_007": "0", "P29_008": "00", "P29_009": null }, "geometry": { "type": "Point", "coordinates": [ 133.797025475519206, 34.296043440612536 ] } },
{ "type": "Feature", "properties": { "P29_001": "37202", "P29_002": "H237320200044", "P29_003": "16015", "P29_004": "一般社団法人丸亀市医師会附属准看護学院", "P29_005": "香川県丸亀市中府町5-1-3", "P29_006": "4", "P29_007": "0", "P29_008": "00", "P29_009": null }, "geometry": { "type": "Point", "coordinates": [ 133.794377958394136, 34.284936495997925 ] } },
{ "type": "Feature", "properties": { "P29_001": "37202", "P29_002": "H237320200053", "P29_003": "16015", "P29_004": "濱谷編物学校", "P29_005": "香川県丸亀市塩屋町4-1-1", "P29_006": "4", "P29_007": "0", "P29_008": "00", "P29_009": null }, "geometry": { "type": "Point", "coordinates": [ 133.781730649112802, 34.287923991855997 ] } },
{ "type": "Feature", "properties": { "P29_001": "37202", "P29_002": "H237320200062", "P29_003": "16015", "P29_004": "マミニットデザインスクール", "P29_005": "香川県丸亀市郡家町1958-2", "P29_006": "4", "P29_007": "0", "P29_008": "00", "P29_009": null }, "geometry": { "type": "Point", "coordinates": [ 133.818252013769182, 34.254646050128272 ] } },
{ "type": "Feature", "properties": { "P29_001": "37203", "P29_002": "H237320300016", "P29_003": "16015", "P29_004": "一般社団法人坂出市医師会附属准看護学院", "P29_005": "香川県坂出市久米町1-17-11", "P29_006": "4", "P29_007": "0", "P29_008": "00", "P29_009": null }, "geometry": { "type": "Point", "coordinates": [ 133.858547619829778, 34.319633886344192 ] } },
{ "type": "Feature", "properties": { "P29_001": "37206", "P29_002": "H237320600013", "P29_003": "16015", "P29_004": "一般社団法人大川地区医師会附属准看護学院", "P29_005": "香川県さぬき市津田町津田1673-2", "P29_006": "4", "P29_007": "0", "P29_008": "00", "P29_009": null }, "geometry": { "type": "Point", "coordinates": [ 134.246322129329258, 34.291672495350454 ] } },
{ "type": "Feature", "properties": { "P29_001": "37208", "P29_002": "H237320800011", "P29_003": "16015", "P29_004": "一般社団法人三豊・観音寺市医師会立三豊准看護学院", "P29_005": "香川県三豊市豊中町本山甲201-1", "P29_006": "4", "P29_007": "0", "P29_008": "00", "P29_009": null }, "geometry": { "type": "Point", "coordinates": [ 133.694722213031667, 34.146949859609151 ] } },
{ "type": "Feature", "properties": { "P29_001": "37322", "P29_002": "H237332200012", "P29_003": "16015", "P29_004": "米倉洋裁学苑", "P29_005": "香川県小豆郡土庄町大部甲523", "P29_006": "4", "P29_007": "0", "P29_008": "00", "P29_009": null }, "geometry": { "type": "Point", "coordinates": [ 134.261910530887008, 34.547066378665015 ] } },
{ "type": "Feature", "properties": { "P29_001": "37324", "P29_002": "H237332400010", "P29_003": "16015", "P29_004": "一般社団法人小豆郡医師会立小豆島准看護学院", "P29_005": "香川県小豆郡小豆島町片城甲44-341", "P29_006": "4", "P29_007": "0", "P29_008": "00", "P29_009": null }, "geometry": { "type": "Point", "coordinates": [ 134.308555572391839, 34.480132502756902 ] } },
{ "type": "Feature", "properties": { "P29_001": "37341", "P29_002": "H237334100019", "P29_003": "16015", "P29_004": "一般社団法人木田地区医師会附属准看護学院", "P29_005": "香川県木田郡三木町池戸2991-2", "P29_006": "4", "P29_007": "0", "P29_008": "00", "P29_009": null }, "geometry": { "type": "Point", "coordinates": [ 134.123119189139459, 34.27322480312138 ] } }
]
}
