{
"type": "FeatureCollection",
"name": "geo_37_小規模多機能型居宅介護",
"crs": { "type": "name", "properties": { "name": "urn:ogc:def:crs:OGC:1.3:CRS84" } },
"features": [
{ "type": "Feature", "properties": { "内容": "多機能型施設　邑【小規模多機能型居宅介護】香川県高松市前田西町１０８０－１８", "url": "https://www.kaigokensaku.mhlw.go.jp/37/index.php?action_kouhyou_detail_004_kani=true&JigyosyoCd=3790100014-00&ServiceCd=730&Type=search", "url2": "http://www.syurikai.com/" }, "geometry": { "type": "Point", "coordinates": [ 134.0994981, 34.2964847 ] } },
{ "type": "Feature", "properties": { "内容": "小規模多機能型居宅介護事業所らく楽国分寺【小規模多機能型居宅介護】香川県高松市国分寺町柏原1059番地2", "url": "https://www.kaigokensaku.mhlw.go.jp/37/index.php?action_kouhyou_detail_004_kani=true&JigyosyoCd=3790100188-00&ServiceCd=730&Type=search", "url2": "http://www.rakuraku-group.jp/" }, "geometry": { "type": "Point", "coordinates": [ 133.948295199999961, 34.2931226 ] } },
{ "type": "Feature", "properties": { "内容": "多機能ホームひまわり【小規模多機能型居宅介護】香川県高松市香川町大野901-1", "url": "https://www.kaigokensaku.mhlw.go.jp/37/index.php?action_kouhyou_detail_004_kani=true&JigyosyoCd=3790100246-00&ServiceCd=730&Type=search", "url2": null }, "geometry": { "type": "Point", "coordinates": [ 134.02729260000001, 34.2643986 ] } },
{ "type": "Feature", "properties": { "内容": "小規模多機能型施設　侶【小規模多機能型居宅介護】高松市牟礼町原２１６－５", "url": "https://www.kaigokensaku.mhlw.go.jp/37/index.php?action_kouhyou_detail_004_kani=true&JigyosyoCd=3790100030-00&ServiceCd=730&Type=search", "url2": null }, "geometry": { "type": "Point", "coordinates": [ 134.159974799999986, 34.3209578 ] } },
{ "type": "Feature", "properties": { "内容": "やまぶき小規模多機能型居宅介護事業所【小規模多機能型居宅介護】高松市三谷町316番地", "url": "https://www.kaigokensaku.mhlw.go.jp/37/index.php?action_kouhyou_detail_004_kani=true&JigyosyoCd=3790100204-00&ServiceCd=730&Type=search", "url2": "https://www.hatsukikai.or.jp" }, "geometry": { "type": "Point", "coordinates": [ 134.07556790000001, 34.277295200000019 ] } },
{ "type": "Feature", "properties": { "内容": "ケアサポート長谷川（中央東）【小規模多機能型居宅介護】高松市福岡町２丁目１６―６　福岡事業所１階・２階", "url": "https://www.kaigokensaku.mhlw.go.jp/37/index.php?action_kouhyou_detail_004_kani=true&JigyosyoCd=3790100048-00&ServiceCd=730&Type=search", "url2": "http://www.careservice-hasegawa.jp" }, "geometry": { "type": "Point", "coordinates": [ 134.066342369311542, 34.345287482962462 ] } },
{ "type": "Feature", "properties": { "内容": "ケアサポート長谷川（古高松）【小規模多機能型居宅介護】高松市新田町甲2181-1", "url": "https://www.kaigokensaku.mhlw.go.jp/37/index.php?action_kouhyou_detail_004_kani=true&JigyosyoCd=3790100139-00&ServiceCd=730&Type=search", "url2": "https://.careservice-hasegawa.jp" }, "geometry": { "type": "Point", "coordinates": [ 134.10224075463114, 34.316581078764074 ] } },
{ "type": "Feature", "properties": { "内容": "香川県高齢者生活協同組合「ひだまり川島」【小規模多機能型居宅介護】香川県高松市川島東町925-1", "url": "https://www.kaigokensaku.mhlw.go.jp/37/index.php?action_kouhyou_detail_004_kani=true&JigyosyoCd=3790100055-00&ServiceCd=730&Type=search", "url2": "https://kawashima.100-life.net/" }, "geometry": { "type": "Point", "coordinates": [ 134.088216399999965, 34.2741627 ] } },
{ "type": "Feature", "properties": { "内容": "小規模多機能ホームたんぽぽの家【小規模多機能型居宅介護】香川県高松市木太町1539番地8", "url": "https://www.kaigokensaku.mhlw.go.jp/37/index.php?action_kouhyou_detail_004_kani=true&JigyosyoCd=3790100212-00&ServiceCd=730&Type=search", "url2": "https://www.tanpoponoie.jp" }, "geometry": { "type": "Point", "coordinates": [ 134.0749922, 34.3215539 ] } },
{ "type": "Feature", "properties": { "内容": "小規模多機能型居宅介護えんざ【小規模多機能型居宅介護】香川県高松市西山崎町196番地2", "url": "https://www.kaigokensaku.mhlw.go.jp/37/index.php?action_kouhyou_detail_004_kani=true&JigyosyoCd=3790100071-00&ServiceCd=730&Type=search", "url2": "http://www.koutouen.com/enza/" }, "geometry": { "type": "Point", "coordinates": [ 134.002988100000039, 34.284787500000014 ] } },
{ "type": "Feature", "properties": { "内容": "小規模多機能施設　富士【小規模多機能型居宅介護】高松市屋島西町２２７７－４", "url": "https://www.kaigokensaku.mhlw.go.jp/37/index.php?action_kouhyou_detail_004_kani=true&JigyosyoCd=3790100113-00&ServiceCd=730&Type=search", "url2": "lucksay@violin.ocn.ne.jp" }, "geometry": { "type": "Point", "coordinates": [ 134.089300699999967, 34.3584694 ] } },
{ "type": "Feature", "properties": { "内容": "在宅サポートセンターハピネス【小規模多機能型居宅介護】香川県高松市中山町772番地1", "url": "https://www.kaigokensaku.mhlw.go.jp/37/index.php?action_kouhyou_detail_004_kani=true&JigyosyoCd=3790100089-00&ServiceCd=730&Type=search", "url2": "http://www.shinboukai.net/" }, "geometry": { "type": "Point", "coordinates": [ 133.973047100000031, 34.3568903 ] } },
{ "type": "Feature", "properties": { "内容": "多機能型ホーム　綾歌の太陽【小規模多機能型居宅介護】香川県丸亀市綾歌町岡田東９０１番地１", "url": "https://www.kaigokensaku.mhlw.go.jp/37/index.php?action_kouhyou_detail_004_kani=true&JigyosyoCd=3790200178-00&ServiceCd=730&Type=search", "url2": "http://www.ayautanotaiyou。ｊｐ" }, "geometry": { "type": "Point", "coordinates": [ 133.86407650000001, 34.2350627 ] } },
{ "type": "Feature", "properties": { "内容": "小規模多機能ホームきらめき郡家【小規模多機能型居宅介護】丸亀市郡家町字大林下3648‐1", "url": "https://www.kaigokensaku.mhlw.go.jp/37/index.php?action_kouhyou_detail_004_kani=true&JigyosyoCd=3790200186-00&ServiceCd=730&Type=search", "url2": "http://www.junshinkai.com/" }, "geometry": { "type": "Point", "coordinates": [ 133.8112046, 34.2660646 ] } },
{ "type": "Feature", "properties": { "内容": "セントケア丸亀城坤【小規模多機能型居宅介護】香川県丸亀市今津町342番地5", "url": "https://www.kaigokensaku.mhlw.go.jp/37/index.php?action_kouhyou_detail_004_kani=true&JigyosyoCd=3790200137-00&ServiceCd=730&Type=search", "url2": "http://www.saint-care.com" }, "geometry": { "type": "Point", "coordinates": [ 133.78482669999994, 34.2795629 ] } },
{ "type": "Feature", "properties": { "内容": "小規模多機能事業所まほろば【小規模多機能型居宅介護】坂出市西庄町88番地1", "url": "https://www.kaigokensaku.mhlw.go.jp/37/index.php?action_kouhyou_detail_004_kani=true&JigyosyoCd=3790300127-00&ServiceCd=730&Type=search", "url2": "http://ryokusei.byoinnavi.jp" }, "geometry": { "type": "Point", "coordinates": [ 133.881298004632498, 34.320062313382195 ] } },
{ "type": "Feature", "properties": { "内容": "小規模多機能型居宅介護　緑の家【小規模多機能型居宅介護】香川県坂出市寿町一丁目3番1号", "url": "https://www.kaigokensaku.mhlw.go.jp/37/index.php?action_kouhyou_detail_004_kani=true&JigyosyoCd=3790300036-00&ServiceCd=730&Type=search", "url2": "https://nagai-group.com/" }, "geometry": { "type": "Point", "coordinates": [ 133.8502672, 34.313709700000025 ] } },
{ "type": "Feature", "properties": { "内容": "小規模多機能型居宅介護事業所　オリーブの花【小規模多機能型居宅介護】香川県坂出市大屋冨町３１００番地４０", "url": "https://www.kaigokensaku.mhlw.go.jp/37/index.php?action_kouhyou_detail_004_kani=true&JigyosyoCd=3790300119-00&ServiceCd=730&Type=search", "url2": "https://www.shouju.or.jp/" }, "geometry": { "type": "Point", "coordinates": [ 133.89385029999994, 34.3565198 ] } },
{ "type": "Feature", "properties": { "内容": "小規模多機能まおの里【小規模多機能型居宅介護】善通寺市大麻町2080番地1", "url": "https://www.kaigokensaku.mhlw.go.jp/37/index.php?action_kouhyou_detail_004_kani=true&JigyosyoCd=3790400026-00&ServiceCd=730&Type=search", "url2": "https://www.osugi-mao.jp" }, "geometry": { "type": "Point", "coordinates": [ 133.800043, 34.2154672 ] } },
{ "type": "Feature", "properties": { "内容": "小規模多機能ホーム　ねんりん【小規模多機能型居宅介護】香川県善通寺市中村町８４９", "url": "https://www.kaigokensaku.mhlw.go.jp/37/index.php?action_kouhyou_detail_004_kani=true&JigyosyoCd=3790400075-00&ServiceCd=730&Type=search", "url2": "http://www.junshinkai.com/" }, "geometry": { "type": "Point", "coordinates": [ 133.764371, 34.244897 ] } },
{ "type": "Feature", "properties": { "内容": "小規模多機能くれよんルーム【小規模多機能型居宅介護】香川県善通寺市原田町1565番地1", "url": "https://www.kaigokensaku.mhlw.go.jp/37/index.php?action_kouhyou_detail_004_kani=true&JigyosyoCd=3790400042-00&ServiceCd=730&Type=search", "url2": "http://www.senju-group.or.jp" }, "geometry": { "type": "Point", "coordinates": [ 133.7872324, 34.2540493 ] } },
{ "type": "Feature", "properties": { "内容": "セントケア観音寺琴弾【小規模多機能型居宅介護】香川県観音寺市三本松町二丁目2番9号", "url": "https://www.kaigokensaku.mhlw.go.jp/37/index.php?action_kouhyou_detail_004_kani=true&JigyosyoCd=3790500098-00&ServiceCd=730&Type=search", "url2": null }, "geometry": { "type": "Point", "coordinates": [ 133.644871200000011, 34.1205727 ] } },
{ "type": "Feature", "properties": { "内容": "小規模多機能型居宅介護ホーム幸楽苑【小規模多機能型居宅介護】香川県さぬき市造田是弘618-6", "url": "https://www.kaigokensaku.mhlw.go.jp/37/index.php?action_kouhyou_detail_004_kani=true&JigyosyoCd=3790600013-00&ServiceCd=730&Type=search", "url2": "https://kourakuen-iris.co.jp" }, "geometry": { "type": "Point", "coordinates": [ 134.179641, 34.2809308 ] } },
{ "type": "Feature", "properties": { "内容": "小規模多機能型居宅介護施設　順【小規模多機能型居宅介護】香川県さぬき市小田字浦1687", "url": "https://www.kaigokensaku.mhlw.go.jp/37/index.php?action_kouhyou_detail_004_kani=true&JigyosyoCd=3790600047-00&ServiceCd=730&Type=search", "url2": "syurikai.com" }, "geometry": { "type": "Point", "coordinates": [ 134.243162799999936, 34.3324996 ] } },
{ "type": "Feature", "properties": { "内容": "小規模多機能型居宅介護事業所駅前やすらぎ処【小規模多機能型居宅介護】香川県東かがわ市松原656番地1", "url": "https://www.kaigokensaku.mhlw.go.jp/37/index.php?action_kouhyou_detail_004_kani=true&JigyosyoCd=3790700037-00&ServiceCd=730&Type=search", "url2": null }, "geometry": { "type": "Point", "coordinates": [ 134.366883499999972, 34.2438559 ] } },
{ "type": "Feature", "properties": { "内容": "小規模多機能ホーム　せとうち三野の家【小規模多機能型居宅介護】香川県三豊市三野町吉津甲605-2", "url": "https://www.kaigokensaku.mhlw.go.jp/37/index.php?action_kouhyou_detail_004_kani=true&JigyosyoCd=3790800043-00&ServiceCd=730&Type=search", "url2": "http://setouchi-fukushi.com/" }, "geometry": { "type": "Point", "coordinates": [ 133.697506400000066, 34.2000175 ] } },
{ "type": "Feature", "properties": { "内容": "小規模多機能ホーム　あいあい【小規模多機能型居宅介護】香川県三豊市仁尾町仁尾辛４２－１８", "url": "https://www.kaigokensaku.mhlw.go.jp/37/index.php?action_kouhyou_detail_004_kani=true&JigyosyoCd=3790800027-00&ServiceCd=730&Type=search", "url2": "http://www.junsinkai.com/" }, "geometry": { "type": "Point", "coordinates": [ 133.645397399999979, 34.1929966 ] } },
{ "type": "Feature", "properties": { "内容": "小規模多機能ホーム　湯ったり【小規模多機能型居宅介護】香川県三豊市高瀬町上高瀬字原４２９－５", "url": "https://www.kaigokensaku.mhlw.go.jp/37/index.php?action_kouhyou_detail_004_kani=true&JigyosyoCd=3790800068-00&ServiceCd=730&Type=search", "url2": "http://www.junshinkai.com/" }, "geometry": { "type": "Point", "coordinates": [ 133.719996300000048, 34.1940733 ] } },
{ "type": "Feature", "properties": { "内容": "小規模多機能型居宅介護施設はまひるがお四海【小規模多機能型居宅介護】香川県小豆郡土庄町伊喜末892番地", "url": "https://www.kaigokensaku.mhlw.go.jp/37/index.php?action_kouhyou_detail_004_kani=true&JigyosyoCd=3791200102-00&ServiceCd=730&Type=search", "url2": "http://hamahirugao.jp" }, "geometry": { "type": "Point", "coordinates": [ 134.167190136152499, 34.506027661722143 ] } },
{ "type": "Feature", "properties": { "内容": "はまひるがお北浦【小規模多機能型居宅介護】香川県小豆郡土庄町甲見目甲１７３９－５", "url": "https://www.kaigokensaku.mhlw.go.jp/37/index.php?action_kouhyou_detail_004_kani=true&JigyosyoCd=3791200078-00&ServiceCd=730&Type=search", "url2": null }, "geometry": { "type": "Point", "coordinates": [ 134.228738337492359, 34.525476022018331 ] } },
{ "type": "Feature", "properties": { "内容": "小規模多機能型居宅介護施設　はまひるがお大部【小規模多機能型居宅介護】香川県小豆郡土庄町大部甲2018-7", "url": "https://www.kaigokensaku.mhlw.go.jp/37/index.php?action_kouhyou_detail_004_kani=true&JigyosyoCd=3791200128-00&ServiceCd=730&Type=search", "url2": "http://hamahirugao.jp/publics/index/28/" }, "geometry": { "type": "Point", "coordinates": [ 134.2818575, 34.5461448 ] } },
{ "type": "Feature", "properties": { "内容": "小規模多機能型居宅介護施設　はまひるがお【小規模多機能型居宅介護】小豆郡小豆島町蒲野1821番地", "url": "https://www.kaigokensaku.mhlw.go.jp/37/index.php?action_kouhyou_detail_004_kani=true&JigyosyoCd=3791200037-00&ServiceCd=730&Type=search", "url2": null }, "geometry": { "type": "Point", "coordinates": [ 134.246716900000024, 34.4348804 ] } },
{ "type": "Feature", "properties": { "内容": "はまひるがお坂手【小規模多機能型居宅介護】香川県小豆郡小豆島町坂手甲798", "url": "https://www.kaigokensaku.mhlw.go.jp/37/index.php?action_kouhyou_detail_004_kani=true&JigyosyoCd=3791200094-00&ServiceCd=730&Type=search", "url2": "https://hamahirugao.jp" }, "geometry": { "type": "Point", "coordinates": [ 134.322065800000018, 34.4562733 ] } },
{ "type": "Feature", "properties": { "内容": "小規模多機能型居宅介護事業　サンリゾート【小規模多機能型居宅介護】香川県小豆郡小豆島町蒲生甲３９７－２", "url": "https://www.kaigokensaku.mhlw.go.jp/37/index.php?action_kouhyou_detail_004_kani=true&JigyosyoCd=3791200029-00&ServiceCd=730&Type=search", "url2": "http://www.sunshine-kai.com/" }, "geometry": { "type": "Point", "coordinates": [ 134.215639099999947, 34.4821785 ] } },
{ "type": "Feature", "properties": { "内容": "小規模多機能型居宅介護施設　はまひるがお福田【小規模多機能型居宅介護】香川県小豆郡小豆島町福田甲575-1", "url": "https://www.kaigokensaku.mhlw.go.jp/37/index.php?action_kouhyou_detail_004_kani=true&JigyosyoCd=3791200045-00&ServiceCd=730&Type=search", "url2": null }, "geometry": { "type": "Point", "coordinates": [ 134.341651700000057, 34.5438004 ] } },
{ "type": "Feature", "properties": { "内容": "小規模多機能型居宅介護綾川【小規模多機能型居宅介護】香川県綾歌郡綾川町羽床上788番地1", "url": "https://www.kaigokensaku.mhlw.go.jp/37/index.php?action_kouhyou_detail_004_kani=true&JigyosyoCd=3791500030-00&ServiceCd=730&Type=search", "url2": "http://www.ayagawa-shakyo.or.jp/" }, "geometry": { "type": "Point", "coordinates": [ 133.929358, 34.224919 ] } },
{ "type": "Feature", "properties": { "内容": "小規模多機能型居宅介護　サンライズこんぴら【小規模多機能型居宅介護】香川県仲多度郡琴平町167番地", "url": "https://www.kaigokensaku.mhlw.go.jp/37/index.php?action_kouhyou_detail_004_kani=true&JigyosyoCd=3791600046-00&ServiceCd=730&Type=search", "url2": null }, "geometry": { "type": "Point", "coordinates": [ 133.822692412494661, 34.189207485785658 ] } },
{ "type": "Feature", "properties": { "内容": "小規模多機能　青い鳥【小規模多機能型居宅介護】香川県仲多度郡多度津町葛原451-1", "url": "https://www.kaigokensaku.mhlw.go.jp/37/index.php?action_kouhyou_detail_004_kani=true&JigyosyoCd=3791600053-00&ServiceCd=730&Type=search", "url2": null }, "geometry": { "type": "Point", "coordinates": [ 133.7662113, 34.2534722 ] } }
]
}
