{
"type": "FeatureCollection",
"name": "geo_37_幼稚園",
"crs": { "type": "name", "properties": { "name": "urn:ogc:def:crs:EPSG::6668" } },
"features": [
{ "type": "Feature", "properties": { "P29_001": "37203", "P29_002": "A137110000010", "P29_003": "16011", "P29_004": "香川大学教育学部附属幼稚園", "P29_005": "香川県坂出市文京町1-9-4", "P29_006": "1", "P29_007": "0", "P29_008": "00", "P29_009": null }, "geometry": { "type": "Point", "coordinates": [ 133.851284995929461, 34.311425001063576 ] } },
{ "type": "Feature", "properties": { "P29_001": "37201", "P29_002": "A137220100016", "P29_003": "16011", "P29_004": "高松市立前田幼稚園", "P29_005": "香川県高松市前田東町788-1", "P29_006": "3", "P29_007": "0", "P29_008": "00", "P29_009": null }, "geometry": { "type": "Point", "coordinates": [ 134.113887813081362, 34.296238570431996 ] } },
{ "type": "Feature", "properties": { "P29_001": "37201", "P29_002": "A137220100025", "P29_003": "16011", "P29_004": "高松市立川添幼稚園", "P29_005": "香川県高松市東山崎町601", "P29_006": "3", "P29_007": "0", "P29_008": "00", "P29_009": null }, "geometry": { "type": "Point", "coordinates": [ 134.094196288136658, 34.306802420286694 ] } },
{ "type": "Feature", "properties": { "P29_001": "37201", "P29_002": "A137220100034", "P29_003": "16011", "P29_004": "高松市立三渓幼稚園", "P29_005": "香川県高松市三谷町2316-2", "P29_006": "3", "P29_007": "0", "P29_008": "00", "P29_009": null }, "geometry": { "type": "Point", "coordinates": [ 134.070320378482506, 34.275979096543374 ] } },
{ "type": "Feature", "properties": { "P29_001": "37201", "P29_002": "A137220100043", "P29_003": "16011", "P29_004": "高松市立香西幼稚園", "P29_005": "香川県高松市香西西町59-1", "P29_006": "3", "P29_007": "0", "P29_008": "00", "P29_009": null }, "geometry": { "type": "Point", "coordinates": [ 133.996729995450579, 34.345908003413115 ] } },
{ "type": "Feature", "properties": { "P29_001": "37201", "P29_002": "A137220100052", "P29_003": "16011", "P29_004": "高松市立一宮幼稚園", "P29_005": "香川県高松市一宮町1233-2", "P29_006": "3", "P29_007": "0", "P29_008": "00", "P29_009": null }, "geometry": { "type": "Point", "coordinates": [ 134.024159295905974, 34.291806849356085 ] } },
{ "type": "Feature", "properties": { "P29_001": "37201", "P29_002": "A137220100061", "P29_003": "16011", "P29_004": "高松市立多肥幼稚園", "P29_005": "香川県高松市多肥上町990-2", "P29_006": "3", "P29_007": "0", "P29_008": "00", "P29_009": null }, "geometry": { "type": "Point", "coordinates": [ 134.051707170154657, 34.292417899198767 ] } },
{ "type": "Feature", "properties": { "P29_001": "37201", "P29_002": "A137220100070", "P29_003": "16011", "P29_004": "高松市立川岡幼稚園", "P29_005": "香川県高松市川部町524-3", "P29_006": "3", "P29_007": "0", "P29_008": "00", "P29_009": null }, "geometry": { "type": "Point", "coordinates": [ 134.008162996344026, 34.268118999029994 ] } },
{ "type": "Feature", "properties": { "P29_001": "37201", "P29_002": "A137220100089", "P29_003": "16011", "P29_004": "高松市立円座幼稚園", "P29_005": "香川県高松市円座町125-2", "P29_006": "3", "P29_007": "0", "P29_008": "00", "P29_009": null }, "geometry": { "type": "Point", "coordinates": [ 134.003176002483428, 34.285747997302153 ] } },
{ "type": "Feature", "properties": { "P29_001": "37201", "P29_002": "A137220100098", "P29_003": "16011", "P29_004": "高松市立檀紙幼稚園", "P29_005": "香川県高松市御厩町776-1", "P29_006": "3", "P29_007": "0", "P29_008": "00", "P29_009": null }, "geometry": { "type": "Point", "coordinates": [ 133.995116999527852, 34.300935003416541 ] } },
{ "type": "Feature", "properties": { "P29_001": "37201", "P29_002": "A137220100105", "P29_003": "16011", "P29_004": "高松市立弦打幼稚園", "P29_005": "香川県高松市鶴市町360", "P29_006": "3", "P29_007": "0", "P29_008": "00", "P29_009": null }, "geometry": { "type": "Point", "coordinates": [ 134.005089003935979, 34.327708003327196 ] } },
{ "type": "Feature", "properties": { "P29_001": "37201", "P29_002": "A137220100114", "P29_003": "16011", "P29_004": "高松市立鬼無幼稚園", "P29_005": "香川県高松市鬼無町佐藤128-1", "P29_006": "3", "P29_007": "0", "P29_008": "00", "P29_009": null }, "geometry": { "type": "Point", "coordinates": [ 133.992836004721909, 34.328046002082914 ] } },
{ "type": "Feature", "properties": { "P29_001": "37201", "P29_002": "A137220100123", "P29_003": "16011", "P29_004": "高松市立木太幼稚園", "P29_005": "香川県高松市木太町3901-1", "P29_006": "3", "P29_007": "0", "P29_008": "00", "P29_009": null }, "geometry": { "type": "Point", "coordinates": [ 134.076558001253801, 34.322384000587405 ] } },
{ "type": "Feature", "properties": { "P29_001": "37201", "P29_002": "A137220100141", "P29_003": "16011", "P29_004": "高松市立春日幼稚園", "P29_005": "香川県高松市春日町744", "P29_006": "3", "P29_007": "0", "P29_008": "00", "P29_009": null }, "geometry": { "type": "Point", "coordinates": [ 134.091397178794864, 34.325769187080631 ] } },
{ "type": "Feature", "properties": { "P29_001": "37201", "P29_002": "A137220100150", "P29_003": "16011", "P29_004": "高松市立木太北部幼稚園", "P29_005": "香川県高松市木太町2604-5", "P29_006": "3", "P29_007": "0", "P29_008": "00", "P29_009": null }, "geometry": { "type": "Point", "coordinates": [ 134.079295287209305, 34.336203053233412 ] } },
{ "type": "Feature", "properties": { "P29_001": "37201", "P29_002": "A137220100169", "P29_003": "16011", "P29_004": "高松市立栗山幼稚園", "P29_005": "香川県高松市牟礼町牟礼3028", "P29_006": "3", "P29_007": "0", "P29_008": "00", "P29_009": null }, "geometry": { "type": "Point", "coordinates": [ 134.126707001343391, 34.350429004308729 ] } },
{ "type": "Feature", "properties": { "P29_001": "37201", "P29_002": "A137220100178", "P29_003": "16011", "P29_004": "高松市立田井幼稚園", "P29_005": "香川県高松市牟礼町牟礼1243-2", "P29_006": "3", "P29_007": "0", "P29_008": "00", "P29_009": null }, "geometry": { "type": "Point", "coordinates": [ 134.137112005996897, 34.34436000364903 ] } },
{ "type": "Feature", "properties": { "P29_001": "37201", "P29_002": "A137220100187", "P29_003": "16011", "P29_004": "高松市立大町幼稚園", "P29_005": "香川県高松市牟礼町大町605-1", "P29_006": "3", "P29_007": "0", "P29_008": "00", "P29_009": null }, "geometry": { "type": "Point", "coordinates": [ 134.148384529387442, 34.33992339365151 ] } },
{ "type": "Feature", "properties": { "P29_001": "37201", "P29_002": "A137220100196", "P29_003": "16011", "P29_004": "高松市立大野幼稚園", "P29_005": "香川県高松市香川町大野1331-1", "P29_006": "3", "P29_007": "0", "P29_008": "00", "P29_009": null }, "geometry": { "type": "Point", "coordinates": [ 134.024324298416019, 34.267390155824629 ] } },
{ "type": "Feature", "properties": { "P29_001": "37201", "P29_002": "A137220100212", "P29_003": "16011", "P29_004": "高松市立国分寺北部幼稚園", "P29_005": "香川県高松市国分寺町新居1870-2", "P29_006": "3", "P29_007": "0", "P29_008": "00", "P29_009": null }, "geometry": { "type": "Point", "coordinates": [ 133.963484001803465, 34.306976001579208 ] } },
{ "type": "Feature", "properties": { "P29_001": "37201", "P29_002": "A137220100221", "P29_003": "16011", "P29_004": "高松市立国分寺南部幼稚園", "P29_005": "香川県高松市国分寺町福家甲3123-1", "P29_006": "3", "P29_007": "0", "P29_008": "00", "P29_009": null }, "geometry": { "type": "Point", "coordinates": [ 133.961122000949047, 34.285301000251984 ] } },
{ "type": "Feature", "properties": { "P29_001": "37202", "P29_002": "A137220200015", "P29_003": "16011", "P29_004": "丸亀市立西幼稚園", "P29_005": "香川県丸亀市土居町3-9-27", "P29_006": "3", "P29_007": "0", "P29_008": "00", "P29_009": null }, "geometry": { "type": "Point", "coordinates": [ 133.802073343205166, 34.293411201112669 ] } },
{ "type": "Feature", "properties": { "P29_001": "37202", "P29_002": "A137220200024", "P29_003": "16011", "P29_004": "丸亀市立城東幼稚園", "P29_005": "香川県丸亀市土器町西4-668", "P29_006": "3", "P29_007": "0", "P29_008": "00", "P29_009": null }, "geometry": { "type": "Point", "coordinates": [ 133.813364881355085, 34.281780684438488 ] } },
{ "type": "Feature", "properties": { "P29_001": "37202", "P29_002": "A137220200033", "P29_003": "16011", "P29_004": "丸亀市立城坤幼稚園", "P29_005": "香川県丸亀市今津町278", "P29_006": "3", "P29_007": "0", "P29_008": "00", "P29_009": null }, "geometry": { "type": "Point", "coordinates": [ 133.783100092773736, 34.277111472184302 ] } },
{ "type": "Feature", "properties": { "P29_001": "37202", "P29_002": "A137220200042", "P29_003": "16011", "P29_004": "丸亀市立城辰幼稚園", "P29_005": "香川県丸亀市川西町南161", "P29_006": "3", "P29_007": "0", "P29_008": "00", "P29_009": null }, "geometry": { "type": "Point", "coordinates": [ 133.82945526475703, 34.25694752061991 ] } },
{ "type": "Feature", "properties": { "P29_001": "37202", "P29_002": "A137220200051", "P29_003": "16011", "P29_004": "丸亀市立本島幼稚園", "P29_005": "香川県丸亀市本島町泊34", "P29_006": "3", "P29_007": "0", "P29_008": "00", "P29_009": null }, "geometry": { "type": "Point", "coordinates": [ 133.783121998400418, 34.389385997702334 ] } },
{ "type": "Feature", "properties": { "P29_001": "37203", "P29_002": "A137220300014", "P29_003": "16011", "P29_004": "坂出市立林田幼稚園", "P29_005": "香川県坂出市林田町2191", "P29_006": "3", "P29_007": "0", "P29_008": "00", "P29_009": null }, "geometry": { "type": "Point", "coordinates": [ 133.89065368701705, 34.328006863851229 ] } },
{ "type": "Feature", "properties": { "P29_001": "37203", "P29_002": "A137220300023", "P29_003": "16011", "P29_004": "坂出市立加茂幼稚園", "P29_005": "香川県坂出市加茂町1099-1", "P29_006": "3", "P29_007": "0", "P29_008": "00", "P29_009": null }, "geometry": { "type": "Point", "coordinates": [ 133.909214996106442, 34.31159300477298 ] } },
{ "type": "Feature", "properties": { "P29_001": "37203", "P29_002": "A137220300032", "P29_003": "16011", "P29_004": "坂出市立瀬居幼稚園", "P29_005": "香川県坂出市番の州町17-5", "P29_006": "3", "P29_007": "0", "P29_008": "00", "P29_009": null }, "geometry": { "type": "Point", "coordinates": [ 133.856268829602925, 34.351590879924643 ] } },
{ "type": "Feature", "properties": { "P29_001": "37203", "P29_002": "A137220300069", "P29_003": "16011", "P29_004": "坂出市立坂出中央幼稚園", "P29_005": "香川県坂出市室町1-1-32", "P29_006": "3", "P29_007": "0", "P29_008": "00", "P29_009": null }, "geometry": { "type": "Point", "coordinates": [ 133.861877001758359, 34.314496997491631 ] } },
{ "type": "Feature", "properties": { "P29_001": "37204", "P29_002": "A137220400013", "P29_003": "16011", "P29_004": "善通寺市立中央幼稚園", "P29_005": "香川県善通寺市文京町4-5-3", "P29_006": "3", "P29_007": "0", "P29_008": "00", "P29_009": null }, "geometry": { "type": "Point", "coordinates": [ 133.779253505572456, 34.225143009204139 ] } },
{ "type": "Feature", "properties": { "P29_001": "37204", "P29_002": "A137220400022", "P29_003": "16011", "P29_004": "善通寺市立東部幼稚園", "P29_005": "香川県善通寺市稲木町380-3", "P29_006": "3", "P29_007": "0", "P29_008": "00", "P29_009": null }, "geometry": { "type": "Point", "coordinates": [ 133.783986225944119, 34.236040921821669 ] } },
{ "type": "Feature", "properties": { "P29_001": "37204", "P29_002": "A137220400031", "P29_003": "16011", "P29_004": "善通寺市立西部幼稚園", "P29_005": "香川県善通寺市善通寺町1146", "P29_006": "3", "P29_007": "0", "P29_008": "00", "P29_009": null }, "geometry": { "type": "Point", "coordinates": [ 133.772782170193807, 34.220074214478835 ] } },
{ "type": "Feature", "properties": { "P29_001": "37204", "P29_002": "A137220400040", "P29_003": "16011", "P29_004": "善通寺市立南部幼稚園", "P29_005": "香川県善通寺市生野町2880-1", "P29_006": "3", "P29_007": "0", "P29_008": "00", "P29_009": null }, "geometry": { "type": "Point", "coordinates": [ 133.792346801577196, 34.21502518641001 ] } },
{ "type": "Feature", "properties": { "P29_001": "37204", "P29_002": "A137220400059", "P29_003": "16011", "P29_004": "善通寺市立竜川幼稚園", "P29_005": "香川県善通寺市原田町290", "P29_006": "3", "P29_007": "0", "P29_008": "00", "P29_009": null }, "geometry": { "type": "Point", "coordinates": [ 133.792538985723695, 34.248195575607667 ] } },
{ "type": "Feature", "properties": { "P29_001": "37204", "P29_002": "A137220400068", "P29_003": "16011", "P29_004": "善通寺市立与北幼稚園", "P29_005": "香川県善通寺市与北町1240-1", "P29_006": "3", "P29_007": "0", "P29_008": "00", "P29_009": null }, "geometry": { "type": "Point", "coordinates": [ 133.808085321418048, 34.233498845742808 ] } },
{ "type": "Feature", "properties": { "P29_001": "37204", "P29_002": "A137220400077", "P29_003": "16011", "P29_004": "善通寺市立筆岡幼稚園", "P29_005": "香川県善通寺市中村町1581-1", "P29_006": "3", "P29_007": "0", "P29_008": "00", "P29_009": null }, "geometry": { "type": "Point", "coordinates": [ 133.76524678525854, 34.238649475171108 ] } },
{ "type": "Feature", "properties": { "P29_001": "37204", "P29_002": "A137220400086", "P29_003": "16011", "P29_004": "善通寺市立吉原幼稚園", "P29_005": "香川県善通寺市吉原町1617", "P29_006": "3", "P29_007": "0", "P29_008": "00", "P29_009": null }, "geometry": { "type": "Point", "coordinates": [ 133.750937928204536, 34.229342786391967 ] } },
{ "type": "Feature", "properties": { "P29_001": "37205", "P29_002": "A137220500021", "P29_003": "16011", "P29_004": "観音寺市立観音寺中央幼稚園", "P29_005": "香川県観音寺市柞田町丙1566", "P29_006": "3", "P29_007": "0", "P29_008": "00", "P29_009": null }, "geometry": { "type": "Point", "coordinates": [ 133.662063726868951, 34.10860707166875 ] } },
{ "type": "Feature", "properties": { "P29_001": "37205", "P29_002": "A137220500049", "P29_003": "16011", "P29_004": "観音寺市立豊浜幼稚園", "P29_005": "香川県観音寺市豊浜町和田浜1000", "P29_006": "3", "P29_007": "0", "P29_008": "00", "P29_009": null }, "geometry": { "type": "Point", "coordinates": [ 133.644422529567038, 34.071541011062571 ] } },
{ "type": "Feature", "properties": { "P29_001": "37206", "P29_002": "A137220600011", "P29_003": "16011", "P29_004": "さぬき市立さぬき南幼稚園", "P29_005": "香川県さぬき市大川町富田中2939-1", "P29_006": "3", "P29_007": "0", "P29_008": "00", "P29_009": null }, "geometry": { "type": "Point", "coordinates": [ 134.234600001946063, 34.260136003971667 ] } },
{ "type": "Feature", "properties": { "P29_001": "37206", "P29_002": "A137220600020", "P29_003": "16011", "P29_004": "さぬき市立志度幼稚園", "P29_005": "香川県さぬき市志度3726-1", "P29_006": "3", "P29_007": "0", "P29_008": "00", "P29_009": null }, "geometry": { "type": "Point", "coordinates": [ 134.174377858999151, 34.312819786320844 ] } },
{ "type": "Feature", "properties": { "P29_001": "37206", "P29_002": "A137220600039", "P29_003": "16011", "P29_004": "さぬき市立さぬき北幼稚園", "P29_005": "香川県さぬき市鴨庄2949-3", "P29_006": "3", "P29_007": "0", "P29_008": "00", "P29_009": null }, "geometry": { "type": "Point", "coordinates": [ 134.205910003453113, 34.326083004318349 ] } },
{ "type": "Feature", "properties": { "P29_001": "37206", "P29_002": "A137220600048", "P29_003": "16011", "P29_004": "さぬき市立寒川幼稚園", "P29_005": "香川県さぬき市寒川町石田西384-1", "P29_006": "3", "P29_007": "0", "P29_008": "00", "P29_009": null }, "geometry": { "type": "Point", "coordinates": [ 134.202622502388351, 34.27600762681584 ] } },
{ "type": "Feature", "properties": { "P29_001": "37206", "P29_002": "A137220600057", "P29_003": "16011", "P29_004": "さぬき市立造田幼稚園", "P29_005": "香川県さぬき市造田是弘800-1", "P29_006": "3", "P29_007": "0", "P29_008": "00", "P29_009": null }, "geometry": { "type": "Point", "coordinates": [ 134.182709011721215, 34.284367086552187 ] } },
{ "type": "Feature", "properties": { "P29_001": "37206", "P29_002": "A137220600066", "P29_003": "16011", "P29_004": "さぬき市立長尾幼稚園", "P29_005": "香川県さぬき市長尾西914-1", "P29_006": "3", "P29_007": "0", "P29_008": "00", "P29_009": null }, "geometry": { "type": "Point", "coordinates": [ 134.175138998087533, 34.26256899973675 ] } },
{ "type": "Feature", "properties": { "P29_001": "37208", "P29_002": "A137220800019", "P29_003": "16011", "P29_004": "三豊市立上高瀬幼稚園", "P29_005": "香川県三豊市高瀬町上高瀬785-1", "P29_006": "3", "P29_007": "0", "P29_008": "00", "P29_009": null }, "geometry": { "type": "Point", "coordinates": [ 133.725411997565089, 34.19238900432606 ] } },
{ "type": "Feature", "properties": { "P29_001": "37208", "P29_002": "A137220800028", "P29_003": "16011", "P29_004": "三豊市立勝間幼稚園", "P29_005": "香川県三豊市高瀬町下勝間348-1", "P29_006": "3", "P29_007": "0", "P29_008": "00", "P29_009": null }, "geometry": { "type": "Point", "coordinates": [ 133.726461981063466, 34.174969178146092 ] } },
{ "type": "Feature", "properties": { "P29_001": "37208", "P29_002": "A137220800037", "P29_003": "16011", "P29_004": "三豊市立比地二幼稚園", "P29_005": "香川県三豊市高瀬町比地65", "P29_006": "3", "P29_007": "0", "P29_008": "00", "P29_009": null }, "geometry": { "type": "Point", "coordinates": [ 133.693234486107542, 34.180379148285503 ] } },
{ "type": "Feature", "properties": { "P29_001": "37208", "P29_002": "A137220800046", "P29_003": "16011", "P29_004": "三豊市立二ノ宮幼稚園", "P29_005": "香川県三豊市高瀬町佐股甲1508-1", "P29_006": "3", "P29_007": "0", "P29_008": "00", "P29_009": null }, "geometry": { "type": "Point", "coordinates": [ 133.741393997646128, 34.158106003596878 ] } },
{ "type": "Feature", "properties": { "P29_001": "37208", "P29_002": "A137220800055", "P29_003": "16011", "P29_004": "三豊市立麻幼稚園", "P29_005": "香川県三豊市高瀬町上麻3865", "P29_006": "3", "P29_007": "0", "P29_008": "00", "P29_009": null }, "geometry": { "type": "Point", "coordinates": [ 133.76855299868879, 34.175570999383744 ] } },
{ "type": "Feature", "properties": { "P29_001": "37208", "P29_002": "A137220800064", "P29_003": "16011", "P29_004": "三豊市立山本幼稚園", "P29_005": "香川県三豊市山本町大野423", "P29_006": "3", "P29_007": "0", "P29_008": "00", "P29_009": null }, "geometry": { "type": "Point", "coordinates": [ 133.727663845708122, 34.123574335056929 ] } },
{ "type": "Feature", "properties": { "P29_001": "37208", "P29_002": "A137220800073", "P29_003": "16011", "P29_004": "三豊市立大見幼稚園", "P29_005": "香川県三豊市三野町大見甲3478-1", "P29_006": "3", "P29_007": "0", "P29_008": "00", "P29_009": null }, "geometry": { "type": "Point", "coordinates": [ 133.713823160807152, 34.216511075317719 ] } },
{ "type": "Feature", "properties": { "P29_001": "37208", "P29_002": "A137220800082", "P29_003": "16011", "P29_004": "三豊市立下高瀬幼稚園", "P29_005": "香川県三豊市三野町下高瀬764", "P29_006": "3", "P29_007": "0", "P29_008": "00", "P29_009": null }, "geometry": { "type": "Point", "coordinates": [ 133.704299002133155, 34.202427002090687 ] } },
{ "type": "Feature", "properties": { "P29_001": "37208", "P29_002": "A137220800091", "P29_003": "16011", "P29_004": "三豊市立吉津幼稚園", "P29_005": "香川県三豊市三野町吉津乙1485-1", "P29_006": "3", "P29_007": "0", "P29_008": "00", "P29_009": null }, "geometry": { "type": "Point", "coordinates": [ 133.684317663633038, 34.201784844187578 ] } },
{ "type": "Feature", "properties": { "P29_001": "37208", "P29_002": "A137220800108", "P29_003": "16011", "P29_004": "三豊市立豊中幼稚園", "P29_005": "香川県三豊市豊中町上高野4025-1", "P29_006": "3", "P29_007": "0", "P29_008": "00", "P29_009": null }, "geometry": { "type": "Point", "coordinates": [ 133.69685686862897, 34.150294826536239 ] } },
{ "type": "Feature", "properties": { "P29_001": "37208", "P29_002": "A137220800117", "P29_003": "16011", "P29_004": "三豊市立松崎幼稚園", "P29_005": "香川県三豊市詫間町松崎424-1", "P29_006": "3", "P29_007": "0", "P29_008": "00", "P29_009": null }, "geometry": { "type": "Point", "coordinates": [ 133.69284967349887, 34.217435253293658 ] } },
{ "type": "Feature", "properties": { "P29_001": "37208", "P29_002": "A137220800126", "P29_003": "16011", "P29_004": "三豊市立詫間幼稚園", "P29_005": "香川県三豊市詫間町詫間3500-5", "P29_006": "3", "P29_007": "0", "P29_008": "00", "P29_009": null }, "geometry": { "type": "Point", "coordinates": [ 133.6663562747394, 34.225712104687432 ] } },
{ "type": "Feature", "properties": { "P29_001": "37208", "P29_002": "A137220800144", "P29_003": "16011", "P29_004": "三豊市立曽保幼稚園", "P29_005": "香川県三豊市仁尾町仁尾甲1090-1", "P29_006": "3", "P29_007": "0", "P29_008": "00", "P29_009": null }, "geometry": { "type": "Point", "coordinates": [ 133.650406261962019, 34.173653244188316 ] } },
{ "type": "Feature", "properties": { "P29_001": "37324", "P29_002": "A137232400018", "P29_003": "16011", "P29_004": "小豆島町立安田幼稚園", "P29_005": "香川県小豆郡小豆島町安田甲491-2", "P29_006": "3", "P29_007": "0", "P29_008": "00", "P29_009": null }, "geometry": { "type": "Point", "coordinates": [ 134.318839139916804, 34.483701918769874 ] } },
{ "type": "Feature", "properties": { "P29_001": "37324", "P29_002": "A137232400027", "P29_003": "16011", "P29_004": "小豆島町立苗羽幼稚園", "P29_005": "香川県小豆郡小豆島町苗羽甲2277", "P29_006": "3", "P29_007": "0", "P29_008": "00", "P29_009": null }, "geometry": { "type": "Point", "coordinates": [ 134.317082613867939, 34.469558691401865 ] } },
{ "type": "Feature", "properties": { "P29_001": "37324", "P29_002": "A137232400036", "P29_003": "16011", "P29_004": "小豆島町立旭幼稚園", "P29_005": "香川県小豆郡小豆島町橘甲450-1", "P29_006": "3", "P29_007": "0", "P29_008": "00", "P29_009": null }, "geometry": { "type": "Point", "coordinates": [ 134.341798794840003, 34.491709142404886 ] } },
{ "type": "Feature", "properties": { "P29_001": "37324", "P29_002": "A137232400045", "P29_003": "16011", "P29_004": "小豆島町立福田幼稚園", "P29_005": "香川県小豆郡小豆島町福田甲389", "P29_006": "3", "P29_007": "0", "P29_008": "00", "P29_009": null }, "geometry": { "type": "Point", "coordinates": [ 134.341289665425393, 34.542518710661774 ] } },
{ "type": "Feature", "properties": { "P29_001": "37324", "P29_002": "A137232400054", "P29_003": "16011", "P29_004": "小豆島町立池田幼稚園", "P29_005": "香川県小豆郡小豆島町蒲生甲1805-1", "P29_006": "3", "P29_007": "0", "P29_008": "00", "P29_009": null }, "geometry": { "type": "Point", "coordinates": [ 134.211207633826518, 34.483583953974758 ] } },
{ "type": "Feature", "properties": { "P29_001": "37324", "P29_002": "A137232400063", "P29_003": "16011", "P29_004": "小豆島町立星城幼稚園", "P29_005": "香川県小豆郡小豆島町草壁本町419-1", "P29_006": "3", "P29_007": "0", "P29_008": "00", "P29_009": null }, "geometry": { "type": "Point", "coordinates": [ 134.301922120864532, 34.483472978039273 ] } },
{ "type": "Feature", "properties": { "P29_001": "37341", "P29_002": "A137234100017", "P29_003": "16011", "P29_004": "三木町立ししの子幼稚園", "P29_005": "香川県木田郡三木町大字池戸1388-34", "P29_006": "3", "P29_007": "0", "P29_008": "00", "P29_009": null }, "geometry": { "type": "Point", "coordinates": [ 134.124875381139134, 34.288304059453566 ] } },
{ "type": "Feature", "properties": { "P29_001": "37341", "P29_002": "A137234100026", "P29_003": "16011", "P29_004": "三木町立田中幼稚園", "P29_005": "香川県木田郡三木町大字田中3894-1", "P29_006": "3", "P29_007": "0", "P29_008": "00", "P29_009": null }, "geometry": { "type": "Point", "coordinates": [ 134.121256000061436, 34.245191998042472 ] } },
{ "type": "Feature", "properties": { "P29_001": "37341", "P29_002": "A137234100035", "P29_003": "16011", "P29_004": "三木町立白山幼稚園", "P29_005": "香川県木田郡三木町井戸2206-1", "P29_006": "3", "P29_007": "0", "P29_008": "00", "P29_009": null }, "geometry": { "type": "Point", "coordinates": [ 134.155034997801209, 34.261372004850514 ] } },
{ "type": "Feature", "properties": { "P29_001": "37341", "P29_002": "A137234100044", "P29_003": "16011", "P29_004": "三木町立氷上幼稚園", "P29_005": "香川県木田郡三木町大字氷上2863", "P29_006": "3", "P29_007": "0", "P29_008": "00", "P29_009": null }, "geometry": { "type": "Point", "coordinates": [ 134.13486799573019, 34.253908000691936 ] } },
{ "type": "Feature", "properties": { "P29_001": "37386", "P29_002": "A137238600013", "P29_003": "16011", "P29_004": "宇多津町立宇多津幼稚園", "P29_005": "香川県綾歌郡宇多津町815", "P29_006": "3", "P29_007": "0", "P29_008": "00", "P29_009": null }, "geometry": { "type": "Point", "coordinates": [ 133.837130999221301, 34.303234003640675 ] } },
{ "type": "Feature", "properties": { "P29_001": "37404", "P29_002": "A137240400011", "P29_003": "16011", "P29_004": "多度津町立多度津幼稚園", "P29_005": "香川県仲多度郡多度津町栄町3-1-34-1", "P29_006": "3", "P29_007": "0", "P29_008": "00", "P29_009": null }, "geometry": { "type": "Point", "coordinates": [ 133.754970943456925, 34.270636252357122 ] } },
{ "type": "Feature", "properties": { "P29_001": "37404", "P29_002": "A137240400020", "P29_003": "16011", "P29_004": "多度津町立豊原幼稚園", "P29_005": "香川県仲多度郡多度津町大字葛原835-1", "P29_006": "3", "P29_007": "0", "P29_008": "00", "P29_009": null }, "geometry": { "type": "Point", "coordinates": [ 133.765716949358534, 34.264359191056457 ] } },
{ "type": "Feature", "properties": { "P29_001": "37404", "P29_002": "A137240400039", "P29_003": "16011", "P29_004": "多度津町立四箇幼稚園", "P29_005": "香川県仲多度郡多度津町大字三井440", "P29_006": "3", "P29_007": "0", "P29_008": "00", "P29_009": null }, "geometry": { "type": "Point", "coordinates": [ 133.754015687707209, 34.252218806233373 ] } },
{ "type": "Feature", "properties": { "P29_001": "37406", "P29_002": "A137240600019", "P29_003": "16011", "P29_004": "まんのう町立高篠こども園", "P29_005": "香川県仲多度郡まんのう町東高篠413-1", "P29_006": "3", "P29_007": "0", "P29_008": "00", "P29_009": null }, "geometry": { "type": "Point", "coordinates": [ 133.830805269206991, 34.215607515521803 ] } },
{ "type": "Feature", "properties": { "P29_001": "37406", "P29_002": "A137240600028", "P29_003": "16011", "P29_004": "まんのう町立四条こども園", "P29_005": "香川県仲多度郡まんのう町四條689", "P29_006": "3", "P29_007": "0", "P29_008": "00", "P29_009": null }, "geometry": { "type": "Point", "coordinates": [ 133.837917837738019, 34.193166931146671 ] } },
{ "type": "Feature", "properties": { "P29_001": "37201", "P29_002": "A137320100014", "P29_003": "16011", "P29_004": "高松中央高校幼稚園", "P29_005": "香川県高松市松島町1-14-8", "P29_006": "4", "P29_007": "0", "P29_008": "00", "P29_009": null }, "geometry": { "type": "Point", "coordinates": [ 134.060212554400749, 34.339944939096377 ] } },
{ "type": "Feature", "properties": { "P29_001": "37201", "P29_002": "A137320100023", "P29_003": "16011", "P29_004": "ときわ幼稚園", "P29_005": "香川県高松市飯田町138", "P29_006": "4", "P29_007": "0", "P29_008": "00", "P29_009": null }, "geometry": { "type": "Point", "coordinates": [ 133.994975156091641, 34.314856186173394 ] } },
{ "type": "Feature", "properties": { "P29_001": "37201", "P29_002": "A137320100032", "P29_003": "16011", "P29_004": "マリア幼稚園", "P29_005": "香川県高松市多肥下町14-3", "P29_006": "4", "P29_007": "0", "P29_008": "00", "P29_009": null }, "geometry": { "type": "Point", "coordinates": [ 134.050053999987114, 34.299672003471038 ] } },
{ "type": "Feature", "properties": { "P29_001": "37201", "P29_002": "A137320100041", "P29_003": "16011", "P29_004": "亀阜幼稚園", "P29_005": "香川県高松市宮脇町1-2-23", "P29_006": "4", "P29_007": "0", "P29_008": "00", "P29_009": null }, "geometry": { "type": "Point", "coordinates": [ 134.038259995064323, 34.33869099602056 ] } },
{ "type": "Feature", "properties": { "P29_001": "37201", "P29_002": "A137320100050", "P29_003": "16011", "P29_004": "高松幼稚園", "P29_005": "香川県高松市亀岡町1-6", "P29_006": "4", "P29_007": "0", "P29_008": "00", "P29_009": null }, "geometry": { "type": "Point", "coordinates": [ 134.042871003437227, 34.337601997271513 ] } },
{ "type": "Feature", "properties": { "P29_001": "37201", "P29_002": "A137320100069", "P29_003": "16011", "P29_004": "栗林幼稚園", "P29_005": "香川県高松市栗林町2-19-4", "P29_006": "4", "P29_007": "0", "P29_008": "00", "P29_009": null }, "geometry": { "type": "Point", "coordinates": [ 134.050660003399173, 34.330030001802299 ] } },
{ "type": "Feature", "properties": { "P29_001": "37201", "P29_002": "A137320100078", "P29_003": "16011", "P29_004": "屋島教会幼稚園", "P29_005": "香川県高松市屋島西町1392-7", "P29_006": "4", "P29_007": "0", "P29_008": "00", "P29_009": null }, "geometry": { "type": "Point", "coordinates": [ 134.095281475122562, 34.344949590306783 ] } },
{ "type": "Feature", "properties": { "P29_001": "37201", "P29_002": "A137320100087", "P29_003": "16011", "P29_004": "高松聖母幼稚園", "P29_005": "香川県高松市番町2-4-31", "P29_006": "4", "P29_007": "0", "P29_008": "00", "P29_009": null }, "geometry": { "type": "Point", "coordinates": [ 134.044501483425393, 34.343383084968558 ] } },
{ "type": "Feature", "properties": { "P29_001": "37201", "P29_002": "A137320100096", "P29_003": "16011", "P29_004": "高松聖ヤコブ幼稚園", "P29_005": "香川県高松市西宝町2-3-14", "P29_006": "4", "P29_007": "0", "P29_008": "00", "P29_009": null }, "geometry": { "type": "Point", "coordinates": [ 134.031196999566419, 34.339082995442716 ] } },
{ "type": "Feature", "properties": { "P29_001": "37201", "P29_002": "A137320100103", "P29_003": "16011", "P29_004": "二番丁幼稚園", "P29_005": "香川県高松市昭和町2-7-1", "P29_006": "4", "P29_007": "0", "P29_008": "00", "P29_009": null }, "geometry": { "type": "Point", "coordinates": [ 134.032001275164561, 34.343418942544766 ] } },
{ "type": "Feature", "properties": { "P29_001": "37201", "P29_002": "A137320100112", "P29_003": "16011", "P29_004": "青空幼稚園", "P29_005": "香川県高松市三条町498", "P29_006": "4", "P29_007": "0", "P29_008": "00", "P29_009": null }, "geometry": { "type": "Point", "coordinates": [ 134.045911998951084, 34.318492997973593 ] } },
{ "type": "Feature", "properties": { "P29_001": "37201", "P29_002": "A137320100121", "P29_003": "16011", "P29_004": "太田百華幼稚園", "P29_005": "香川県高松市太田上町932", "P29_006": "4", "P29_007": "0", "P29_008": "00", "P29_009": null }, "geometry": { "type": "Point", "coordinates": [ 134.04436879845386, 34.301421672723286 ] } },
{ "type": "Feature", "properties": { "P29_001": "37201", "P29_002": "A137320100130", "P29_003": "16011", "P29_004": "光華幼稚園", "P29_005": "香川県高松市瓦町1-13-8", "P29_006": "4", "P29_007": "0", "P29_008": "00", "P29_009": null }, "geometry": { "type": "Point", "coordinates": [ 134.052615069911838, 34.340627756263906 ] } },
{ "type": "Feature", "properties": { "P29_001": "37201", "P29_002": "A137320100149", "P29_003": "16011", "P29_004": "相愛幼稚園", "P29_005": "香川県高松市仏生山町甲546", "P29_006": "4", "P29_007": "0", "P29_008": "00", "P29_009": null }, "geometry": { "type": "Point", "coordinates": [ 134.047275188042931, 34.280106904034156 ] } },
{ "type": "Feature", "properties": { "P29_001": "37201", "P29_002": "A137320100158", "P29_003": "16011", "P29_004": "愛育幼稚園", "P29_005": "香川県高松市西ハゼ町310", "P29_006": "4", "P29_007": "0", "P29_008": "00", "P29_009": null }, "geometry": { "type": "Point", "coordinates": [ 134.03429537935898, 34.319073372043739 ] } },
{ "type": "Feature", "properties": { "P29_001": "37201", "P29_002": "A137320100167", "P29_003": "16011", "P29_004": "らく楽寺井幼稚園", "P29_005": "香川県高松市寺井町1369-4", "P29_006": "4", "P29_007": "0", "P29_008": "00", "P29_009": null }, "geometry": { "type": "Point", "coordinates": [ 134.02237958631801, 34.279834167050304 ] } },
{ "type": "Feature", "properties": { "P29_001": "37201", "P29_002": "A137320100176", "P29_003": "16011", "P29_004": "のぞみ幼稚園", "P29_005": "香川県高松市屋島中町30", "P29_006": "4", "P29_007": "0", "P29_008": "00", "P29_009": null }, "geometry": { "type": "Point", "coordinates": [ 134.107988770454142, 34.341370146973468 ] } },
{ "type": "Feature", "properties": { "P29_001": "37201", "P29_002": "A137320100185", "P29_003": "16011", "P29_004": "桜町聖母幼稚園", "P29_005": "香川県高松市桜町1-8-13", "P29_006": "4", "P29_007": "0", "P29_008": "00", "P29_009": null }, "geometry": { "type": "Point", "coordinates": [ 134.051402642426183, 34.330586688464962 ] } },
{ "type": "Feature", "properties": { "P29_001": "37201", "P29_002": "A137320100194", "P29_003": "16011", "P29_004": "勅使百華幼稚園", "P29_005": "香川県高松市勅使町955", "P29_006": "4", "P29_007": "0", "P29_008": "00", "P29_009": null }, "geometry": { "type": "Point", "coordinates": [ 134.021971250296758, 34.304464517162529 ] } },
{ "type": "Feature", "properties": { "P29_001": "37201", "P29_002": "A137320100201", "P29_003": "16011", "P29_004": "くにとう幼稚園", "P29_005": "香川県高松市伏石町1611", "P29_006": "4", "P29_007": "0", "P29_008": "00", "P29_009": null }, "geometry": { "type": "Point", "coordinates": [ 134.052716002681905, 34.322627999750296 ] } },
{ "type": "Feature", "properties": { "P29_001": "37201", "P29_002": "A137320100210", "P29_003": "16011", "P29_004": "やしま幼稚園", "P29_005": "香川県高松市屋島西町2477-4", "P29_006": "4", "P29_007": "0", "P29_008": "00", "P29_009": null }, "geometry": { "type": "Point", "coordinates": [ 134.091187190280067, 34.353854985340362 ] } },
{ "type": "Feature", "properties": { "P29_001": "37201", "P29_002": "A137320100229", "P29_003": "16011", "P29_004": "つくし幼稚園", "P29_005": "香川県高松市高松町1711-7", "P29_006": "4", "P29_007": "0", "P29_008": "00", "P29_009": null }, "geometry": { "type": "Point", "coordinates": [ 134.115132710255352, 34.333984065271302 ] } },
{ "type": "Feature", "properties": { "P29_001": "37201", "P29_002": "A137320100238", "P29_003": "16011", "P29_004": "まゆみ幼稚園", "P29_005": "香川県高松市檀紙町1541-4", "P29_006": "4", "P29_007": "0", "P29_008": "00", "P29_009": null }, "geometry": { "type": "Point", "coordinates": [ 134.000140995843907, 34.3044790024721 ] } },
{ "type": "Feature", "properties": { "P29_001": "37202", "P29_002": "A137320200013", "P29_003": "16011", "P29_004": "丸亀聖母幼稚園", "P29_005": "香川県丸亀市幸町2-7-7", "P29_006": "4", "P29_007": "0", "P29_008": "00", "P29_009": null }, "geometry": { "type": "Point", "coordinates": [ 133.788585520943769, 34.287128637374039 ] } },
{ "type": "Feature", "properties": { "P29_001": "37202", "P29_002": "A137320200022", "P29_003": "16011", "P29_004": "丸亀城南虎岳幼稚園", "P29_005": "香川県丸亀市田村町1678", "P29_006": "4", "P29_007": "0", "P29_008": "00", "P29_009": null }, "geometry": { "type": "Point", "coordinates": [ 133.797120839921661, 34.272429867137561 ] } },
{ "type": "Feature", "properties": { "P29_001": "37203", "P29_002": "A137320300012", "P29_003": "16011", "P29_004": "坂出一高幼稚園", "P29_005": "香川県坂出市駒止町2-2-10", "P29_006": "4", "P29_007": "0", "P29_008": "00", "P29_009": null }, "geometry": { "type": "Point", "coordinates": [ 133.85648655404205, 34.310567623227143 ] } },
{ "type": "Feature", "properties": { "P29_001": "37203", "P29_002": "A137320300021", "P29_003": "16011", "P29_004": "ルンビニ幼稚園", "P29_005": "香川県坂出市新浜町3-6", "P29_006": "4", "P29_007": "0", "P29_008": "00", "P29_009": null }, "geometry": { "type": "Point", "coordinates": [ 133.846833618803913, 34.311135929173027 ] } },
{ "type": "Feature", "properties": { "P29_001": "37204", "P29_002": "A137320400011", "P29_003": "16011", "P29_004": "善通寺聖母幼稚園", "P29_005": "香川県善通寺市上吉田町4-9-24", "P29_006": "4", "P29_007": "0", "P29_008": "00", "P29_009": null }, "geometry": { "type": "Point", "coordinates": [ 133.778943246961006, 34.230442781828422 ] } },
{ "type": "Feature", "properties": { "P29_001": "37205", "P29_002": "A137320500010", "P29_003": "16011", "P29_004": "観音寺聖母幼稚園", "P29_005": "香川県観音寺市昭和町1-6-57", "P29_006": "4", "P29_007": "0", "P29_008": "00", "P29_009": null }, "geometry": { "type": "Point", "coordinates": [ 133.653600553467697, 34.122822506788665 ] } },
{ "type": "Feature", "properties": { "P29_001": "37206", "P29_002": "A137320600019", "P29_003": "16011", "P29_004": "長尾聖母幼稚園", "P29_005": "香川県さぬき市長尾西681", "P29_006": "4", "P29_007": "0", "P29_008": "00", "P29_009": null }, "geometry": { "type": "Point", "coordinates": [ 134.173340994311133, 34.267617002900487 ] } },
{ "type": "Feature", "properties": { "P29_001": "37341", "P29_002": "A137334100015", "P29_003": "16011", "P29_004": "あおば幼稚園", "P29_005": "香川県木田郡三木町井戸2394", "P29_006": "4", "P29_007": "0", "P29_008": "00", "P29_009": null }, "geometry": { "type": "Point", "coordinates": [ 134.157600997173375, 34.262894002095713 ] } },
{ "type": "Feature", "properties": { "P29_001": "37386", "P29_002": "A137338600011", "P29_003": "16011", "P29_004": "青山幼稚園", "P29_005": "香川県綾歌郡宇多津町長縄手605", "P29_006": "4", "P29_007": "0", "P29_008": "00", "P29_009": null }, "geometry": { "type": "Point", "coordinates": [ 133.83307489235699, 34.298068284290828 ] } },
{ "type": "Feature", "properties": { "P29_001": "37386", "P29_002": "A137338600020", "P29_003": "16011", "P29_004": "認定こども園香川短期大学附属幼稚園", "P29_005": "香川県綾歌郡宇多津町浜八番丁113-2", "P29_006": "4", "P29_007": "0", "P29_008": "00", "P29_009": null }, "geometry": { "type": "Point", "coordinates": [ 133.822196365299277, 34.311325357215843 ] } }
]
}
