{
"type": "FeatureCollection",
"name": "geo_37_高校",
"crs": { "type": "name", "properties": { "name": "urn:ogc:def:crs:EPSG::6668" } },
"features": [
{ "type": "Feature", "properties": { "P29_001": "37201", "P29_002": "D137220100010", "P29_003": "16004", "P29_004": "香川県立高松高等学校", "P29_005": "香川県高松市番町3-1-1", "P29_006": "2", "P29_007": "0", "P29_008": "00", "P29_009": null }, "geometry": { "type": "Point", "coordinates": [ 134.044090994415285, 34.341501429255075 ] } },
{ "type": "Feature", "properties": { "P29_001": "37201", "P29_002": "D137220100029", "P29_003": "16004", "P29_004": "香川県立高松工芸高等学校", "P29_005": "香川県高松市番町2-9-30", "P29_006": "2", "P29_007": "0", "P29_008": "00", "P29_009": null }, "geometry": { "type": "Point", "coordinates": [ 134.041517168859258, 34.343526839724866 ] } },
{ "type": "Feature", "properties": { "P29_001": "37201", "P29_002": "D137220100038", "P29_003": "16004", "P29_004": "香川県立高松商業高等学校", "P29_005": "香川県高松市松島町1-18-54", "P29_006": "2", "P29_007": "0", "P29_008": "00", "P29_009": null }, "geometry": { "type": "Point", "coordinates": [ 134.059411894583945, 34.338556107499429 ] } },
{ "type": "Feature", "properties": { "P29_001": "37201", "P29_002": "D137220100047", "P29_003": "16004", "P29_004": "香川県立高松東高等学校", "P29_005": "香川県高松市前田東町690-1", "P29_006": "2", "P29_007": "0", "P29_008": "00", "P29_009": null }, "geometry": { "type": "Point", "coordinates": [ 134.11188588795855, 34.291399302999295 ] } },
{ "type": "Feature", "properties": { "P29_001": "37201", "P29_002": "D137220100056", "P29_003": "16004", "P29_004": "香川県立高松南高等学校", "P29_005": "香川県高松市一宮町531", "P29_006": "2", "P29_007": "0", "P29_008": "00", "P29_009": null }, "geometry": { "type": "Point", "coordinates": [ 134.023992071520297, 34.286630445364935 ] } },
{ "type": "Feature", "properties": { "P29_001": "37201", "P29_002": "D137220100065", "P29_003": "16004", "P29_004": "香川県立高松西高等学校", "P29_005": "香川県高松市鬼無町山口257-1", "P29_006": "2", "P29_007": "0", "P29_008": "00", "P29_009": null }, "geometry": { "type": "Point", "coordinates": [ 133.981196446550257, 34.326795989211682 ] } },
{ "type": "Feature", "properties": { "P29_001": "37201", "P29_002": "D137220100074", "P29_003": "16004", "P29_004": "香川県立高松北高等学校", "P29_005": "香川県高松市牟礼町牟礼1583-1", "P29_006": "2", "P29_007": "0", "P29_008": "00", "P29_009": null }, "geometry": { "type": "Point", "coordinates": [ 134.143041019227752, 34.345654590230446 ] } },
{ "type": "Feature", "properties": { "P29_001": "37201", "P29_002": "D137220100083", "P29_003": "16004", "P29_004": "香川県立香川中央高等学校", "P29_005": "香川県高松市香川町大野2001", "P29_006": "2", "P29_007": "0", "P29_008": "00", "P29_009": null }, "geometry": { "type": "Point", "coordinates": [ 134.017987114040295, 34.266861118740941 ] } },
{ "type": "Feature", "properties": { "P29_001": "37201", "P29_002": "D137220100092", "P29_003": "16004", "P29_004": "香川県立高松桜井高等学校", "P29_005": "香川県高松市多肥上町1250", "P29_006": "2", "P29_007": "0", "P29_008": "00", "P29_009": null }, "geometry": { "type": "Point", "coordinates": [ 134.057046725392127, 34.295706897926046 ] } },
{ "type": "Feature", "properties": { "P29_001": "37201", "P29_002": "D137220100109", "P29_003": "16004", "P29_004": "高松市立高松第一高等学校", "P29_005": "香川県高松市桜町2-5-10", "P29_006": "3", "P29_007": "0", "P29_008": "00", "P29_009": null }, "geometry": { "type": "Point", "coordinates": [ 134.052655782901923, 34.328027367261015 ] } },
{ "type": "Feature", "properties": { "P29_001": "37202", "P29_002": "D137220200019", "P29_003": "16004", "P29_004": "香川県立丸亀高等学校", "P29_005": "香川県丸亀市六番丁1", "P29_006": "2", "P29_007": "0", "P29_008": "00", "P29_009": null }, "geometry": { "type": "Point", "coordinates": [ 133.798272178011075, 34.283326046020505 ] } },
{ "type": "Feature", "properties": { "P29_001": "37202", "P29_002": "D137220200028", "P29_003": "16004", "P29_004": "香川県立飯山高等学校", "P29_005": "香川県丸亀市飯山町下法軍寺664-1", "P29_006": "2", "P29_007": "0", "P29_008": "00", "P29_009": null }, "geometry": { "type": "Point", "coordinates": [ 133.854683824424569, 34.257174058374204 ] } },
{ "type": "Feature", "properties": { "P29_001": "37202", "P29_002": "D137220200037", "P29_003": "16004", "P29_004": "香川県立丸亀城西高等学校", "P29_005": "香川県丸亀市津森町位267", "P29_006": "2", "P29_007": "0", "P29_008": "00", "P29_009": null }, "geometry": { "type": "Point", "coordinates": [ 133.792389173156039, 34.276983648770475 ] } },
{ "type": "Feature", "properties": { "P29_001": "37203", "P29_002": "D137220300018", "P29_003": "16004", "P29_004": "香川県立坂出商業高等学校", "P29_005": "香川県坂出市青葉町1-13", "P29_006": "2", "P29_007": "0", "P29_008": "00", "P29_009": null }, "geometry": { "type": "Point", "coordinates": [ 133.853732386661221, 34.307975609868656 ] } },
{ "type": "Feature", "properties": { "P29_001": "37203", "P29_002": "D137220300027", "P29_003": "16004", "P29_004": "香川県立坂出高等学校", "P29_005": "香川県坂出市文京町2-1-5", "P29_006": "2", "P29_007": "0", "P29_008": "00", "P29_009": null }, "geometry": { "type": "Point", "coordinates": [ 133.853107721276785, 34.310381205805953 ] } },
{ "type": "Feature", "properties": { "P29_001": "37203", "P29_002": "D137220300036", "P29_003": "16004", "P29_004": "香川県立坂出工業高等学校", "P29_005": "香川県坂出市御供所町1-1-2", "P29_006": "2", "P29_007": "0", "P29_008": "00", "P29_009": null }, "geometry": { "type": "Point", "coordinates": [ 133.842652143255521, 34.318125035386508 ] } },
{ "type": "Feature", "properties": { "P29_001": "37204", "P29_002": "D137220400017", "P29_003": "16004", "P29_004": "香川県立善通寺第一高等学校", "P29_005": "香川県善通寺市文京町1-1-5", "P29_006": "2", "P29_007": "0", "P29_008": "00", "P29_009": null }, "geometry": { "type": "Point", "coordinates": [ 133.789105381958422, 34.227404079283509 ] } },
{ "type": "Feature", "properties": { "P29_001": "37205", "P29_002": "D137220500016", "P29_003": "16004", "P29_004": "香川県立観音寺第一高等学校", "P29_005": "香川県観音寺市茂木町4-2-38", "P29_006": "2", "P29_007": "0", "P29_008": "00", "P29_009": null }, "geometry": { "type": "Point", "coordinates": [ 133.659143281544971, 34.132610508406991 ] } },
{ "type": "Feature", "properties": { "P29_001": "37205", "P29_002": "D137220500025", "P29_003": "16004", "P29_004": "香川県立観音寺総合高等学校", "P29_005": "香川県観音寺市天神町1-1-15", "P29_006": "2", "P29_007": "0", "P29_008": "00", "P29_009": null }, "geometry": { "type": "Point", "coordinates": [ 133.660004567163298, 34.128778127058226 ] } },
{ "type": "Feature", "properties": { "P29_001": "37206", "P29_002": "D137220600015", "P29_003": "16004", "P29_004": "香川県立石田高等学校", "P29_005": "香川県さぬき市寒川町石田東甲1065", "P29_006": "2", "P29_007": "0", "P29_008": "00", "P29_009": null }, "geometry": { "type": "Point", "coordinates": [ 134.210848397213312, 34.262854148597441 ] } },
{ "type": "Feature", "properties": { "P29_001": "37206", "P29_002": "D137220600024", "P29_003": "16004", "P29_004": "香川県立志度高等学校", "P29_005": "香川県さぬき市志度366-5", "P29_006": "2", "P29_007": "0", "P29_008": "00", "P29_009": null }, "geometry": { "type": "Point", "coordinates": [ 134.170027322122678, 34.321255766374129 ] } },
{ "type": "Feature", "properties": { "P29_001": "37206", "P29_002": "D137220600033", "P29_003": "16004", "P29_004": "香川県立津田高等学校", "P29_005": "香川県さぬき市津田町津田1632-1", "P29_006": "2", "P29_007": "0", "P29_008": "00", "P29_009": null }, "geometry": { "type": "Point", "coordinates": [ 134.245398444464712, 34.292601091812351 ] } },
{ "type": "Feature", "properties": { "P29_001": "37207", "P29_002": "D137220700014", "P29_003": "16004", "P29_004": "香川県立三本松高等学校", "P29_005": "香川県東かがわ市三本松1500-1", "P29_006": "2", "P29_007": "0", "P29_008": "00", "P29_009": null }, "geometry": { "type": "Point", "coordinates": [ 134.336075602872882, 34.248804951849714 ] } },
{ "type": "Feature", "properties": { "P29_001": "37208", "P29_002": "D137220800013", "P29_003": "16004", "P29_004": "香川県立笠田高等学校", "P29_005": "香川県三豊市豊中町笠田竹田251", "P29_006": "2", "P29_007": "0", "P29_008": "00", "P29_009": null }, "geometry": { "type": "Point", "coordinates": [ 133.699899298726336, 34.152261116889456 ] } },
{ "type": "Feature", "properties": { "P29_001": "37208", "P29_002": "D137220800022", "P29_003": "16004", "P29_004": "香川県立高瀬高等学校", "P29_005": "香川県三豊市高瀬町下勝間2093", "P29_006": "2", "P29_007": "0", "P29_008": "00", "P29_009": null }, "geometry": { "type": "Point", "coordinates": [ 133.71194316580943, 34.177898770538746 ] } },
{ "type": "Feature", "properties": { "P29_001": "37324", "P29_002": "D137232400012", "P29_003": "16004", "P29_004": "香川県立小豆島中央高等学校", "P29_005": "香川県小豆郡小豆島町蒲生甲1001", "P29_006": "2", "P29_007": "0", "P29_008": "00", "P29_009": null }, "geometry": { "type": "Point", "coordinates": [ 134.216365202339944, 34.481399070412721 ] } },
{ "type": "Feature", "properties": { "P29_001": "37341", "P29_002": "D137234100011", "P29_003": "16004", "P29_004": "香川県立三木高等学校", "P29_005": "香川県木田郡三木町平木750", "P29_006": "2", "P29_007": "0", "P29_008": "00", "P29_009": null }, "geometry": { "type": "Point", "coordinates": [ 134.137203822422236, 34.274300940377671 ] } },
{ "type": "Feature", "properties": { "P29_001": "37387", "P29_002": "D137238700016", "P29_003": "16004", "P29_004": "香川県立農業経営高等学校", "P29_005": "香川県綾歌郡綾川町北1023-1", "P29_006": "2", "P29_007": "0", "P29_008": "00", "P29_009": null }, "geometry": { "type": "Point", "coordinates": [ 133.92969428634845, 34.23723296693219 ] } },
{ "type": "Feature", "properties": { "P29_001": "37403", "P29_002": "D137240300016", "P29_003": "16004", "P29_004": "香川県立琴平高等学校", "P29_005": "香川県仲多度郡琴平町142-2", "P29_006": "2", "P29_007": "0", "P29_008": "00", "P29_009": null }, "geometry": { "type": "Point", "coordinates": [ 133.825510993122862, 34.187860731208346 ] } },
{ "type": "Feature", "properties": { "P29_001": "37404", "P29_002": "D137240400015", "P29_003": "16004", "P29_004": "香川県立多度津高等学校", "P29_005": "香川県仲多度郡多度津町栄町1-1-82", "P29_006": "2", "P29_007": "0", "P29_008": "00", "P29_009": null }, "geometry": { "type": "Point", "coordinates": [ 133.755245826338978, 34.273633617894532 ] } },
{ "type": "Feature", "properties": { "P29_001": "37201", "P29_002": "D137320100018", "P29_003": "16004", "P29_004": "英明高等学校", "P29_005": "香川県高松市亀岡町1-10", "P29_006": "4", "P29_007": "0", "P29_008": "00", "P29_009": null }, "geometry": { "type": "Point", "coordinates": [ 134.042667810308643, 34.336992646534377 ] } },
{ "type": "Feature", "properties": { "P29_001": "37201", "P29_002": "D137320100027", "P29_003": "16004", "P29_004": "高松中央高等学校", "P29_005": "香川県高松市松島町1-14-8", "P29_006": "4", "P29_007": "0", "P29_008": "00", "P29_009": null }, "geometry": { "type": "Point", "coordinates": [ 134.061177396048805, 34.339660027552178 ] } },
{ "type": "Feature", "properties": { "P29_001": "37201", "P29_002": "D137320100036", "P29_003": "16004", "P29_004": "大手前高松高等学校", "P29_005": "香川県高松市室新町1166", "P29_006": "4", "P29_007": "0", "P29_008": "00", "P29_009": null }, "geometry": { "type": "Point", "coordinates": [ 134.034026970614804, 34.326625394017988 ] } },
{ "type": "Feature", "properties": { "P29_001": "37201", "P29_002": "D137320100045", "P29_003": "16004", "P29_004": "香川誠陵高等学校", "P29_005": "香川県高松市鬼無町佐料469-1", "P29_006": "4", "P29_007": "0", "P29_008": "00", "P29_009": null }, "geometry": { "type": "Point", "coordinates": [ 133.986188770665734, 34.3313313087531 ] } },
{ "type": "Feature", "properties": { "P29_001": "37201", "P29_002": "D137320100054", "P29_003": "16004", "P29_004": "穴吹学園高等学校", "P29_005": "香川県高松市番町2-4-14", "P29_006": "4", "P29_007": "0", "P29_008": "00", "P29_009": null }, "geometry": { "type": "Point", "coordinates": [ 134.044394430621736, 34.342967189702591 ] } },
{ "type": "Feature", "properties": { "P29_001": "37202", "P29_002": "D137320200017", "P29_003": "16004", "P29_004": "大手前丸亀高等学校", "P29_005": "香川県丸亀市大手町1-6-1", "P29_006": "4", "P29_007": "0", "P29_008": "00", "P29_009": null }, "geometry": { "type": "Point", "coordinates": [ 133.80083417941546, 34.289170091946701 ] } },
{ "type": "Feature", "properties": { "P29_001": "37202", "P29_002": "D137320200026", "P29_003": "16004", "P29_004": "香川県藤井高等学校", "P29_005": "香川県丸亀市新浜町1-3-1", "P29_006": "4", "P29_007": "0", "P29_008": "00", "P29_009": null }, "geometry": { "type": "Point", "coordinates": [ 133.787437313693346, 34.291585854247934 ] } },
{ "type": "Feature", "properties": { "P29_001": "37202", "P29_002": "D137320200035", "P29_003": "16004", "P29_004": "村上学園高等学校", "P29_005": "香川県丸亀市幸町1-10-16", "P29_006": "4", "P29_007": "0", "P29_008": "00", "P29_009": null }, "geometry": { "type": "Point", "coordinates": [ 133.791974578578817, 34.288420392377574 ] } },
{ "type": "Feature", "properties": { "P29_001": "37203", "P29_002": "D137320300016", "P29_003": "16004", "P29_004": "坂出第一高等学校", "P29_005": "香川県坂出市駒止町2-1-3", "P29_006": "4", "P29_007": "0", "P29_008": "00", "P29_009": null }, "geometry": { "type": "Point", "coordinates": [ 133.855575765744021, 34.309880689661995 ] } },
{ "type": "Feature", "properties": { "P29_001": "37204", "P29_002": "D137320400015", "P29_003": "16004", "P29_004": "尽誠学園高等学校", "P29_005": "香川県善通寺市生野町855-1", "P29_006": "4", "P29_007": "0", "P29_008": "00", "P29_009": null }, "geometry": { "type": "Point", "coordinates": [ 133.793815423579161, 34.227606955929218 ] } },
{ "type": "Feature", "properties": { "P29_001": "37206", "P29_002": "D137320600013", "P29_003": "16004", "P29_004": "藤井学園寒川高等学校", "P29_005": "香川県さぬき市寒川町石田西280-1", "P29_006": "4", "P29_007": "0", "P29_008": "00", "P29_009": null }, "geometry": { "type": "Point", "coordinates": [ 134.204166209911051, 34.276789527847427 ] } },
{ "type": "Feature", "properties": { "P29_001": "37208", "P29_002": "D137320800011", "P29_003": "16004", "P29_004": "四国学院大学香川西高等学校", "P29_005": "香川県三豊市高瀬町下勝間2379", "P29_006": "4", "P29_007": "0", "P29_008": "00", "P29_009": null }, "geometry": { "type": "Point", "coordinates": [ 133.714795241571608, 34.181328883151053 ] } },
{ "type": "Feature", "properties": { "P29_001": "37404", "P29_002": "D137340400013", "P29_003": "16004", "P29_004": "ＲＩＴＡ学園高等学校", "P29_005": "香川県仲多度郡多度津町西浜12-44", "P29_006": "4", "P29_007": "0", "P29_008": "00", "P29_009": null }, "geometry": { "type": "Point", "coordinates": [ 133.746125143865754, 34.272240235816589 ] } }
]
}
