{
"type": "FeatureCollection",
"name": "geo_37_小学校",
"crs": { "type": "name", "properties": { "name": "urn:ogc:def:crs:EPSG::6668" } },
"features": [
{ "type": "Feature", "properties": { "P29_001": "37201", "P29_002": "B137110000018", "P29_003": "16001", "P29_004": "香川大学教育学部附属高松小学校", "P29_005": "香川県高松市番町5-1-55", "P29_006": "1", "P29_007": "1", "P29_008": "00", "P29_009": null }, "geometry": { "type": "Point", "coordinates": [ 134.042574834873989, 34.339514586797904 ] } },
{ "type": "Feature", "properties": { "P29_001": "37203", "P29_002": "B137110000027", "P29_003": "16001", "P29_004": "香川大学教育学部附属坂出小学校", "P29_005": "香川県坂出市文京町2-4-2", "P29_006": "1", "P29_007": "1", "P29_008": "00", "P29_009": null }, "geometry": { "type": "Point", "coordinates": [ 133.85157332555417, 34.310345293542063 ] } },
{ "type": "Feature", "properties": { "P29_001": "37201", "P29_002": "B137220100014", "P29_003": "16001", "P29_004": "高松市立新番丁小学校", "P29_005": "香川県高松市錦町2-14-1", "P29_006": "3", "P29_007": "1", "P29_008": "00", "P29_009": null }, "geometry": { "type": "Point", "coordinates": [ 134.040957356462457, 34.345839031034544 ] } },
{ "type": "Feature", "properties": { "P29_001": "37201", "P29_002": "B137220100023", "P29_003": "16001", "P29_004": "高松市立亀阜小学校", "P29_005": "香川県高松市亀岡町10-1", "P29_006": "3", "P29_007": "1", "P29_008": "00", "P29_009": null }, "geometry": { "type": "Point", "coordinates": [ 134.040159558524834, 34.338393708592669 ] } },
{ "type": "Feature", "properties": { "P29_001": "37201", "P29_002": "B137220100032", "P29_003": "16001", "P29_004": "高松市立亀阜小学校みねやま分校", "P29_005": "香川県高松市西宝町2-6-9", "P29_006": "3", "P29_007": "1", "P29_008": "00", "P29_009": null }, "geometry": { "type": "Point", "coordinates": [ 134.030360427359511, 34.339894411949416 ] } },
{ "type": "Feature", "properties": { "P29_001": "37201", "P29_002": "B137220100041", "P29_003": "16001", "P29_004": "高松市立栗林小学校", "P29_005": "香川県高松市栗林町2-10-7", "P29_006": "3", "P29_007": "1", "P29_008": "00", "P29_009": null }, "geometry": { "type": "Point", "coordinates": [ 134.050174496987154, 34.330894737567945 ] } },
{ "type": "Feature", "properties": { "P29_001": "37201", "P29_002": "B137220100050", "P29_003": "16001", "P29_004": "高松市立花園小学校", "P29_005": "香川県高松市花園町2-7-7", "P29_006": "3", "P29_007": "1", "P29_008": "00", "P29_009": null }, "geometry": { "type": "Point", "coordinates": [ 134.057141800166306, 34.3337075271995 ] } },
{ "type": "Feature", "properties": { "P29_001": "37201", "P29_002": "B137220100069", "P29_003": "16001", "P29_004": "高松市立高松第一小学校", "P29_005": "香川県高松市松島町2-14-5", "P29_006": "3", "P29_007": "1", "P29_008": "00", "P29_009": null }, "geometry": { "type": "Point", "coordinates": [ 134.062541634109579, 34.339411005657503 ] } },
{ "type": "Feature", "properties": { "P29_001": "37201", "P29_002": "B137220100078", "P29_003": "16001", "P29_004": "高松市立鶴尾小学校", "P29_005": "香川県高松市松並町636-1", "P29_006": "3", "P29_007": "1", "P29_008": "00", "P29_009": null }, "geometry": { "type": "Point", "coordinates": [ 134.028668638692608, 34.315873700003628 ] } },
{ "type": "Feature", "properties": { "P29_001": "37201", "P29_002": "B137220100087", "P29_003": "16001", "P29_004": "高松市立太田小学校", "P29_005": "香川県高松市伏石町845-1", "P29_006": "3", "P29_007": "1", "P29_008": "00", "P29_009": null }, "geometry": { "type": "Point", "coordinates": [ 134.051862295847741, 34.312465113548768 ] } },
{ "type": "Feature", "properties": { "P29_001": "37201", "P29_002": "B137220100096", "P29_003": "16001", "P29_004": "高松市立木太小学校", "P29_005": "香川県高松市木太町3480-1", "P29_006": "3", "P29_007": "1", "P29_008": "00", "P29_009": null }, "geometry": { "type": "Point", "coordinates": [ 134.076512004404066, 34.325076943291755 ] } },
{ "type": "Feature", "properties": { "P29_001": "37201", "P29_002": "B137220100103", "P29_003": "16001", "P29_004": "高松市立古高松小学校", "P29_005": "香川県高松市高松町398", "P29_006": "3", "P29_007": "1", "P29_008": "00", "P29_009": null }, "geometry": { "type": "Point", "coordinates": [ 134.106775776372956, 34.332332097834602 ] } },
{ "type": "Feature", "properties": { "P29_001": "37201", "P29_002": "B137220100112", "P29_003": "16001", "P29_004": "高松市立屋島小学校", "P29_005": "香川県高松市屋島西町1205-1", "P29_006": "3", "P29_007": "1", "P29_008": "00", "P29_009": null }, "geometry": { "type": "Point", "coordinates": [ 134.100095070985418, 34.347401576964998 ] } },
{ "type": "Feature", "properties": { "P29_001": "37201", "P29_002": "B137220100121", "P29_003": "16001", "P29_004": "高松市立前田小学校", "P29_005": "香川県高松市前田東町819-3", "P29_006": "3", "P29_007": "1", "P29_008": "00", "P29_009": null }, "geometry": { "type": "Point", "coordinates": [ 134.112995999654913, 34.295914998598491 ] } },
{ "type": "Feature", "properties": { "P29_001": "37201", "P29_002": "B137220100130", "P29_003": "16001", "P29_004": "高松市立川添小学校", "P29_005": "香川県高松市東山崎町207-1", "P29_006": "3", "P29_007": "1", "P29_008": "00", "P29_009": null }, "geometry": { "type": "Point", "coordinates": [ 134.092947134133169, 34.306421546565574 ] } },
{ "type": "Feature", "properties": { "P29_001": "37201", "P29_002": "B137220100149", "P29_003": "16001", "P29_004": "高松市立林小学校", "P29_005": "香川県高松市林町1108-1", "P29_006": "3", "P29_007": "1", "P29_008": "00", "P29_009": null }, "geometry": { "type": "Point", "coordinates": [ 134.070139995660071, 34.301469998219055 ] } },
{ "type": "Feature", "properties": { "P29_001": "37201", "P29_002": "B137220100158", "P29_003": "16001", "P29_004": "高松市立三渓小学校", "P29_005": "香川県高松市三谷町2173-1", "P29_006": "3", "P29_007": "1", "P29_008": "00", "P29_009": null }, "geometry": { "type": "Point", "coordinates": [ 134.068818925010049, 34.273736559835186 ] } },
{ "type": "Feature", "properties": { "P29_001": "37201", "P29_002": "B137220100167", "P29_003": "16001", "P29_004": "高松市立仏生山小学校", "P29_005": "香川県高松市仏生山町甲2461", "P29_006": "3", "P29_007": "1", "P29_008": "00", "P29_009": null }, "geometry": { "type": "Point", "coordinates": [ 134.047799379585285, 34.274457141393754 ] } },
{ "type": "Feature", "properties": { "P29_001": "37201", "P29_002": "B137220100176", "P29_003": "16001", "P29_004": "高松市立香西小学校", "P29_005": "香川県高松市香西南町703-1", "P29_006": "3", "P29_007": "1", "P29_008": "00", "P29_009": null }, "geometry": { "type": "Point", "coordinates": [ 133.998135203008928, 34.344889832304723 ] } },
{ "type": "Feature", "properties": { "P29_001": "37201", "P29_002": "B137220100185", "P29_003": "16001", "P29_004": "高松市立一宮小学校", "P29_005": "香川県高松市一宮町672-1", "P29_006": "3", "P29_007": "1", "P29_008": "00", "P29_009": null }, "geometry": { "type": "Point", "coordinates": [ 134.024504995886161, 34.291081000429372 ] } },
{ "type": "Feature", "properties": { "P29_001": "37201", "P29_002": "B137220100194", "P29_003": "16001", "P29_004": "高松市立多肥小学校", "P29_005": "香川県高松市多肥上町902-2", "P29_006": "3", "P29_007": "1", "P29_008": "00", "P29_009": null }, "geometry": { "type": "Point", "coordinates": [ 134.052699848184574, 34.292077155985602 ] } },
{ "type": "Feature", "properties": { "P29_001": "37201", "P29_002": "B137220100201", "P29_003": "16001", "P29_004": "高松市立川岡小学校", "P29_005": "香川県高松市川部町1552", "P29_006": "3", "P29_007": "1", "P29_008": "00", "P29_009": null }, "geometry": { "type": "Point", "coordinates": [ 134.007065191303923, 34.267509874259318 ] } },
{ "type": "Feature", "properties": { "P29_001": "37201", "P29_002": "B137220100210", "P29_003": "16001", "P29_004": "高松市立円座小学校", "P29_005": "香川県高松市円座町1630-2", "P29_006": "3", "P29_007": "1", "P29_008": "00", "P29_009": null }, "geometry": { "type": "Point", "coordinates": [ 134.004338678082462, 34.284730214683904 ] } },
{ "type": "Feature", "properties": { "P29_001": "37201", "P29_002": "B137220100229", "P29_003": "16001", "P29_004": "高松市立檀紙小学校", "P29_005": "香川県高松市御厩町816", "P29_006": "3", "P29_007": "1", "P29_008": "00", "P29_009": null }, "geometry": { "type": "Point", "coordinates": [ 133.99388192597354, 34.30012927738413 ] } },
{ "type": "Feature", "properties": { "P29_001": "37201", "P29_002": "B137220100238", "P29_003": "16001", "P29_004": "高松市立弦打小学校", "P29_005": "香川県高松市鶴市町374-1", "P29_006": "3", "P29_007": "1", "P29_008": "00", "P29_009": null }, "geometry": { "type": "Point", "coordinates": [ 134.004745890672865, 34.328585551593456 ] } },
{ "type": "Feature", "properties": { "P29_001": "37201", "P29_002": "B137220100247", "P29_003": "16001", "P29_004": "高松市立鬼無小学校", "P29_005": "香川県高松市鬼無町佐藤607-1", "P29_006": "3", "P29_007": "1", "P29_008": "00", "P29_009": null }, "geometry": { "type": "Point", "coordinates": [ 133.988278762250474, 34.327070888755856 ] } },
{ "type": "Feature", "properties": { "P29_001": "37201", "P29_002": "B137220100256", "P29_003": "16001", "P29_004": "高松市立下笠居小学校", "P29_005": "香川県高松市生島町345", "P29_006": "3", "P29_007": "1", "P29_008": "00", "P29_009": null }, "geometry": { "type": "Point", "coordinates": [ 133.968340028924246, 34.358317028087249 ] } },
{ "type": "Feature", "properties": { "P29_001": "37201", "P29_002": "B137220100265", "P29_003": "16001", "P29_004": "高松市立女木小学校", "P29_005": "香川県高松市女木町236-2", "P29_006": "3", "P29_007": "1", "P29_008": "00", "P29_009": null }, "geometry": { "type": "Point", "coordinates": [ 134.05346543689194, 34.392002092637142 ] } },
{ "type": "Feature", "properties": { "P29_001": "37201", "P29_002": "B137220100274", "P29_003": "16001", "P29_004": "高松市立男木小学校", "P29_005": "香川県高松市男木町165", "P29_006": "3", "P29_007": "1", "P29_008": "00", "P29_009": null }, "geometry": { "type": "Point", "coordinates": [ 134.056832349674266, 34.420061872400979 ] } },
{ "type": "Feature", "properties": { "P29_001": "37201", "P29_002": "B137220100283", "P29_003": "16001", "P29_004": "高松市立川島小学校", "P29_005": "香川県高松市川島東町864-1", "P29_006": "3", "P29_007": "1", "P29_008": "00", "P29_009": null }, "geometry": { "type": "Point", "coordinates": [ 134.089089149439332, 34.275552752185121 ] } },
{ "type": "Feature", "properties": { "P29_001": "37201", "P29_002": "B137220100292", "P29_003": "16001", "P29_004": "高松市立十河小学校", "P29_005": "香川県高松市十川西町366-5", "P29_006": "3", "P29_007": "1", "P29_008": "00", "P29_009": null }, "geometry": { "type": "Point", "coordinates": [ 134.102656354028937, 34.274831820504687 ] } },
{ "type": "Feature", "properties": { "P29_001": "37201", "P29_002": "B137220100309", "P29_003": "16001", "P29_004": "高松市立東植田小学校", "P29_005": "香川県高松市東植田町2008", "P29_006": "3", "P29_007": "1", "P29_008": "00", "P29_009": null }, "geometry": { "type": "Point", "coordinates": [ 134.09778747206957, 34.238872366310503 ] } },
{ "type": "Feature", "properties": { "P29_001": "37201", "P29_002": "B137220100318", "P29_003": "16001", "P29_004": "高松市立東植田小学校菅沢分校", "P29_005": "香川県高松市菅沢町339", "P29_006": "3", "P29_007": "1", "P29_008": "00", "P29_009": null }, "geometry": { "type": "Point", "coordinates": [ 134.098070445409661, 34.19366824705947 ] } },
{ "type": "Feature", "properties": { "P29_001": "37201", "P29_002": "B137220100327", "P29_003": "16001", "P29_004": "高松市立植田小学校", "P29_005": "香川県高松市西植田町2337", "P29_006": "3", "P29_007": "1", "P29_008": "00", "P29_009": null }, "geometry": { "type": "Point", "coordinates": [ 134.07894322047315, 34.23886486309992 ] } },
{ "type": "Feature", "properties": { "P29_001": "37201", "P29_002": "B137220100336", "P29_003": "16001", "P29_004": "高松市立中央小学校", "P29_005": "香川県高松市松縄町1138", "P29_006": "3", "P29_007": "1", "P29_008": "00", "P29_009": null }, "geometry": { "type": "Point", "coordinates": [ 134.062530889528915, 34.311798818055891 ] } },
{ "type": "Feature", "properties": { "P29_001": "37201", "P29_002": "B137220100345", "P29_003": "16001", "P29_004": "高松市立太田南小学校", "P29_005": "香川県高松市太田下町1823-1", "P29_006": "3", "P29_007": "1", "P29_008": "00", "P29_009": null }, "geometry": { "type": "Point", "coordinates": [ 134.044083036140222, 34.305936663716956 ] } },
{ "type": "Feature", "properties": { "P29_001": "37201", "P29_002": "B137220100354", "P29_003": "16001", "P29_004": "高松市立木太南小学校", "P29_005": "香川県高松市木太町1530-1", "P29_006": "3", "P29_007": "1", "P29_008": "00", "P29_009": null }, "geometry": { "type": "Point", "coordinates": [ 134.074813280657594, 34.320834475072644 ] } },
{ "type": "Feature", "properties": { "P29_001": "37201", "P29_002": "B137220100363", "P29_003": "16001", "P29_004": "高松市立古高松南小学校", "P29_005": "香川県高松市新田町甲2605", "P29_006": "3", "P29_007": "1", "P29_008": "00", "P29_009": null }, "geometry": { "type": "Point", "coordinates": [ 134.098710507391786, 34.326875380723187 ] } },
{ "type": "Feature", "properties": { "P29_001": "37201", "P29_002": "B137220100372", "P29_003": "16001", "P29_004": "高松市立屋島東小学校", "P29_005": "香川県高松市屋島東町942-1", "P29_006": "3", "P29_007": "1", "P29_008": "00", "P29_009": null }, "geometry": { "type": "Point", "coordinates": [ 134.116367048817949, 34.354080350966846 ] } },
{ "type": "Feature", "properties": { "P29_001": "37201", "P29_002": "B137220100381", "P29_003": "16001", "P29_004": "高松市立屋島西小学校", "P29_005": "香川県高松市屋島西町2469", "P29_006": "3", "P29_007": "1", "P29_008": "00", "P29_009": null }, "geometry": { "type": "Point", "coordinates": [ 134.090510473877146, 34.35152112377466 ] } },
{ "type": "Feature", "properties": { "P29_001": "37201", "P29_002": "B137220100390", "P29_003": "16001", "P29_004": "高松市立木太北部小学校", "P29_005": "香川県高松市木太町2613", "P29_006": "3", "P29_007": "1", "P29_008": "00", "P29_009": null }, "geometry": { "type": "Point", "coordinates": [ 134.080260085703543, 34.335994003515253 ] } },
{ "type": "Feature", "properties": { "P29_001": "37201", "P29_002": "B137220100407", "P29_003": "16001", "P29_004": "高松市立牟礼小学校", "P29_005": "香川県高松市牟礼町大町1560", "P29_006": "3", "P29_007": "1", "P29_008": "00", "P29_009": null }, "geometry": { "type": "Point", "coordinates": [ 134.141299802813165, 34.336135644170369 ] } },
{ "type": "Feature", "properties": { "P29_001": "37201", "P29_002": "B137220100416", "P29_003": "16001", "P29_004": "高松市立牟礼北小学校", "P29_005": "香川県高松市牟礼町牟礼2900-1", "P29_006": "3", "P29_007": "1", "P29_008": "00", "P29_009": null }, "geometry": { "type": "Point", "coordinates": [ 134.125650025701816, 34.350562831674381 ] } },
{ "type": "Feature", "properties": { "P29_001": "37201", "P29_002": "B137220100425", "P29_003": "16001", "P29_004": "高松市立牟礼南小学校", "P29_005": "香川県高松市牟礼町大町1115-1", "P29_006": "3", "P29_007": "1", "P29_008": "00", "P29_009": null }, "geometry": { "type": "Point", "coordinates": [ 134.152780158022296, 34.333657169978906 ] } },
{ "type": "Feature", "properties": { "P29_001": "37201", "P29_002": "B137220100434", "P29_003": "16001", "P29_004": "高松市立庵治小学校", "P29_005": "香川県高松市庵治町790-1", "P29_006": "3", "P29_007": "1", "P29_008": "00", "P29_009": null }, "geometry": { "type": "Point", "coordinates": [ 134.131269813884728, 34.384968422166885 ] } },
{ "type": "Feature", "properties": { "P29_001": "37201", "P29_002": "B137220100443", "P29_003": "16001", "P29_004": "高松市立庵治第二小学校", "P29_005": "香川県高松市庵治町6034-1", "P29_006": "3", "P29_007": "1", "P29_008": "00", "P29_009": null }, "geometry": { "type": "Point", "coordinates": [ 134.105685664798102, 34.40450353507083 ] } },
{ "type": "Feature", "properties": { "P29_001": "37201", "P29_002": "B137220100452", "P29_003": "16001", "P29_004": "高松市立塩江小学校", "P29_005": "香川県高松市塩江安原上231-1", "P29_006": "3", "P29_007": "1", "P29_008": "00", "P29_009": null }, "geometry": { "type": "Point", "coordinates": [ 134.074753744402528, 34.181494752770327 ] } },
{ "type": "Feature", "properties": { "P29_001": "37201", "P29_002": "B137220100461", "P29_003": "16001", "P29_004": "高松市立大野小学校", "P29_005": "香川県高松市香川町大野1045-1", "P29_006": "3", "P29_007": "1", "P29_008": "00", "P29_009": null }, "geometry": { "type": "Point", "coordinates": [ 134.026718966256453, 34.266983791746014 ] } },
{ "type": "Feature", "properties": { "P29_001": "37201", "P29_002": "B137220100470", "P29_003": "16001", "P29_004": "高松市立浅野小学校", "P29_005": "香川県高松市香川町浅野3088", "P29_006": "3", "P29_007": "1", "P29_008": "00", "P29_009": null }, "geometry": { "type": "Point", "coordinates": [ 134.040928598899882, 34.259123407528449 ] } },
{ "type": "Feature", "properties": { "P29_001": "37201", "P29_002": "B137220100489", "P29_003": "16001", "P29_004": "高松市立川東小学校", "P29_005": "香川県高松市香川町川東上1865-8", "P29_006": "3", "P29_007": "1", "P29_008": "00", "P29_009": null }, "geometry": { "type": "Point", "coordinates": [ 134.035064846746508, 34.241339742278555 ] } },
{ "type": "Feature", "properties": { "P29_001": "37201", "P29_002": "B137220100498", "P29_003": "16001", "P29_004": "高松市立香南小学校", "P29_005": "香川県高松市香南町横井1008", "P29_006": "3", "P29_007": "1", "P29_008": "00", "P29_009": null }, "geometry": { "type": "Point", "coordinates": [ 134.009196634934739, 34.241701461644375 ] } },
{ "type": "Feature", "properties": { "P29_001": "37201", "P29_002": "B137220100504", "P29_003": "16001", "P29_004": "高松市立国分寺北部小学校", "P29_005": "香川県高松市国分寺町新居1880", "P29_006": "3", "P29_007": "1", "P29_008": "00", "P29_009": null }, "geometry": { "type": "Point", "coordinates": [ 133.963182599224325, 34.305953454039702 ] } },
{ "type": "Feature", "properties": { "P29_001": "37201", "P29_002": "B137220100513", "P29_003": "16001", "P29_004": "高松市立国分寺南部小学校", "P29_005": "香川県高松市国分寺町福家甲3005", "P29_006": "3", "P29_007": "1", "P29_008": "00", "P29_009": null }, "geometry": { "type": "Point", "coordinates": [ 133.961735451974164, 34.283897321910779 ] } },
{ "type": "Feature", "properties": { "P29_001": "37201", "P29_002": "B137220100523", "P29_003": "16001", "P29_004": "高松市立下笠居小学校五色台分校", "P29_005": "香川県高松市中山町1501-192", "P29_006": "3", "P29_007": "1", "P29_008": "00", "P29_009": null }, "geometry": { "type": "Point", "coordinates": [ 133.954476653813003, 34.34275349554914 ] } },
{ "type": "Feature", "properties": { "P29_001": "37202", "P29_002": "B137220200013", "P29_003": "16001", "P29_004": "丸亀市立城東小学校", "P29_005": "香川県丸亀市土器町西5-113", "P29_006": "3", "P29_007": "1", "P29_008": "00", "P29_009": null }, "geometry": { "type": "Point", "coordinates": [ 133.812657819532944, 34.285633396746469 ] } },
{ "type": "Feature", "properties": { "P29_001": "37202", "P29_002": "B137220200022", "P29_003": "16001", "P29_004": "丸亀市立城南小学校", "P29_005": "香川県丸亀市田村町973", "P29_006": "3", "P29_007": "1", "P29_008": "00", "P29_009": null }, "geometry": { "type": "Point", "coordinates": [ 133.798453640780991, 34.268778518632381 ] } },
{ "type": "Feature", "properties": { "P29_001": "37202", "P29_002": "B137220200031", "P29_003": "16001", "P29_004": "丸亀市立城西小学校", "P29_005": "香川県丸亀市六番丁12", "P29_006": "3", "P29_007": "1", "P29_008": "00", "P29_009": null }, "geometry": { "type": "Point", "coordinates": [ 133.796657463199352, 34.285823676266617 ] } },
{ "type": "Feature", "properties": { "P29_001": "37202", "P29_002": "B137220200040", "P29_003": "16001", "P29_004": "丸亀市立城北小学校", "P29_005": "香川県丸亀市瓦町95", "P29_006": "3", "P29_007": "1", "P29_008": "00", "P29_009": null }, "geometry": { "type": "Point", "coordinates": [ 133.800879221671806, 34.294231220445603 ] } },
{ "type": "Feature", "properties": { "P29_001": "37202", "P29_002": "B137220200059", "P29_003": "16001", "P29_004": "丸亀市立城乾小学校", "P29_005": "香川県丸亀市中府町5-15-1", "P29_006": "3", "P29_007": "1", "P29_008": "00", "P29_009": null }, "geometry": { "type": "Point", "coordinates": [ 133.792797217541278, 34.28758682450416 ] } },
{ "type": "Feature", "properties": { "P29_001": "37202", "P29_002": "B137220200068", "P29_003": "16001", "P29_004": "丸亀市立城坤小学校", "P29_005": "香川県丸亀市今津町348", "P29_006": "3", "P29_007": "1", "P29_008": "00", "P29_009": null }, "geometry": { "type": "Point", "coordinates": [ 133.78610900389765, 34.280164999179902 ] } },
{ "type": "Feature", "properties": { "P29_001": "37202", "P29_002": "B137220200077", "P29_003": "16001", "P29_004": "丸亀市立城辰小学校", "P29_005": "香川県丸亀市川西町北151", "P29_006": "3", "P29_007": "1", "P29_008": "00", "P29_009": null }, "geometry": { "type": "Point", "coordinates": [ 133.828698600690217, 34.256763843527459 ] } },
{ "type": "Feature", "properties": { "P29_001": "37202", "P29_002": "B137220200086", "P29_003": "16001", "P29_004": "丸亀市立飯野小学校", "P29_005": "香川県丸亀市飯野町西分113", "P29_006": "3", "P29_007": "1", "P29_008": "00", "P29_009": null }, "geometry": { "type": "Point", "coordinates": [ 133.833244000424628, 34.280415001082346 ] } },
{ "type": "Feature", "properties": { "P29_001": "37202", "P29_002": "B137220200095", "P29_003": "16001", "P29_004": "丸亀市立郡家小学校", "P29_005": "香川県丸亀市郡家町790-1", "P29_006": "3", "P29_007": "1", "P29_008": "00", "P29_009": null }, "geometry": { "type": "Point", "coordinates": [ 133.814801890755405, 34.25151640286299 ] } },
{ "type": "Feature", "properties": { "P29_001": "37202", "P29_002": "B137220200102", "P29_003": "16001", "P29_004": "丸亀市立垂水小学校", "P29_005": "香川県丸亀市垂水町1408", "P29_006": "3", "P29_007": "1", "P29_008": "00", "P29_009": null }, "geometry": { "type": "Point", "coordinates": [ 133.827695116366499, 34.232341623545686 ] } },
{ "type": "Feature", "properties": { "P29_001": "37202", "P29_002": "B137220200111", "P29_003": "16001", "P29_004": "丸亀市立本島小学校", "P29_005": "香川県丸亀市本島町泊18", "P29_006": "3", "P29_007": "1", "P29_008": "00", "P29_009": null }, "geometry": { "type": "Point", "coordinates": [ 133.782864536054888, 34.387544689814909 ] } },
{ "type": "Feature", "properties": { "P29_001": "37202", "P29_002": "B137220200120", "P29_003": "16001", "P29_004": "丸亀市立広島小学校", "P29_005": "香川県丸亀市広島町江の浦439", "P29_006": "3", "P29_007": "9", "P29_008": "00", "P29_009": null }, "geometry": { "type": "Point", "coordinates": [ 133.714563856149027, 34.365134404622374 ] } },
{ "type": "Feature", "properties": { "P29_001": "37202", "P29_002": "B137220200139", "P29_003": "16001", "P29_004": "丸亀市立小手島小学校", "P29_005": "香川県丸亀市広島町小手島2782", "P29_006": "3", "P29_007": "9", "P29_008": "00", "P29_009": null }, "geometry": { "type": "Point", "coordinates": [ 133.651545651274517, 34.374768934096195 ] } },
{ "type": "Feature", "properties": { "P29_001": "37202", "P29_002": "B137220200148", "P29_003": "16001", "P29_004": "丸亀市立富熊小学校", "P29_005": "香川県丸亀市綾歌町富熊1227", "P29_006": "3", "P29_007": "1", "P29_008": "00", "P29_009": null }, "geometry": { "type": "Point", "coordinates": [ 133.87940624735009, 34.249393561277031 ] } },
{ "type": "Feature", "properties": { "P29_001": "37202", "P29_002": "B137220200157", "P29_003": "16001", "P29_004": "丸亀市立栗熊小学校", "P29_005": "香川県丸亀市綾歌町栗熊東323", "P29_006": "3", "P29_007": "1", "P29_008": "00", "P29_009": null }, "geometry": { "type": "Point", "coordinates": [ 133.881622152530923, 34.239065617110619 ] } },
{ "type": "Feature", "properties": { "P29_001": "37202", "P29_002": "B137220200166", "P29_003": "16001", "P29_004": "丸亀市立岡田小学校", "P29_005": "香川県丸亀市綾歌町岡田下217", "P29_006": "3", "P29_007": "1", "P29_008": "00", "P29_009": null }, "geometry": { "type": "Point", "coordinates": [ 133.858482686563008, 34.227201506097806 ] } },
{ "type": "Feature", "properties": { "P29_001": "37202", "P29_002": "B137220200175", "P29_003": "16001", "P29_004": "丸亀市立飯山北小学校", "P29_005": "香川県丸亀市飯山町川原1874", "P29_006": "3", "P29_007": "1", "P29_008": "00", "P29_009": null }, "geometry": { "type": "Point", "coordinates": [ 133.858203782350103, 34.26517333946768 ] } },
{ "type": "Feature", "properties": { "P29_001": "37202", "P29_002": "B137220200184", "P29_003": "16001", "P29_004": "丸亀市立飯山南小学校", "P29_005": "香川県丸亀市飯山町上法軍寺1206", "P29_006": "3", "P29_007": "1", "P29_008": "00", "P29_009": null }, "geometry": { "type": "Point", "coordinates": [ 133.854939533958884, 34.247505436169995 ] } },
{ "type": "Feature", "properties": { "P29_001": "37203", "P29_002": "B137220300012", "P29_003": "16001", "P29_004": "坂出市立坂出小学校", "P29_005": "香川県坂出市白金町1-3-7", "P29_006": "3", "P29_007": "1", "P29_008": "00", "P29_009": null }, "geometry": { "type": "Point", "coordinates": [ 133.84605951827632, 34.313755188056781 ] } },
{ "type": "Feature", "properties": { "P29_001": "37203", "P29_002": "B137220300021", "P29_003": "16001", "P29_004": "坂出市立東部小学校", "P29_005": "香川県坂出市室町1-1-21", "P29_006": "3", "P29_007": "1", "P29_008": "00", "P29_009": null }, "geometry": { "type": "Point", "coordinates": [ 133.860809917112078, 34.314326048304373 ] } },
{ "type": "Feature", "properties": { "P29_001": "37203", "P29_002": "B137220300030", "P29_003": "16001", "P29_004": "坂出市立金山小学校", "P29_005": "香川県坂出市谷町3-1-23", "P29_006": "3", "P29_007": "1", "P29_008": "00", "P29_009": null }, "geometry": { "type": "Point", "coordinates": [ 133.867212997111551, 34.310077999448978 ] } },
{ "type": "Feature", "properties": { "P29_001": "37203", "P29_002": "B137220300049", "P29_003": "16001", "P29_004": "坂出市立林田小学校", "P29_005": "香川県坂出市林田町2215-1", "P29_006": "3", "P29_007": "1", "P29_008": "00", "P29_009": null }, "geometry": { "type": "Point", "coordinates": [ 133.890193001043087, 34.328609000197588 ] } },
{ "type": "Feature", "properties": { "P29_001": "37203", "P29_002": "B137220300058", "P29_003": "16001", "P29_004": "坂出市立加茂小学校", "P29_005": "香川県坂出市加茂町1098-3", "P29_006": "3", "P29_007": "1", "P29_008": "00", "P29_009": null }, "geometry": { "type": "Point", "coordinates": [ 133.909673998791504, 34.312110998531942 ] } },
{ "type": "Feature", "properties": { "P29_001": "37203", "P29_002": "B137220300076", "P29_003": "16001", "P29_004": "坂出市立岩黒小学校", "P29_005": "香川県坂出市岩黒240", "P29_006": "3", "P29_007": "1", "P29_008": "00", "P29_009": null }, "geometry": { "type": "Point", "coordinates": [ 133.81237108453962, 34.40801944177192 ] } },
{ "type": "Feature", "properties": { "P29_001": "37203", "P29_002": "B137220300085", "P29_003": "16001", "P29_004": "坂出市立府中小学校", "P29_005": "香川県坂出市府中町1193-3", "P29_006": "3", "P29_007": "1", "P29_008": "00", "P29_009": null }, "geometry": { "type": "Point", "coordinates": [ 133.916959772504669, 34.289310018636499 ] } },
{ "type": "Feature", "properties": { "P29_001": "37203", "P29_002": "B137220300094", "P29_003": "16001", "P29_004": "坂出市立川津小学校", "P29_005": "香川県坂出市川津町3093-1", "P29_006": "3", "P29_007": "1", "P29_008": "00", "P29_009": null }, "geometry": { "type": "Point", "coordinates": [ 133.857155102958444, 34.293674602948592 ] } },
{ "type": "Feature", "properties": { "P29_001": "37203", "P29_002": "B137220300101", "P29_003": "16001", "P29_004": "坂出市立西庄小学校", "P29_005": "香川県坂出市西庄町524-5", "P29_006": "3", "P29_007": "1", "P29_008": "00", "P29_009": null }, "geometry": { "type": "Point", "coordinates": [ 133.891005000049489, 34.314055001724427 ] } },
{ "type": "Feature", "properties": { "P29_001": "37203", "P29_002": "B137220300110", "P29_003": "16001", "P29_004": "坂出市立松山小学校", "P29_005": "香川県坂出市高屋町1050-1", "P29_006": "3", "P29_007": "1", "P29_008": "00", "P29_009": null }, "geometry": { "type": "Point", "coordinates": [ 133.908347351436362, 34.338418881380989 ] } },
{ "type": "Feature", "properties": { "P29_001": "37204", "P29_002": "B137220400011", "P29_003": "16001", "P29_004": "善通寺市立中央小学校", "P29_005": "香川県善通寺市文京町4-5-1", "P29_006": "3", "P29_007": "1", "P29_008": "00", "P29_009": null }, "geometry": { "type": "Point", "coordinates": [ 133.778526550787319, 34.224669904028978 ] } },
{ "type": "Feature", "properties": { "P29_001": "37204", "P29_002": "B137220400020", "P29_003": "16001", "P29_004": "善通寺市立東部小学校", "P29_005": "香川県善通寺市稲木町450-1", "P29_006": "3", "P29_007": "1", "P29_008": "00", "P29_009": null }, "geometry": { "type": "Point", "coordinates": [ 133.781283617880518, 34.235323756999215 ] } },
{ "type": "Feature", "properties": { "P29_001": "37204", "P29_002": "B137220400039", "P29_003": "16001", "P29_004": "善通寺市立西部小学校", "P29_005": "香川県善通寺市善通寺町1146", "P29_006": "3", "P29_007": "1", "P29_008": "00", "P29_009": null }, "geometry": { "type": "Point", "coordinates": [ 133.773032665297734, 34.220734215175902 ] } },
{ "type": "Feature", "properties": { "P29_001": "37204", "P29_002": "B137220400048", "P29_003": "16001", "P29_004": "善通寺市立南部小学校", "P29_005": "香川県善通寺市生野町2990-1", "P29_006": "3", "P29_007": "1", "P29_008": "00", "P29_009": null }, "geometry": { "type": "Point", "coordinates": [ 133.789749000925298, 34.215922004862101 ] } },
{ "type": "Feature", "properties": { "P29_001": "37204", "P29_002": "B137220400057", "P29_003": "16001", "P29_004": "善通寺市立竜川小学校", "P29_005": "香川県善通寺市原田町306-1", "P29_006": "3", "P29_007": "1", "P29_008": "00", "P29_009": null }, "geometry": { "type": "Point", "coordinates": [ 133.792677033134851, 34.249184844463407 ] } },
{ "type": "Feature", "properties": { "P29_001": "37204", "P29_002": "B137220400066", "P29_003": "16001", "P29_004": "善通寺市立与北小学校", "P29_005": "香川県善通寺市与北町1238", "P29_006": "3", "P29_007": "1", "P29_008": "00", "P29_009": null }, "geometry": { "type": "Point", "coordinates": [ 133.808866248636917, 34.233551567596429 ] } },
{ "type": "Feature", "properties": { "P29_001": "37204", "P29_002": "B137220400075", "P29_003": "16001", "P29_004": "善通寺市立筆岡小学校", "P29_005": "香川県善通寺市中村町1575-2", "P29_006": "3", "P29_007": "1", "P29_008": "00", "P29_009": null }, "geometry": { "type": "Point", "coordinates": [ 133.765883835275048, 34.238815227059696 ] } },
{ "type": "Feature", "properties": { "P29_001": "37204", "P29_002": "B137220400084", "P29_003": "16001", "P29_004": "善通寺市立吉原小学校", "P29_005": "香川県善通寺市吉原町2811", "P29_006": "3", "P29_007": "1", "P29_008": "00", "P29_009": null }, "geometry": { "type": "Point", "coordinates": [ 133.751170623444352, 34.22971646366468 ] } },
{ "type": "Feature", "properties": { "P29_001": "37205", "P29_002": "B137220500010", "P29_003": "16001", "P29_004": "観音寺市立観音寺小学校", "P29_005": "香川県観音寺市観音寺町甲2558-1", "P29_006": "3", "P29_007": "1", "P29_008": "00", "P29_009": null }, "geometry": { "type": "Point", "coordinates": [ 133.647959995010723, 34.126626998902935 ] } },
{ "type": "Feature", "properties": { "P29_001": "37205", "P29_002": "B137220500029", "P29_003": "16001", "P29_004": "観音寺市立高室小学校", "P29_005": "香川県観音寺市高屋町1877-1", "P29_006": "3", "P29_007": "1", "P29_008": "00", "P29_009": null }, "geometry": { "type": "Point", "coordinates": [ 133.654972410835967, 34.146609514303663 ] } },
{ "type": "Feature", "properties": { "P29_001": "37205", "P29_002": "B137220500038", "P29_003": "16001", "P29_004": "観音寺市立常磐小学校", "P29_005": "香川県観音寺市植田町365", "P29_006": "3", "P29_007": "1", "P29_008": "00", "P29_009": null }, "geometry": { "type": "Point", "coordinates": [ 133.675857965695826, 34.127681045678735 ] } },
{ "type": "Feature", "properties": { "P29_001": "37205", "P29_002": "B137220500047", "P29_003": "16001", "P29_004": "観音寺市立柞田小学校", "P29_005": "香川県観音寺市柞田町乙1000-1", "P29_006": "3", "P29_007": "1", "P29_008": "00", "P29_009": null }, "geometry": { "type": "Point", "coordinates": [ 133.660281401743532, 34.109864587378944 ] } },
{ "type": "Feature", "properties": { "P29_001": "37205", "P29_002": "B137220500056", "P29_003": "16001", "P29_004": "観音寺市立豊田小学校", "P29_005": "香川県観音寺市新田町1413", "P29_006": "3", "P29_007": "1", "P29_008": "00", "P29_009": null }, "geometry": { "type": "Point", "coordinates": [ 133.701860926344892, 34.110063393617367 ] } },
{ "type": "Feature", "properties": { "P29_001": "37205", "P29_002": "B137220500065", "P29_003": "16001", "P29_004": "観音寺市立粟井小学校", "P29_005": "香川県観音寺市粟井町1452", "P29_006": "3", "P29_007": "1", "P29_008": "00", "P29_009": null }, "geometry": { "type": "Point", "coordinates": [ 133.700711143295194, 34.096458648441427 ] } },
{ "type": "Feature", "properties": { "P29_001": "37205", "P29_002": "B137220500074", "P29_003": "16001", "P29_004": "観音寺市立一ノ谷小学校", "P29_005": "香川県観音寺市古川町102-1", "P29_006": "3", "P29_007": "1", "P29_008": "00", "P29_009": null }, "geometry": { "type": "Point", "coordinates": [ 133.697625806495097, 34.129832574366397 ] } },
{ "type": "Feature", "properties": { "P29_001": "37205", "P29_002": "B137220500083", "P29_003": "16001", "P29_004": "観音寺市立伊吹小学校", "P29_005": "香川県観音寺市伊吹町549", "P29_006": "3", "P29_007": "1", "P29_008": "00", "P29_009": null }, "geometry": { "type": "Point", "coordinates": [ 133.538993643835568, 34.128858301502092 ] } },
{ "type": "Feature", "properties": { "P29_001": "37205", "P29_002": "B137220500092", "P29_003": "16001", "P29_004": "観音寺市立大野原小学校", "P29_005": "香川県観音寺市大野原町大野原1905", "P29_006": "3", "P29_007": "1", "P29_008": "00", "P29_009": null }, "geometry": { "type": "Point", "coordinates": [ 133.664027642165792, 34.086868164723491 ] } },
{ "type": "Feature", "properties": { "P29_001": "37205", "P29_002": "B137220500109", "P29_003": "16001", "P29_004": "観音寺市立豊浜小学校", "P29_005": "香川県観音寺市豊浜町和田浜1000", "P29_006": "3", "P29_007": "1", "P29_008": "00", "P29_009": null }, "geometry": { "type": "Point", "coordinates": [ 133.64405683085181, 34.072105005489142 ] } },
{ "type": "Feature", "properties": { "P29_001": "37206", "P29_002": "B137220600019", "P29_003": "16001", "P29_004": "さぬき市立津田小学校", "P29_005": "香川県さぬき市津田町津田144", "P29_006": "3", "P29_007": "1", "P29_008": "00", "P29_009": null }, "geometry": { "type": "Point", "coordinates": [ 134.251966097055998, 34.28675448180546 ] } },
{ "type": "Feature", "properties": { "P29_001": "37206", "P29_002": "B137220600028", "P29_003": "16001", "P29_004": "さぬき市立さぬき南小学校", "P29_005": "香川県さぬき市大川町南川61", "P29_006": "3", "P29_007": "1", "P29_008": "00", "P29_009": null }, "geometry": { "type": "Point", "coordinates": [ 134.234072983694887, 34.25914366325604 ] } },
{ "type": "Feature", "properties": { "P29_001": "37206", "P29_002": "B137220600037", "P29_003": "16001", "P29_004": "さぬき市立志度小学校", "P29_005": "香川県さぬき市志度727", "P29_006": "3", "P29_007": "1", "P29_008": "00", "P29_009": null }, "geometry": { "type": "Point", "coordinates": [ 134.176698418197645, 34.319118696902727 ] } },
{ "type": "Feature", "properties": { "P29_001": "37206", "P29_002": "B137220600046", "P29_003": "16001", "P29_004": "さぬき市立さぬき北小学校", "P29_005": "香川県さぬき市鴨庄2947", "P29_006": "3", "P29_007": "1", "P29_008": "00", "P29_009": null }, "geometry": { "type": "Point", "coordinates": [ 134.206508003826173, 34.325683116411881 ] } },
{ "type": "Feature", "properties": { "P29_001": "37206", "P29_002": "B137220600055", "P29_003": "16001", "P29_004": "さぬき市立寒川小学校", "P29_005": "香川県さぬき市寒川町石田西812-1", "P29_006": "3", "P29_007": "1", "P29_008": "00", "P29_009": null }, "geometry": { "type": "Point", "coordinates": [ 134.19953478076485, 34.271721839931942 ] } },
{ "type": "Feature", "properties": { "P29_001": "37206", "P29_002": "B137220600064", "P29_003": "16001", "P29_004": "さぬき市立長尾小学校", "P29_005": "香川県さぬき市長尾東901-1", "P29_006": "3", "P29_007": "1", "P29_008": "00", "P29_009": null }, "geometry": { "type": "Point", "coordinates": [ 134.177076216469686, 34.264374300749097 ] } },
{ "type": "Feature", "properties": { "P29_001": "37206", "P29_002": "B137220600073", "P29_003": "16001", "P29_004": "さぬき市立造田小学校", "P29_005": "香川県さぬき市造田是弘688-1", "P29_006": "3", "P29_007": "1", "P29_008": "00", "P29_009": null }, "geometry": { "type": "Point", "coordinates": [ 134.18255876394349, 34.28336341376108 ] } },
{ "type": "Feature", "properties": { "P29_001": "37207", "P29_002": "B137220700018", "P29_003": "16001", "P29_004": "東かがわ市立引田小学校", "P29_005": "香川県東かがわ市引田545-1", "P29_006": "3", "P29_007": "1", "P29_008": "00", "P29_009": null }, "geometry": { "type": "Point", "coordinates": [ 134.403649155863718, 34.222206193513834 ] } },
{ "type": "Feature", "properties": { "P29_001": "37207", "P29_002": "B137220700027", "P29_003": "16001", "P29_004": "東かがわ市立白鳥小学校", "P29_005": "香川県東かがわ市白鳥757-1", "P29_006": "3", "P29_007": "1", "P29_008": "00", "P29_009": null }, "geometry": { "type": "Point", "coordinates": [ 134.35296595981572, 34.237154506072471 ] } },
{ "type": "Feature", "properties": { "P29_001": "37207", "P29_002": "B137220700036", "P29_003": "16001", "P29_004": "東かがわ市立大内小学校", "P29_005": "香川県東かがわ市西村1510", "P29_006": "3", "P29_007": "1", "P29_008": "00", "P29_009": null }, "geometry": { "type": "Point", "coordinates": [ 134.322331001094966, 34.24867800194518 ] } },
{ "type": "Feature", "properties": { "P29_001": "37208", "P29_002": "B137220800017", "P29_003": "16001", "P29_004": "三豊市立上高瀬小学校", "P29_005": "香川県三豊市高瀬町上高瀬783-2", "P29_006": "3", "P29_007": "1", "P29_008": "00", "P29_009": null }, "geometry": { "type": "Point", "coordinates": [ 133.725994669790936, 34.192370771938243 ] } },
{ "type": "Feature", "properties": { "P29_001": "37208", "P29_002": "B137220800026", "P29_003": "16001", "P29_004": "三豊市立勝間小学校", "P29_005": "香川県三豊市高瀬町下勝間803-1", "P29_006": "3", "P29_007": "1", "P29_008": "00", "P29_009": null }, "geometry": { "type": "Point", "coordinates": [ 133.725966567811611, 34.174536282598531 ] } },
{ "type": "Feature", "properties": { "P29_001": "37208", "P29_002": "B137220800035", "P29_003": "16001", "P29_004": "三豊市立比地小学校", "P29_005": "香川県三豊市高瀬町比地93-1", "P29_006": "3", "P29_007": "1", "P29_008": "00", "P29_009": null }, "geometry": { "type": "Point", "coordinates": [ 133.693863882311319, 34.179326777260485 ] } },
{ "type": "Feature", "properties": { "P29_001": "37208", "P29_002": "B137220800044", "P29_003": "16001", "P29_004": "三豊市立二ノ宮小学校", "P29_005": "香川県三豊市高瀬町佐股甲1497-1", "P29_006": "3", "P29_007": "1", "P29_008": "00", "P29_009": null }, "geometry": { "type": "Point", "coordinates": [ 133.741060665154464, 34.159102071979945 ] } },
{ "type": "Feature", "properties": { "P29_001": "37208", "P29_002": "B137220800053", "P29_003": "16001", "P29_004": "三豊市立麻小学校", "P29_005": "香川県三豊市高瀬町上麻3868", "P29_006": "3", "P29_007": "1", "P29_008": "00", "P29_009": null }, "geometry": { "type": "Point", "coordinates": [ 133.768131011650297, 34.176198038623959 ] } },
{ "type": "Feature", "properties": { "P29_001": "37208", "P29_002": "B137220800062", "P29_003": "16001", "P29_004": "三豊市立山本小学校", "P29_005": "香川県三豊市山本町大野6-1", "P29_006": "3", "P29_007": "1", "P29_008": "00", "P29_009": null }, "geometry": { "type": "Point", "coordinates": [ 133.733455002224872, 34.122555003356112 ] } },
{ "type": "Feature", "properties": { "P29_001": "37208", "P29_002": "B137220800071", "P29_003": "16001", "P29_004": "三豊市立大見小学校", "P29_005": "香川県三豊市三野町大見甲3034-4", "P29_006": "3", "P29_007": "1", "P29_008": "00", "P29_009": null }, "geometry": { "type": "Point", "coordinates": [ 133.715266549814174, 34.216443998616732 ] } },
{ "type": "Feature", "properties": { "P29_001": "37208", "P29_002": "B137220800080", "P29_003": "16001", "P29_004": "三豊市立下高瀬小学校", "P29_005": "香川県三豊市三野町下高瀬760-1", "P29_006": "3", "P29_007": "1", "P29_008": "00", "P29_009": null }, "geometry": { "type": "Point", "coordinates": [ 133.703309724311367, 34.203323683338297 ] } },
{ "type": "Feature", "properties": { "P29_001": "37208", "P29_002": "B137220800099", "P29_003": "16001", "P29_004": "三豊市立吉津小学校", "P29_005": "香川県三豊市三野町吉津乙1485-1", "P29_006": "3", "P29_007": "1", "P29_008": "00", "P29_009": null }, "geometry": { "type": "Point", "coordinates": [ 133.683283699036338, 34.201615925860146 ] } },
{ "type": "Feature", "properties": { "P29_001": "37208", "P29_002": "B137220800106", "P29_003": "16001", "P29_004": "三豊市立桑山小学校", "P29_005": "香川県三豊市豊中町岡本188-1", "P29_006": "3", "P29_007": "1", "P29_008": "00", "P29_009": null }, "geometry": { "type": "Point", "coordinates": [ 133.681684181368354, 34.1540128798529 ] } },
{ "type": "Feature", "properties": { "P29_001": "37208", "P29_002": "B137220800115", "P29_003": "16001", "P29_004": "三豊市立比地大小学校", "P29_005": "香川県三豊市豊中町比地大2514-1", "P29_006": "3", "P29_007": "1", "P29_008": "00", "P29_009": null }, "geometry": { "type": "Point", "coordinates": [ 133.689031749019733, 34.167683046545818 ] } },
{ "type": "Feature", "properties": { "P29_001": "37208", "P29_002": "B137220800124", "P29_003": "16001", "P29_004": "三豊市立笠田小学校", "P29_005": "香川県三豊市豊中町笠田笠岡2192-1", "P29_006": "3", "P29_007": "1", "P29_008": "00", "P29_009": null }, "geometry": { "type": "Point", "coordinates": [ 133.707042323273441, 34.157734559541645 ] } },
{ "type": "Feature", "properties": { "P29_001": "37208", "P29_002": "B137220800133", "P29_003": "16001", "P29_004": "三豊市立上高野小学校", "P29_005": "香川県三豊市豊中町上高野2384", "P29_006": "3", "P29_007": "1", "P29_008": "00", "P29_009": null }, "geometry": { "type": "Point", "coordinates": [ 133.707113293932451, 34.144419614663889 ] } },
{ "type": "Feature", "properties": { "P29_001": "37208", "P29_002": "B137220800142", "P29_003": "16001", "P29_004": "三豊市立本山小学校", "P29_005": "香川県三豊市豊中町本山甲1893-1", "P29_006": "3", "P29_007": "1", "P29_008": "00", "P29_009": null }, "geometry": { "type": "Point", "coordinates": [ 133.699761477640038, 34.140504757478396 ] } },
{ "type": "Feature", "properties": { "P29_001": "37208", "P29_002": "B137220800151", "P29_003": "16001", "P29_004": "三豊市立詫間小学校", "P29_005": "香川県三豊市詫間町詫間2158", "P29_006": "3", "P29_007": "1", "P29_008": "00", "P29_009": null }, "geometry": { "type": "Point", "coordinates": [ 133.667549707720525, 34.225058805079783 ] } },
{ "type": "Feature", "properties": { "P29_001": "37208", "P29_002": "B137220800160", "P29_003": "16001", "P29_004": "三豊市立松崎小学校", "P29_005": "香川県三豊市詫間町松崎722", "P29_006": "3", "P29_007": "1", "P29_008": "00", "P29_009": null }, "geometry": { "type": "Point", "coordinates": [ 133.694242346119637, 34.220814675123748 ] } },
{ "type": "Feature", "properties": { "P29_001": "37208", "P29_002": "B137220800179", "P29_003": "16001", "P29_004": "三豊市立仁尾小学校", "P29_005": "香川県三豊市仁尾町仁尾丙1736", "P29_006": "3", "P29_007": "1", "P29_008": "00", "P29_009": null }, "geometry": { "type": "Point", "coordinates": [ 133.652269315757792, 34.202913279241642 ] } },
{ "type": "Feature", "properties": { "P29_001": "37208", "P29_002": "B137220800188", "P29_003": "16001", "P29_004": "三豊市立曽保小学校", "P29_005": "香川県三豊市仁尾町仁尾甲1082", "P29_006": "3", "P29_007": "1", "P29_008": "00", "P29_009": null }, "geometry": { "type": "Point", "coordinates": [ 133.651244578546454, 34.174161522431632 ] } },
{ "type": "Feature", "properties": { "P29_001": "37208", "P29_002": "B137220800197", "P29_003": "16001", "P29_004": "三豊市立財田小学校", "P29_005": "香川県三豊市財田町財田中5325-1", "P29_006": "3", "P29_007": "1", "P29_008": "00", "P29_009": null }, "geometry": { "type": "Point", "coordinates": [ 133.770095332289117, 34.116882003458194 ] } },
{ "type": "Feature", "properties": { "P29_001": "37322", "P29_002": "B137232200018", "P29_003": "16001", "P29_004": "土庄町立土庄小学校", "P29_005": "香川県小豆郡土庄町渕崎甲2080-1", "P29_006": "3", "P29_007": "1", "P29_008": "00", "P29_009": null }, "geometry": { "type": "Point", "coordinates": [ 134.192131136889117, 34.48523429721476 ] } },
{ "type": "Feature", "properties": { "P29_001": "37322", "P29_002": "B137232200027", "P29_003": "16001", "P29_004": "土庄町立豊島小学校", "P29_005": "香川県小豆郡土庄町豊島家浦2516", "P29_006": "3", "P29_007": "1", "P29_008": "00", "P29_009": null }, "geometry": { "type": "Point", "coordinates": [ 134.061613840045226, 34.48461012995466 ] } },
{ "type": "Feature", "properties": { "P29_001": "37324", "P29_002": "B137232400016", "P29_003": "16001", "P29_004": "小豆島町立星城小学校", "P29_005": "香川県小豆郡小豆島町草壁本町632-1", "P29_006": "3", "P29_007": "1", "P29_008": "00", "P29_009": null }, "geometry": { "type": "Point", "coordinates": [ 134.300892716791623, 34.481381683505603 ] } },
{ "type": "Feature", "properties": { "P29_001": "37324", "P29_002": "B137232400025", "P29_003": "16001", "P29_004": "小豆島町立安田小学校", "P29_005": "香川県小豆郡小豆島町安田甲472-1", "P29_006": "3", "P29_007": "1", "P29_008": "00", "P29_009": null }, "geometry": { "type": "Point", "coordinates": [ 134.318643207763074, 34.484598287479997 ] } },
{ "type": "Feature", "properties": { "P29_001": "37324", "P29_002": "B137232400034", "P29_003": "16001", "P29_004": "小豆島町立苗羽小学校", "P29_005": "香川県小豆郡小豆島町苗羽甲1371-1", "P29_006": "3", "P29_007": "1", "P29_008": "00", "P29_009": null }, "geometry": { "type": "Point", "coordinates": [ 134.319611206019772, 34.470243640430752 ] } },
{ "type": "Feature", "properties": { "P29_001": "37324", "P29_002": "B137232400043", "P29_003": "16001", "P29_004": "小豆島町立池田小学校", "P29_005": "香川県小豆郡小豆島町池田1760", "P29_006": "3", "P29_007": "1", "P29_008": "00", "P29_009": null }, "geometry": { "type": "Point", "coordinates": [ 134.236548206799398, 34.479647721644341 ] } },
{ "type": "Feature", "properties": { "P29_001": "37341", "P29_002": "B137234100015", "P29_003": "16001", "P29_004": "三木町立平井小学校", "P29_005": "香川県木田郡三木町大字平木710-1", "P29_006": "3", "P29_007": "1", "P29_008": "00", "P29_009": null }, "geometry": { "type": "Point", "coordinates": [ 134.134985162878735, 34.277135190494796 ] } },
{ "type": "Feature", "properties": { "P29_001": "37341", "P29_002": "B137234100024", "P29_003": "16001", "P29_004": "三木町立田中小学校", "P29_005": "香川県木田郡三木町大字田中4620-2", "P29_006": "3", "P29_007": "1", "P29_008": "00", "P29_009": null }, "geometry": { "type": "Point", "coordinates": [ 134.120731430891567, 34.242295914565759 ] } },
{ "type": "Feature", "properties": { "P29_001": "37341", "P29_002": "B137234100033", "P29_003": "16001", "P29_004": "三木町立氷上小学校", "P29_005": "香川県木田郡三木町大字氷上2845", "P29_006": "3", "P29_007": "1", "P29_008": "00", "P29_009": null }, "geometry": { "type": "Point", "coordinates": [ 134.134541165308747, 34.254645267525262 ] } },
{ "type": "Feature", "properties": { "P29_001": "37341", "P29_002": "B137234100042", "P29_003": "16001", "P29_004": "三木町立白山小学校", "P29_005": "香川県木田郡三木町大字下高岡352-1", "P29_006": "3", "P29_007": "1", "P29_008": "00", "P29_009": null }, "geometry": { "type": "Point", "coordinates": [ 134.154873404299735, 34.259454489559161 ] } },
{ "type": "Feature", "properties": { "P29_001": "37364", "P29_002": "B137236400017", "P29_003": "16001", "P29_004": "直島町立直島小学校", "P29_005": "香川県香川郡直島町1600", "P29_006": "3", "P29_007": "1", "P29_008": "00", "P29_009": null }, "geometry": { "type": "Point", "coordinates": [ 133.986185259736288, 34.458911991613135 ] } },
{ "type": "Feature", "properties": { "P29_001": "37386", "P29_002": "B137238600011", "P29_003": "16001", "P29_004": "宇多津町立宇多津小学校", "P29_005": "香川県綾歌郡宇多津町815", "P29_006": "3", "P29_007": "1", "P29_008": "00", "P29_009": null }, "geometry": { "type": "Point", "coordinates": [ 133.835799253406975, 34.303223710914907 ] } },
{ "type": "Feature", "properties": { "P29_001": "37386", "P29_002": "B137238600020", "P29_003": "16001", "P29_004": "宇多津町立宇多津北小学校", "P29_005": "香川県綾歌郡宇多津町浜八番丁115", "P29_006": "3", "P29_007": "1", "P29_008": "00", "P29_009": null }, "geometry": { "type": "Point", "coordinates": [ 133.819166993563897, 34.309991878055214 ] } },
{ "type": "Feature", "properties": { "P29_001": "37387", "P29_002": "B137238700010", "P29_003": "16001", "P29_004": "綾川町立綾上小学校", "P29_005": "香川県綾歌郡綾川町山田上甲1494-1", "P29_006": "3", "P29_007": "1", "P29_008": "00", "P29_009": null }, "geometry": { "type": "Point", "coordinates": [ 133.969793237157518, 34.217890337417515 ] } },
{ "type": "Feature", "properties": { "P29_001": "37387", "P29_002": "B137238700029", "P29_003": "16001", "P29_004": "綾川町立昭和小学校", "P29_005": "香川県綾歌郡綾川町畑田2373-1", "P29_006": "3", "P29_007": "1", "P29_008": "00", "P29_009": null }, "geometry": { "type": "Point", "coordinates": [ 133.979319367440581, 34.247319648645195 ] } },
{ "type": "Feature", "properties": { "P29_001": "37387", "P29_002": "B137238700038", "P29_003": "16001", "P29_004": "綾川町立陶小学校", "P29_005": "香川県綾歌郡綾川町陶5878-1", "P29_006": "3", "P29_007": "1", "P29_008": "00", "P29_009": null }, "geometry": { "type": "Point", "coordinates": [ 133.951355946744144, 34.25342609442562 ] } },
{ "type": "Feature", "properties": { "P29_001": "37387", "P29_002": "B137238700047", "P29_003": "16001", "P29_004": "綾川町立滝宮小学校", "P29_005": "香川県綾歌郡綾川町滝宮1095-1", "P29_006": "3", "P29_007": "1", "P29_008": "00", "P29_009": null }, "geometry": { "type": "Point", "coordinates": [ 133.922395652947387, 34.245742505081857 ] } },
{ "type": "Feature", "properties": { "P29_001": "37387", "P29_002": "B137238700056", "P29_003": "16001", "P29_004": "綾川町立羽床小学校", "P29_005": "香川県綾歌郡綾川町羽床下2256", "P29_006": "3", "P29_007": "1", "P29_008": "00", "P29_009": null }, "geometry": { "type": "Point", "coordinates": [ 133.905808460425675, 34.235334219338768 ] } },
{ "type": "Feature", "properties": { "P29_001": "37403", "P29_002": "B137240300010", "P29_003": "16001", "P29_004": "琴平町立琴平小学校", "P29_005": "香川県仲多度郡琴平町145-1", "P29_006": "3", "P29_007": "1", "P29_008": "00", "P29_009": null }, "geometry": { "type": "Point", "coordinates": [ 133.822981481475352, 34.188154950946043 ] } },
{ "type": "Feature", "properties": { "P29_001": "37403", "P29_002": "B137240300029", "P29_003": "16001", "P29_004": "琴平町立象郷小学校", "P29_005": "香川県仲多度郡琴平町上櫛梨26", "P29_006": "3", "P29_007": "1", "P29_008": "00", "P29_009": null }, "geometry": { "type": "Point", "coordinates": [ 133.816266772920102, 34.206019032605205 ] } },
{ "type": "Feature", "properties": { "P29_001": "37403", "P29_002": "B137240300038", "P29_003": "16001", "P29_004": "琴平町立榎井小学校", "P29_005": "香川県仲多度郡琴平町榎井58-3", "P29_006": "3", "P29_007": "1", "P29_008": "00", "P29_009": null }, "geometry": { "type": "Point", "coordinates": [ 133.829747000330656, 34.190174999964086 ] } },
{ "type": "Feature", "properties": { "P29_001": "37404", "P29_002": "B137240400019", "P29_003": "16001", "P29_004": "多度津町立多度津小学校", "P29_005": "香川県仲多度郡多度津町栄町3-1-9", "P29_006": "3", "P29_007": "1", "P29_008": "00", "P29_009": null }, "geometry": { "type": "Point", "coordinates": [ 133.754039587277873, 34.271440126314424 ] } },
{ "type": "Feature", "properties": { "P29_001": "37404", "P29_002": "B137240400028", "P29_003": "16001", "P29_004": "多度津町立豊原小学校", "P29_005": "香川県仲多度郡多度津町南鴨704", "P29_006": "3", "P29_007": "1", "P29_008": "00", "P29_009": null }, "geometry": { "type": "Point", "coordinates": [ 133.765743424325848, 34.266392105145236 ] } },
{ "type": "Feature", "properties": { "P29_001": "37404", "P29_002": "B137240400037", "P29_003": "16001", "P29_004": "多度津町立四箇小学校", "P29_005": "香川県仲多度郡多度津町大字三井433-1", "P29_006": "3", "P29_007": "1", "P29_008": "00", "P29_009": null }, "geometry": { "type": "Point", "coordinates": [ 133.75321194994018, 34.252722239038789 ] } },
{ "type": "Feature", "properties": { "P29_001": "37404", "P29_002": "B137240400046", "P29_003": "16001", "P29_004": "多度津町立白方小学校", "P29_005": "香川県仲多度郡多度津町大字奥白方1142", "P29_006": "3", "P29_007": "1", "P29_008": "00", "P29_009": null }, "geometry": { "type": "Point", "coordinates": [ 133.731779429530548, 34.250545220263319 ] } },
{ "type": "Feature", "properties": { "P29_001": "37406", "P29_002": "B137240600017", "P29_003": "16001", "P29_004": "まんのう町立琴南小学校", "P29_005": "香川県仲多度郡まんのう町造田1984-1", "P29_006": "3", "P29_007": "1", "P29_008": "00", "P29_009": null }, "geometry": { "type": "Point", "coordinates": [ 133.926300924570199, 34.16438439714895 ] } },
{ "type": "Feature", "properties": { "P29_001": "37406", "P29_002": "B137240600026", "P29_003": "16001", "P29_004": "まんのう町立高篠小学校", "P29_005": "香川県仲多度郡まんのう町東高篠139", "P29_006": "3", "P29_007": "1", "P29_008": "00", "P29_009": null }, "geometry": { "type": "Point", "coordinates": [ 133.828250126707218, 34.214330050652727 ] } },
{ "type": "Feature", "properties": { "P29_001": "37406", "P29_002": "B137240600035", "P29_003": "16001", "P29_004": "まんのう町立四条小学校", "P29_005": "香川県仲多度郡まんのう町四條732", "P29_006": "3", "P29_007": "1", "P29_008": "00", "P29_009": null }, "geometry": { "type": "Point", "coordinates": [ 133.838141575799682, 34.194211315337952 ] } },
{ "type": "Feature", "properties": { "P29_001": "37406", "P29_002": "B137240600044", "P29_003": "16001", "P29_004": "まんのう町立長炭小学校", "P29_005": "香川県仲多度郡まんのう町炭所西1431-2", "P29_006": "3", "P29_007": "1", "P29_008": "00", "P29_009": null }, "geometry": { "type": "Point", "coordinates": [ 133.881089929298014, 34.183552936668029 ] } },
{ "type": "Feature", "properties": { "P29_001": "37406", "P29_002": "B137240600053", "P29_003": "16001", "P29_004": "まんのう町立満濃南小学校", "P29_005": "香川県仲多度郡まんのう町吉野74", "P29_006": "3", "P29_007": "1", "P29_008": "00", "P29_009": null }, "geometry": { "type": "Point", "coordinates": [ 133.853001419534309, 34.184671170624526 ] } },
{ "type": "Feature", "properties": { "P29_001": "37406", "P29_002": "B137240600062", "P29_003": "16001", "P29_004": "まんのう町立仲南小学校", "P29_005": "香川県仲多度郡まんのう町帆山743", "P29_006": "3", "P29_007": "1", "P29_008": "00", "P29_009": null }, "geometry": { "type": "Point", "coordinates": [ 133.839763881632024, 34.153549148548201 ] } }
]
}
