{
"type": "FeatureCollection",
"name": "geo_37_短期大学",
"crs": { "type": "name", "properties": { "name": "urn:ogc:def:crs:EPSG::6668" } },
"features": [
{ "type": "Feature", "properties": { "P29_001": "37386", "P29_002": "F237310110351", "P29_003": "16006", "P29_004": "香川短期大学", "P29_005": "香川県綾歌郡宇多津町浜一番丁10", "P29_006": "4", "P29_007": "0", "P29_008": "00", "P29_009": null }, "geometry": { "type": "Point", "coordinates": [ 133.808549836163593, 34.309850702685573 ] } },
{ "type": "Feature", "properties": { "P29_001": "37201", "P29_002": "F237310110360", "P29_003": "16006", "P29_004": "高松短期大学", "P29_005": "香川県高松市春日町960", "P29_006": "4", "P29_007": "0", "P29_008": "00", "P29_009": null }, "geometry": { "type": "Point", "coordinates": [ 134.087620977587278, 34.329621223295867 ] } },
{ "type": "Feature", "properties": { "P29_001": "37201", "P29_002": "F237310111939", "P29_003": "16006", "P29_004": "せとうち観光専門職短期大学", "P29_005": "香川県高松市屋島西町2366-1", "P29_006": "4", "P29_007": "0", "P29_008": "00", "P29_009": null }, "geometry": { "type": "Point", "coordinates": [ 134.08496523731219, 34.346869928368676 ] } }
]
}
