{
"type": "FeatureCollection",
"name": "geo_37_介護老人保健施設",
"crs": { "type": "name", "properties": { "name": "urn:ogc:def:crs:OGC:1.3:CRS84" } },
"features": [
{ "type": "Feature", "properties": { "内容": "介護老人保健施設サンライズ屋島【介護老人保健施設】香川県高松市新田町甲2723番地2", "url": "https://www.kaigokensaku.mhlw.go.jp/37/index.php?action_kouhyou_detail_004_kani=true&JigyosyoCd=3750180055-00&ServiceCd=520&Type=search", "url2": "https://www.sunrise-yashima.com" }, "geometry": { "type": "Point", "coordinates": [ 134.099303100000043, 34.3292505 ] } },
{ "type": "Feature", "properties": { "内容": "介護老人保健施設　ヴィヴァン【介護老人保健施設】香川県高松市木太町4443-1", "url": "https://www.kaigokensaku.mhlw.go.jp/37/index.php?action_kouhyou_detail_004_kani=true&JigyosyoCd=3750180063-00&ServiceCd=520&Type=search", "url2": "http://vivant.jp.net/" }, "geometry": { "type": "Point", "coordinates": [ 134.079200600000036, 34.3099799 ] } },
{ "type": "Feature", "properties": { "内容": "介護老人保健施設　さつき荘【介護老人保健施設】高松市三谷町1680番地", "url": "https://www.kaigokensaku.mhlw.go.jp/37/index.php?action_kouhyou_detail_004_kani=true&JigyosyoCd=3750180089-00&ServiceCd=520&Type=search", "url2": "https://seimeikai.jp/satsuki/" }, "geometry": { "type": "Point", "coordinates": [ 134.059942, 34.2798723 ] } },
{ "type": "Feature", "properties": { "内容": "介護老人保健施設ロイヤル三好【介護老人保健施設】香川県高松市下田井町628-1", "url": "https://www.kaigokensaku.mhlw.go.jp/37/index.php?action_kouhyou_detail_004_kani=true&JigyosyoCd=3750180097-00&ServiceCd=520&Type=search", "url2": null }, "geometry": { "type": "Point", "coordinates": [ 134.089196799999968, 34.2902047 ] } },
{ "type": "Feature", "properties": { "内容": "介護老人保健施設　渡の里【介護老人保健施設】高松市香川町浅野2061番地", "url": "https://www.kaigokensaku.mhlw.go.jp/37/index.php?action_kouhyou_detail_004_kani=true&JigyosyoCd=3750180147-00&ServiceCd=520&Type=search", "url2": "http://www.jinsenkai.jp/watashi/" }, "geometry": { "type": "Point", "coordinates": [ 134.041880399999968, 34.2513122 ] } },
{ "type": "Feature", "properties": { "内容": "介護老人保健施設　鮎の里【介護老人保健施設】香川県高松市香川町川東上150番地1", "url": "https://www.kaigokensaku.mhlw.go.jp/37/index.php?action_kouhyou_detail_004_kani=true&JigyosyoCd=3751480033-00&ServiceCd=520&Type=search", "url2": "http://www.jinsenkai.jp/ayu/" }, "geometry": { "type": "Point", "coordinates": [ 134.034368500000028, 34.2137707 ] } },
{ "type": "Feature", "properties": { "内容": "介護老人保健施設　明けの星【介護老人保健施設】香川県高松市番町三丁目３－１", "url": "https://www.kaigokensaku.mhlw.go.jp/37/index.php?action_kouhyou_detail_004_kani=true&JigyosyoCd=3750180030-00&ServiceCd=520&Type=search", "url2": "http://akenohoshi.main.jp/" }, "geometry": { "type": "Point", "coordinates": [ 134.0422992, 34.3427767 ] } },
{ "type": "Feature", "properties": { "内容": "介護老人保健施設サンフラワー【介護老人保健施設】香川県高松市一宮町1556-2", "url": "https://www.kaigokensaku.mhlw.go.jp/37/index.php?action_kouhyou_detail_004_kani=true&JigyosyoCd=3750180113-00&ServiceCd=520&Type=search", "url2": "https://www.tanimoto-c.or.jp/connection/sunflower_roken/" }, "geometry": { "type": "Point", "coordinates": [ 134.020107422090149, 34.290279589814084 ] } },
{ "type": "Feature", "properties": { "内容": "介護老人保健施設　香南苑【介護老人保健施設】香川県高松市香南町池内701番地", "url": "https://www.kaigokensaku.mhlw.go.jp/37/index.php?action_kouhyou_detail_004_kani=true&JigyosyoCd=3751480017-00&ServiceCd=520&Type=search", "url2": "https://kounanen.com" }, "geometry": { "type": "Point", "coordinates": [ 133.997615097622656, 34.250302900000015 ] } },
{ "type": "Feature", "properties": { "内容": "医療法人　和光会　高松老人保健施設フローラ【介護老人保健施設】香川県高松市東ハゼ町８３０－１", "url": "https://www.kaigokensaku.mhlw.go.jp/37/index.php?action_kouhyou_detail_004_kani=true&JigyosyoCd=3750180014-00&ServiceCd=520&Type=search", "url2": "http://k-rouken.com/facilities/index.php?facility_id=2" }, "geometry": { "type": "Point", "coordinates": [ 134.03921420000006, 34.3204982 ] } },
{ "type": "Feature", "properties": { "内容": "介護老人保健施設　ハピネス【介護老人保健施設】香川県高松市中山町741番地1", "url": "https://www.kaigokensaku.mhlw.go.jp/37/index.php?action_kouhyou_detail_004_kani=true&JigyosyoCd=3750180048-00&ServiceCd=520&Type=search", "url2": "http://www.shinboukai.net/" }, "geometry": { "type": "Point", "coordinates": [ 133.972836, 34.3562904 ] } },
{ "type": "Feature", "properties": { "内容": "介護老人保健施設虹の里【介護老人保健施設】香川県高松市栗林町一丁目3番24号", "url": "https://www.kaigokensaku.mhlw.go.jp/37/index.php?action_kouhyou_detail_004_kani=true&JigyosyoCd=3750180071-00&ServiceCd=520&Type=search", "url2": "https://kagawa.coop" }, "geometry": { "type": "Point", "coordinates": [ 134.04682170000001, 34.3318083 ] } },
{ "type": "Feature", "properties": { "内容": "介護老人保健施設　ハートフルこくぶんじ荘【介護老人保健施設】香川県高松市国分寺町新名2081番地1", "url": "https://www.kaigokensaku.mhlw.go.jp/37/index.php?action_kouhyou_detail_004_kani=true&JigyosyoCd=3750180154-00&ServiceCd=520&Type=search", "url2": null }, "geometry": { "type": "Point", "coordinates": [ 133.952387700000031, 34.2730054 ] } },
{ "type": "Feature", "properties": { "内容": "老人保健施設　健祥会バーデン【介護老人保健施設】香川県高松市塩江町安原上東137番地", "url": "https://www.kaigokensaku.mhlw.go.jp/37/index.php?action_kouhyou_detail_004_kani=true&JigyosyoCd=3751480025-00&ServiceCd=520&Type=search", "url2": "https://www.kenshokai.group/" }, "geometry": { "type": "Point", "coordinates": [ 134.0818203, 34.1712382 ] } },
{ "type": "Feature", "properties": { "内容": "介護老人保健施設　まゆみの里【介護老人保健施設】香川県高松市木太町２６９１番１", "url": "https://www.kaigokensaku.mhlw.go.jp/37/index.php?action_kouhyou_detail_004_kani=true&JigyosyoCd=3750180139-00&ServiceCd=520&Type=search", "url2": "http://satokikai.jp/sato/" }, "geometry": { "type": "Point", "coordinates": [ 134.08149370000001, 34.3401188 ] } },
{ "type": "Feature", "properties": { "内容": "介護老人保健施設らく楽八栗の里【介護老人保健施設】香川県高松市牟礼町牟礼239番地3", "url": "https://www.kaigokensaku.mhlw.go.jp/37/index.php?action_kouhyou_detail_004_kani=true&JigyosyoCd=3750180170-00&ServiceCd=520&Type=search", "url2": "http://www.rakuraku-group.jp/" }, "geometry": { "type": "Point", "coordinates": [ 134.1361661, 34.3398562 ] } },
{ "type": "Feature", "properties": { "内容": "介護老人保健施設すこやか苑【介護老人保健施設】香川県丸亀市郡家町2472番", "url": "https://www.kaigokensaku.mhlw.go.jp/37/index.php?action_kouhyou_detail_004_kani=true&JigyosyoCd=3750280038-00&ServiceCd=520&Type=search", "url2": "http://www.k-ih.com" }, "geometry": { "type": "Point", "coordinates": [ 133.809702199999947, 34.2558408 ] } },
{ "type": "Feature", "properties": { "内容": "介護老人保健施設　桃源苑【介護老人保健施設】香川県丸亀市飯山町下法軍寺８６５－１", "url": "https://www.kaigokensaku.mhlw.go.jp/37/index.php?action_kouhyou_detail_004_kani=true&JigyosyoCd=3751580048-00&ServiceCd=520&Type=search", "url2": "http://www.kensui-kai.or.jp/tougenen/" }, "geometry": { "type": "Point", "coordinates": [ 133.855387899999982, 34.252594 ] } },
{ "type": "Feature", "properties": { "内容": "介護老人保健施設　瀬戸荘【介護老人保健施設】丸亀市綾歌町岡田下３６５", "url": "https://www.kaigokensaku.mhlw.go.jp/37/index.php?action_kouhyou_detail_004_kani=true&JigyosyoCd=3751580014-00&ServiceCd=520&Type=search", "url2": "http://www.netwave.or.jp/~setosou/" }, "geometry": { "type": "Point", "coordinates": [ 133.861329899999987, 34.2235086 ] } },
{ "type": "Feature", "properties": { "内容": "介護老人保健施設　福寿荘【介護老人保健施設】香川県丸亀市柞原町187番地1", "url": "https://www.kaigokensaku.mhlw.go.jp/37/index.php?action_kouhyou_detail_004_kani=true&JigyosyoCd=3750280012-00&ServiceCd=520&Type=search", "url2": "https://www.mifune-hp.jp/" }, "geometry": { "type": "Point", "coordinates": [ 133.805935800000043, 34.2663979 ] } },
{ "type": "Feature", "properties": { "内容": "介護老人保健施設　あおのやま【介護老人保健施設】香川県丸亀市土器町東四丁目７８番地３", "url": "https://www.kaigokensaku.mhlw.go.jp/37/index.php?action_kouhyou_detail_004_kani=true&JigyosyoCd=3750280020-00&ServiceCd=520&Type=search", "url2": "https://houjyuen.web.fc2.com/index.html" }, "geometry": { "type": "Point", "coordinates": [ 133.820138899999961, 34.2919559 ] } },
{ "type": "Feature", "properties": { "内容": "介護老人保健施設　城山苑【介護老人保健施設】坂出市川津町1493番地", "url": "https://www.kaigokensaku.mhlw.go.jp/37/index.php?action_kouhyou_detail_004_kani=true&JigyosyoCd=3750380051-00&ServiceCd=520&Type=search", "url2": "http://www.kbn.ne.jp/home/kym0007" }, "geometry": { "type": "Point", "coordinates": [ 133.869985700000029, 34.2917282 ] } },
{ "type": "Feature", "properties": { "内容": "介護老人保健施設　小山荘【介護老人保健施設】香川県坂出市小山町1番62号", "url": "https://www.kaigokensaku.mhlw.go.jp/37/index.php?action_kouhyou_detail_004_kani=true&JigyosyoCd=3750380028-00&ServiceCd=520&Type=search", "url2": "https://koyamasou.jimdofree.com" }, "geometry": { "type": "Point", "coordinates": [ 133.8525067, 34.2994335 ] } },
{ "type": "Feature", "properties": { "内容": "介護老人保健施設五色台【介護老人保健施設】香川県坂出市加茂町194番地1", "url": "https://www.kaigokensaku.mhlw.go.jp/37/index.php?action_kouhyou_detail_004_kani=true&JigyosyoCd=3750380036-00&ServiceCd=520&Type=search", "url2": "http://www.goshikidai.or.jp" }, "geometry": { "type": "Point", "coordinates": [ 133.922638600000028, 34.3025945 ] } },
{ "type": "Feature", "properties": { "内容": "介護老人保健施設　松寿荘【介護老人保健施設】香川県坂出市大屋冨町３１００番地２６", "url": "https://www.kaigokensaku.mhlw.go.jp/37/index.php?action_kouhyou_detail_004_kani=true&JigyosyoCd=3750380044-00&ServiceCd=520&Type=search", "url2": "http://www.shouju.or.jp/" }, "geometry": { "type": "Point", "coordinates": [ 133.893514200000027, 34.3559393 ] } },
{ "type": "Feature", "properties": { "内容": "介護老人保健施設　ハートフルねんりん荘【介護老人保健施設】香川県善通寺市中村町851-1", "url": "https://www.kaigokensaku.mhlw.go.jp/37/index.php?action_kouhyou_detail_004_kani=true&JigyosyoCd=3750480026-00&ServiceCd=520&Type=search", "url2": "http://www.junshinkai/com/facilitie/heartfull_n.html" }, "geometry": { "type": "Point", "coordinates": [ 133.763865, 34.244683 ] } },
{ "type": "Feature", "properties": { "内容": "介護老人保健施設　ひうち荘【介護老人保健施設】香川県観音寺市大野原町内野々394番地1", "url": "https://www.kaigokensaku.mhlw.go.jp/37/index.php?action_kouhyou_detail_004_kani=true&JigyosyoCd=3751780010-00&ServiceCd=520&Type=search", "url2": "http://onoharahukushi.com" }, "geometry": { "type": "Point", "coordinates": [ 133.700676299999941, 34.0600466 ] } },
{ "type": "Feature", "properties": { "内容": "介護老人保健施設　はがみ苑【介護老人保健施設】香川県観音寺市原町1273番地3", "url": "https://www.kaigokensaku.mhlw.go.jp/37/index.php?action_kouhyou_detail_004_kani=true&JigyosyoCd=3750580015-00&ServiceCd=520&Type=search", "url2": "http://care-net.biz/37/hagami/" }, "geometry": { "type": "Point", "coordinates": [ 133.692908500000016, 34.1063298 ] } },
{ "type": "Feature", "properties": { "内容": "三豊総合病院企業団介護老人保健施設わたつみ苑【介護老人保健施設】香川県観音寺市豊浜町姫浜1260番地1", "url": "https://www.kaigokensaku.mhlw.go.jp/37/index.php?action_kouhyou_detail_004_kani=true&JigyosyoCd=3751780051-00&ServiceCd=520&Type=search", "url2": "http://www.mitoyo-hosp.jp" }, "geometry": { "type": "Point", "coordinates": [ 133.642027900000045, 34.08110520000001 ] } },
{ "type": "Feature", "properties": { "内容": "介護老人保健施設観音寺ケアセンター【介護老人保健施設】観音寺市村黒町750番地", "url": "https://www.kaigokensaku.mhlw.go.jp/37/index.php?action_kouhyou_detail_004_kani=true&JigyosyoCd=3750580023-00&ServiceCd=520&Type=search", "url2": null }, "geometry": { "type": "Point", "coordinates": [ 133.6660723, 34.1329518 ] } },
{ "type": "Feature", "properties": { "内容": "介護老人保健施設かわた【介護老人保健施設】香川県観音寺市茂木町五丁目5番32号", "url": "https://www.kaigokensaku.mhlw.go.jp/37/index.php?action_kouhyou_detail_004_kani=true&JigyosyoCd=3750580031-00&ServiceCd=520&Type=search", "url2": null }, "geometry": { "type": "Point", "coordinates": [ 138.252924, 36.204824 ] } },
{ "type": "Feature", "properties": { "内容": "介護老人保健施設　ポタラの森【介護老人保健施設】香川県さぬき市志度1102番地3", "url": "https://www.kaigokensaku.mhlw.go.jp/37/index.php?action_kouhyou_detail_004_kani=true&JigyosyoCd=3751180039-00&ServiceCd=520&Type=search", "url2": "http://www.potara.jp" }, "geometry": { "type": "Point", "coordinates": [ 134.179985100000067, 34.3247015 ] } },
{ "type": "Feature", "properties": { "内容": "老人保健施設さわやか荘【介護老人保健施設】香川県さぬき市津田町津田２２０７番地", "url": "https://www.kaigokensaku.mhlw.go.jp/37/index.php?action_kouhyou_detail_004_kani=true&JigyosyoCd=3751180047-00&ServiceCd=520&Type=search", "url2": "https://sawayakakaigo.or.jp/" }, "geometry": { "type": "Point", "coordinates": [ 134.2389743, 34.2944693 ] } },
{ "type": "Feature", "properties": { "内容": "介護老人保健施設悠々荘【介護老人保健施設】香川県さぬき市昭和１００５－５", "url": "https://www.kaigokensaku.mhlw.go.jp/37/index.php?action_kouhyou_detail_004_kani=true&JigyosyoCd=3751180021-00&ServiceCd=520&Type=search", "url2": "https://syunkidou.or.jp/" }, "geometry": { "type": "Point", "coordinates": [ 134.165043299999979, 34.2471772 ] } },
{ "type": "Feature", "properties": { "内容": "介護老人保健施設ヌーベルさんがわ【介護老人保健施設】香川県さぬき市寒川町石田東甲170番地", "url": "https://www.kaigokensaku.mhlw.go.jp/37/index.php?action_kouhyou_detail_004_kani=true&JigyosyoCd=3751180054-00&ServiceCd=520&Type=search", "url2": "http://www.yu-sho.or.jp" }, "geometry": { "type": "Point", "coordinates": [ 134.20267437581029, 34.26782741309809 ] } },
{ "type": "Feature", "properties": { "内容": "介護老人保健施設リリックケアセンター【介護老人保健施設】香川県東かがわ市湊1867番地2", "url": "https://www.kaigokensaku.mhlw.go.jp/37/index.php?action_kouhyou_detail_004_kani=true&JigyosyoCd=3751180013-00&ServiceCd=520&Type=search", "url2": "http://www.zuishou.net/" }, "geometry": { "type": "Point", "coordinates": [ 134.361002271580446, 34.24278671779242 ] } },
{ "type": "Feature", "properties": { "内容": "介護老人保健施設ひまわり【介護老人保健施設】東かがわ市三本松１６６５－１", "url": "https://www.kaigokensaku.mhlw.go.jp/37/index.php?action_kouhyou_detail_004_kani=true&JigyosyoCd=3751180062-00&ServiceCd=520&Type=search", "url2": "http://www.ohta-medical.org/roken/" }, "geometry": { "type": "Point", "coordinates": [ 134.337955700000066, 34.2471521 ] } },
{ "type": "Feature", "properties": { "内容": "介護老人保健施設宝壽苑【介護老人保健施設】香川県三豊市高瀬町上高瀬712番地3", "url": "https://www.kaigokensaku.mhlw.go.jp/37/index.php?action_kouhyou_detail_004_kani=true&JigyosyoCd=3750880019-00&ServiceCd=520&Type=search", "url2": "http://houjyukai.info/" }, "geometry": { "type": "Point", "coordinates": [ 133.726256599999942, 34.1984061 ] } },
{ "type": "Feature", "properties": { "内容": "介護老人保健施設　白寿の杜【介護老人保健施設】香川県三豊市詫間町詫間1338番地170", "url": "https://www.kaigokensaku.mhlw.go.jp/37/index.php?action_kouhyou_detail_004_kani=true&JigyosyoCd=3751780044-00&ServiceCd=520&Type=search", "url2": "http://hakujunomori.jp" }, "geometry": { "type": "Point", "coordinates": [ 133.673260699999986, 34.2221153 ] } },
{ "type": "Feature", "properties": { "内容": "介護老人保健施設　ハートフルあいあい荘【介護老人保健施設】香川県三豊市仁尾町仁尾辛42-14", "url": "https://www.kaigokensaku.mhlw.go.jp/37/index.php?action_kouhyou_detail_004_kani=true&JigyosyoCd=3751780036-00&ServiceCd=520&Type=search", "url2": "http://www.junshinkai.com/facilitie/heartfull_a.html" }, "geometry": { "type": "Point", "coordinates": [ 133.643886400000042, 34.1922079 ] } },
{ "type": "Feature", "properties": { "内容": "介護老人保健施設みの荘【介護老人保健施設】香川県三豊市三野町大見乙９１番地８", "url": "https://www.kaigokensaku.mhlw.go.jp/37/index.php?action_kouhyou_detail_004_kani=true&JigyosyoCd=3751780028-00&ServiceCd=520&Type=search", "url2": "http://minofukushikai.sun-age.or.jp" }, "geometry": { "type": "Point", "coordinates": [ 133.7206251, 34.2266288 ] } },
{ "type": "Feature", "properties": { "内容": "介護老人保健施設うちのみ【介護老人保健施設】香川県小豆郡小豆島町片城甲44番地95", "url": "https://www.kaigokensaku.mhlw.go.jp/37/index.php?action_kouhyou_detail_004_kani=true&JigyosyoCd=3751280037-00&ServiceCd=520&Type=search", "url2": null }, "geometry": { "type": "Point", "coordinates": [ 134.308230737434457, 34.479350390816727 ] } },
{ "type": "Feature", "properties": { "内容": "介護老人保健施設　豊寿園【介護老人保健施設】香川県小豆郡小豆島町池田799", "url": "https://www.kaigokensaku.mhlw.go.jp/37/index.php?action_kouhyou_detail_004_kani=true&JigyosyoCd=3751280011-00&ServiceCd=520&Type=search", "url2": "kaigosite@mx82.tiki.ne.jp" }, "geometry": { "type": "Point", "coordinates": [ 134.2300209, 34.4841259 ] } },
{ "type": "Feature", "properties": { "内容": "介護老人保健施設ライトハートいきいき荘【介護老人保健施設】綾歌郡宇多津町浜5番丁53-1", "url": "https://www.kaigokensaku.mhlw.go.jp/37/index.php?action_kouhyou_detail_004_kani=true&JigyosyoCd=3751580030-00&ServiceCd=520&Type=search", "url2": "http://www.utazufukushikai.or.jp" }, "geometry": { "type": "Point", "coordinates": [ 133.812731, 34.307187400000018 ] } },
{ "type": "Feature", "properties": { "内容": "介護老人保健施設あやがわ【介護老人保健施設】香川県綾歌郡綾川町陶1720番地1", "url": "https://www.kaigokensaku.mhlw.go.jp/37/index.php?action_kouhyou_detail_004_kani=true&JigyosyoCd=3751580055-00&ServiceCd=520&Type=search", "url2": "https://www.jadecom.or.jp/hospital/ayagawa.html" }, "geometry": { "type": "Point", "coordinates": [ 133.943477700000017, 34.2595458 ] } },
{ "type": "Feature", "properties": { "内容": "介護老人保健施設　あやがわ（多床室）【介護老人保健施設】香川県綾歌郡綾川町陶1720番地1", "url": "https://www.kaigokensaku.mhlw.go.jp/37/index.php?action_kouhyou_detail_004_kani=true&JigyosyoCd=3751580063-00&ServiceCd=520&Type=search", "url2": "https://www.jadecom.or.jp/hospital/ayagawa.html" }, "geometry": { "type": "Point", "coordinates": [ 133.943477700000017, 34.2595458 ] } },
{ "type": "Feature", "properties": { "内容": "介護老人保健施設　ふぁみりえ【介護老人保健施設】香川県仲多度郡琴平町378番地1", "url": "https://www.kaigokensaku.mhlw.go.jp/37/index.php?action_kouhyou_detail_004_kani=true&JigyosyoCd=3751680012-00&ServiceCd=520&Type=search", "url2": "http://www:ritmo.or.jp/ohnishi" }, "geometry": { "type": "Point", "coordinates": [ 133.817458206823773, 34.193034293876025 ] } },
{ "type": "Feature", "properties": { "内容": "介護老人保健施設　やすらぎの森【介護老人保健施設】香川県仲多度郡多度津町寿町７番３号", "url": "https://www.kaigokensaku.mhlw.go.jp/37/index.php?action_kouhyou_detail_004_kani=true&JigyosyoCd=3751680020-00&ServiceCd=520&Type=search", "url2": "http://katouhp.net/" }, "geometry": { "type": "Point", "coordinates": [ 133.75882660000002, 34.2701493 ] } },
{ "type": "Feature", "properties": { "内容": "介護老人保健施設グリーンヒル満濃【介護老人保健施設】香川県仲多度郡まんのう町岸上1638番地30", "url": "https://www.kaigokensaku.mhlw.go.jp/37/index.php?action_kouhyou_detail_004_kani=true&JigyosyoCd=3751680038-00&ServiceCd=520&Type=search", "url2": "http://greenhillmannou.web.fc2.com/" }, "geometry": { "type": "Point", "coordinates": [ 133.843188300000065, 34.1709201 ] } }
]
}
