{
"type": "FeatureCollection",
"name": "geo_37_介護老人福祉施設",
"crs": { "type": "name", "properties": { "name": "urn:ogc:def:crs:OGC:1.3:CRS84" } },
"features": [
{ "type": "Feature", "properties": { "内容": "特別養護老人ホーム守里苑【介護老人福祉施設】高松市牟礼町大町２５５５－２", "url": "https://www.kaigokensaku.mhlw.go.jp/37/index.php?action_kouhyou_detail_004_kani=true&JigyosyoCd=3771300138-00&ServiceCd=510&Type=search", "url2": "http://syurikai.com" }, "geometry": { "type": "Point", "coordinates": [ 134.127866400000016, 34.3317032 ] } },
{ "type": "Feature", "properties": { "内容": "特別養護老人ホームサマリヤ【介護老人福祉施設】香川県高松市松並町573-1", "url": "https://www.kaigokensaku.mhlw.go.jp/37/index.php?action_kouhyou_detail_004_kani=true&JigyosyoCd=3770100547-00&ServiceCd=510&Type=search", "url2": "https://www.samariya.or.jp/" }, "geometry": { "type": "Point", "coordinates": [ 134.028011757069407, 34.316801214017872 ] } },
{ "type": "Feature", "properties": { "内容": "特別養護老人ホーム　アイムの杜【介護老人福祉施設】高松市国分寺町新居1339-3", "url": "https://www.kaigokensaku.mhlw.go.jp/37/index.php?action_kouhyou_detail_004_kani=true&JigyosyoCd=3770106726-00&ServiceCd=510&Type=search", "url2": "http://www.hiiragikai.com" }, "geometry": { "type": "Point", "coordinates": [ 133.960002606668127, 34.298337322316243 ] } },
{ "type": "Feature", "properties": { "内容": "特別養護老人ホーム　一宮の里【介護老人福祉施設】香川県高松市一宮町875番地", "url": "https://www.kaigokensaku.mhlw.go.jp/37/index.php?action_kouhyou_detail_004_kani=true&JigyosyoCd=3770102998-00&ServiceCd=510&Type=search", "url2": "https://www.kishokai.com" }, "geometry": { "type": "Point", "coordinates": [ 134.0293772, 34.2915428 ] } },
{ "type": "Feature", "properties": { "内容": "特別養護老人ホーム扇寿【介護老人福祉施設】香川県高松市香南町横井492-1特別養護老人ホーム扇寿", "url": "https://www.kaigokensaku.mhlw.go.jp/37/index.php?action_kouhyou_detail_004_kani=true&JigyosyoCd=3771400318-00&ServiceCd=510&Type=search", "url2": "care-net.biz/37/senjyu" }, "geometry": { "type": "Point", "coordinates": [ 134.011903500000017, 34.2448793 ] } },
{ "type": "Feature", "properties": { "内容": "特別養護老人ホーム　おりいぶ荘【介護老人福祉施設】香川県高松市太田下町2020番地1", "url": "https://www.kaigokensaku.mhlw.go.jp/37/index.php?action_kouhyou_detail_004_kani=true&JigyosyoCd=3770101537-00&ServiceCd=510&Type=search", "url2": "https://hatsukikai.or.jp/" }, "geometry": { "type": "Point", "coordinates": [ 134.0389735, 34.3043471 ] } },
{ "type": "Feature", "properties": { "内容": "特別養護老人ホーム　逅里苑【介護老人福祉施設】香川県高松市屋島東町408－1", "url": "https://www.kaigokensaku.mhlw.go.jp/37/index.php?action_kouhyou_detail_004_kani=true&JigyosyoCd=3770101750-00&ServiceCd=510&Type=search", "url2": "http://www.syurikai.com" }, "geometry": { "type": "Point", "coordinates": [ 134.111504100000047, 34.3592748 ] } },
{ "type": "Feature", "properties": { "内容": "特別養護老人ホームナウラテラス【介護老人福祉施設】香川県高松市松福町一丁目12番3号", "url": "https://www.kaigokensaku.mhlw.go.jp/37/index.php?action_kouhyou_detail_004_kani=true&JigyosyoCd=3750180188-00&ServiceCd=510&Type=search", "url2": "https://hatsukikai.or.jp" }, "geometry": { "type": "Point", "coordinates": [ 134.0599796, 34.342531 ] } },
{ "type": "Feature", "properties": { "内容": "特別養護老人ホームさくら荘【介護老人福祉施設】高松市林町76番地14", "url": "https://www.kaigokensaku.mhlw.go.jp/37/index.php?action_kouhyou_detail_004_kani=true&JigyosyoCd=3770100331-00&ServiceCd=510&Type=search", "url2": "https://hatsukikai.or.jp" }, "geometry": { "type": "Point", "coordinates": [ 134.0662774, 34.2942428 ] } },
{ "type": "Feature", "properties": { "内容": "特別養護老人ホーム　弘恩苑【介護老人福祉施設】高松市前田西町683番地7", "url": "https://www.kaigokensaku.mhlw.go.jp/37/index.php?action_kouhyou_detail_004_kani=true&JigyosyoCd=3770100521-00&ServiceCd=510&Type=search", "url2": "https://www.kouzenkai.jp" }, "geometry": { "type": "Point", "coordinates": [ 134.108777199999963, 34.3069363 ] } },
{ "type": "Feature", "properties": { "内容": "特別養護老人ホームなでしこ香川【介護老人福祉施設】香川高松市多肥上町１４２３番地1", "url": "https://www.kaigokensaku.mhlw.go.jp/37/index.php?action_kouhyou_detail_004_kani=true&JigyosyoCd=3770103889-00&ServiceCd=510&Type=search", "url2": "http://www.saiseikai.or.jp" }, "geometry": { "type": "Point", "coordinates": [ 134.058122799999978, 34.2945788 ] } },
{ "type": "Feature", "properties": { "内容": "特別養護老人ホーム　あかね【介護老人福祉施設】香川県高松市西町4番1号", "url": "https://www.kaigokensaku.mhlw.go.jp/37/index.php?action_kouhyou_detail_004_kani=true&JigyosyoCd=3770104762-00&ServiceCd=510&Type=search", "url2": "http://www.sw-akane.jp" }, "geometry": { "type": "Point", "coordinates": [ 134.027888599999983, 34.3466316 ] } },
{ "type": "Feature", "properties": { "内容": "特別養護老人ホームさくら荘（ユニット型）【介護老人福祉施設】高松市林町76番地14", "url": "https://www.kaigokensaku.mhlw.go.jp/37/index.php?action_kouhyou_detail_004_kani=true&JigyosyoCd=3770108193-00&ServiceCd=510&Type=search", "url2": "https://hatsukikai.or.jp" }, "geometry": { "type": "Point", "coordinates": [ 134.0662774, 34.2942428 ] } },
{ "type": "Feature", "properties": { "内容": "特別養護老人ホームきたまち苑【介護老人福祉施設】木太町5113番地15", "url": "https://www.kaigokensaku.mhlw.go.jp/37/index.php?action_kouhyou_detail_004_kani=true&JigyosyoCd=3770109662-00&ServiceCd=510&Type=search", "url2": "https://hatsukikai.or.jp" }, "geometry": { "type": "Point", "coordinates": [ 134.067186442852744, 34.308516768062475 ] } },
{ "type": "Feature", "properties": { "内容": "特別養護老人ホーム　岡本荘【介護老人福祉施設】香川県高松市岡本町527番地1", "url": "https://www.kaigokensaku.mhlw.go.jp/37/index.php?action_kouhyou_detail_004_kani=true&JigyosyoCd=3770100349-00&ServiceCd=510&Type=search", "url2": "http://www.koutouen.com/" }, "geometry": { "type": "Point", "coordinates": [ 133.994914900000026, 34.266109 ] } },
{ "type": "Feature", "properties": { "内容": "特別養護老人ホーム　はなぞの園【介護老人福祉施設】香川県高松市上福岡町2004番地1", "url": "https://www.kaigokensaku.mhlw.go.jp/37/index.php?action_kouhyou_detail_004_kani=true&JigyosyoCd=3770100554-00&ServiceCd=510&Type=search", "url2": "http://www.hanazono.or.jp" }, "geometry": { "type": "Point", "coordinates": [ 134.060776499999946, 34.3309392 ] } },
{ "type": "Feature", "properties": { "内容": "特別養護老人ホーム香色苑【介護老人福祉施設】香川県高松市高松町1350番地22", "url": "https://www.kaigokensaku.mhlw.go.jp/37/index.php?action_kouhyou_detail_004_kani=true&JigyosyoCd=3770100562-00&ServiceCd=510&Type=search", "url2": "http://www.kouzenkai.jp" }, "geometry": { "type": "Point", "coordinates": [ 134.1200172, 34.3326058 ] } },
{ "type": "Feature", "properties": { "内容": "特別養護老人ホーム　法寿苑【介護老人福祉施設】香川県高松市木太町3308番地", "url": "https://www.kaigokensaku.mhlw.go.jp/37/index.php?action_kouhyou_detail_004_kani=true&JigyosyoCd=3770103582-00&ServiceCd=510&Type=search", "url2": "https://www.kouzenkai.jp/" }, "geometry": { "type": "Point", "coordinates": [ 134.075244699999985, 34.3278117 ] } },
{ "type": "Feature", "properties": { "内容": "特別養護老人ホーム　さんさん荘【介護老人福祉施設】香川県高松市香川町川内原1003-1", "url": "https://www.kaigokensaku.mhlw.go.jp/37/index.php?action_kouhyou_detail_004_kani=true&JigyosyoCd=3771400177-00&ServiceCd=510&Type=search", "url2": "https://www.sansan-kai.com/" }, "geometry": { "type": "Point", "coordinates": [ 134.0504075, 34.2317736 ] } },
{ "type": "Feature", "properties": { "内容": "特別養護老人ホームすみれ荘【介護老人福祉施設】高松市十川西町1234番地1", "url": "https://www.kaigokensaku.mhlw.go.jp/37/index.php?action_kouhyou_detail_004_kani=true&JigyosyoCd=3770100273-00&ServiceCd=510&Type=search", "url2": "https://hatsukikai.or.jp/" }, "geometry": { "type": "Point", "coordinates": [ 134.099728899999945, 34.2599762 ] } },
{ "type": "Feature", "properties": { "内容": "特別養護老人ホーム大寿苑【介護老人福祉施設】香川県高松市鬼無町鬼無882番地2", "url": "https://www.kaigokensaku.mhlw.go.jp/37/index.php?action_kouhyou_detail_004_kani=true&JigyosyoCd=3770100356-00&ServiceCd=510&Type=search", "url2": "http://www.daijyuan.com/" }, "geometry": { "type": "Point", "coordinates": [ 133.985907099999963, 34.3182532 ] } },
{ "type": "Feature", "properties": { "内容": "特別養護老人ホーム　竜雲舜虹苑【介護老人福祉施設】香川県高松市仏生山町甲3100番地2", "url": "https://www.kaigokensaku.mhlw.go.jp/37/index.php?action_kouhyou_detail_004_kani=true&JigyosyoCd=3770100497-00&ServiceCd=510&Type=search", "url2": "URL:https://www.ryuungakuen.or.jp" }, "geometry": { "type": "Point", "coordinates": [ 134.04741, 34.2650823 ] } },
{ "type": "Feature", "properties": { "内容": "シオンの丘ホーム【介護老人福祉施設】高松市香西北町260番地", "url": "https://www.kaigokensaku.mhlw.go.jp/37/index.php?action_kouhyou_detail_004_kani=true&JigyosyoCd=3770100513-00&ServiceCd=510&Type=search", "url2": "http://www.bokuyoukai.or.jp/qhm/" }, "geometry": { "type": "Point", "coordinates": [ 133.995138900000029, 34.354258 ] } },
{ "type": "Feature", "properties": { "内容": "特別養護老人ホーム　さぬき【介護老人福祉施設】高松市中野町26-29", "url": "https://www.kaigokensaku.mhlw.go.jp/37/index.php?action_kouhyou_detail_004_kani=true&JigyosyoCd=3770100539-00&ServiceCd=510&Type=search", "url2": "http://www.sanuki-sha.or.jp" }, "geometry": { "type": "Point", "coordinates": [ 134.044497460901766, 34.333549309814416 ] } },
{ "type": "Feature", "properties": { "内容": "特別養護老人ホーム　エデンの丘【介護老人福祉施設】香川県高松市鶴市町1770番地4", "url": "https://www.kaigokensaku.mhlw.go.jp/37/index.php?action_kouhyou_detail_004_kani=true&JigyosyoCd=3770101198-00&ServiceCd=510&Type=search", "url2": "http://www.bokuyoukai.or.jp/qhm/" }, "geometry": { "type": "Point", "coordinates": [ 134.016272699999945, 34.3372237 ] } },
{ "type": "Feature", "properties": { "内容": "特別養護老人ホーム　高松さんさん荘【介護老人福祉施設】高松市西植田町４２１２－１", "url": "https://www.kaigokensaku.mhlw.go.jp/37/index.php?action_kouhyou_detail_004_kani=true&JigyosyoCd=3770102956-00&ServiceCd=510&Type=search", "url2": "https:/www.sansan-kai.com/" }, "geometry": { "type": "Point", "coordinates": [ 134.070722, 34.2316879 ] } },
{ "type": "Feature", "properties": { "内容": "特別養護老人ホーム玉藻荘【介護老人福祉施設】高松市北浜町７番10号", "url": "https://www.kaigokensaku.mhlw.go.jp/37/index.php?action_kouhyou_detail_004_kani=true&JigyosyoCd=3770104044-00&ServiceCd=510&Type=search", "url2": "http://www.sanuki-sha.or.jp/sanuki/index.html" }, "geometry": { "type": "Point", "coordinates": [ 134.0560901, 34.3502513 ] } },
{ "type": "Feature", "properties": { "内容": "特別養護老人ホーム　あじの里【介護老人福祉施設】香川県高松市庵治町4151番地7", "url": "https://www.kaigokensaku.mhlw.go.jp/37/index.php?action_kouhyou_detail_004_kani=true&JigyosyoCd=3771300260-00&ServiceCd=510&Type=search", "url2": "http://yoyokai.or.jp/" }, "geometry": { "type": "Point", "coordinates": [ 134.143857300000036, 34.3795414 ] } },
{ "type": "Feature", "properties": { "内容": "特別養護老人ホームあん樹苑【介護老人福祉施設】高松市香川町浅野1414番地", "url": "https://www.kaigokensaku.mhlw.go.jp/37/index.php?action_kouhyou_detail_004_kani=true&JigyosyoCd=3770105835-00&ServiceCd=510&Type=search", "url2": "http://hatsukikai.or.jp" }, "geometry": { "type": "Point", "coordinates": [ 134.037194799999952, 34.2528091 ] } },
{ "type": "Feature", "properties": { "内容": "紅山荘【介護老人福祉施設】香川県丸亀市飯山町上法軍寺2600番地", "url": "https://www.kaigokensaku.mhlw.go.jp/37/index.php?action_kouhyou_detail_004_kani=true&JigyosyoCd=3771500265-00&ServiceCd=510&Type=search", "url2": "http://www.beniyama.jp" }, "geometry": { "type": "Point", "coordinates": [ 133.866651199999978, 34.2386595 ] } },
{ "type": "Feature", "properties": { "内容": "特別養護老人ホーム　宝樹リノ【介護老人福祉施設】香川県丸亀市綾歌町栗熊東782番地", "url": "https://www.kaigokensaku.mhlw.go.jp/37/index.php?action_kouhyou_detail_004_kani=true&JigyosyoCd=3770201683-00&ServiceCd=510&Type=search", "url2": "https://houjyuen.web.fc2.com" }, "geometry": { "type": "Point", "coordinates": [ 133.886782608212371, 34.236430131605211 ] } },
{ "type": "Feature", "properties": { "内容": "特別養護老人ホーム珠光園【介護老人福祉施設】香川県丸亀市飯野町東二甲911番地1", "url": "https://www.kaigokensaku.mhlw.go.jp/37/index.php?action_kouhyou_detail_004_kani=true&JigyosyoCd=3770200115-00&ServiceCd=510&Type=search", "url2": "https://jukoen.jp" }, "geometry": { "type": "Point", "coordinates": [ 133.834398626318176, 34.269950094761661 ] } },
{ "type": "Feature", "properties": { "内容": "特別養護老人ホームたるみ荘【介護老人福祉施設】香川県丸亀市垂水町1353番地", "url": "https://www.kaigokensaku.mhlw.go.jp/37/index.php?action_kouhyou_detail_004_kani=true&JigyosyoCd=3770200131-00&ServiceCd=510&Type=search", "url2": "http://www.tarumisou.com/" }, "geometry": { "type": "Point", "coordinates": [ 133.829373300000043, 34.2339017 ] } },
{ "type": "Feature", "properties": { "内容": "特別養護老人ホーム今津荘【介護老人福祉施設】香川県丸亀市今津町186-1", "url": "https://www.kaigokensaku.mhlw.go.jp/37/index.php?action_kouhyou_detail_004_kani=true&JigyosyoCd=3770200503-00&ServiceCd=510&Type=search", "url2": "http://www.utazufukushikai.or.jp/" }, "geometry": { "type": "Point", "coordinates": [ 133.783971400000041, 34.2753633 ] } },
{ "type": "Feature", "properties": { "内容": "特別養護老人ホーム　青の山荘【介護老人福祉施設】香川県丸亀市土器町東四丁目77番地", "url": "https://www.kaigokensaku.mhlw.go.jp/37/index.php?action_kouhyou_detail_004_kani=true&JigyosyoCd=3770200164-00&ServiceCd=510&Type=search", "url2": "https://houjyuen.web.fc2.com/page9.html" }, "geometry": { "type": "Point", "coordinates": [ 133.820386099999951, 34.2925419 ] } },
{ "type": "Feature", "properties": { "内容": "特別養護老人ホーム　シャローム【介護老人福祉施設】丸亀市垂水町１６－５０", "url": "https://www.kaigokensaku.mhlw.go.jp/37/index.php?action_kouhyou_detail_004_kani=true&JigyosyoCd=3770200271-00&ServiceCd=510&Type=search", "url2": null }, "geometry": { "type": "Point", "coordinates": [ 133.836276099999964, 34.2212752 ] } },
{ "type": "Feature", "properties": { "内容": "特別養護老人ホーム　きやま【介護老人福祉施設】香川県坂出市川津町1986番地8", "url": "https://www.kaigokensaku.mhlw.go.jp/37/index.php?action_kouhyou_detail_004_kani=true&JigyosyoCd=3770300568-00&ServiceCd=510&Type=search", "url2": "http://www.kbn.ne.jp/home/kym0007/" }, "geometry": { "type": "Point", "coordinates": [ 133.870807799999966, 34.2933307 ] } },
{ "type": "Feature", "properties": { "内容": "特別養護老人ホームグランドガーデン【介護老人福祉施設】香川県坂出市加茂町628番地6", "url": "https://www.kaigokensaku.mhlw.go.jp/37/index.php?action_kouhyou_detail_004_kani=true&JigyosyoCd=3770300592-00&ServiceCd=510&Type=search", "url2": "http://www.kbn.ne.jp/home/neuronis/grand/" }, "geometry": { "type": "Point", "coordinates": [ 133.9099521, 34.3077689 ] } },
{ "type": "Feature", "properties": { "内容": "特別養護老人ホーム愛生苑【介護老人福祉施設】香川県坂出市西庄町79番地1", "url": "https://www.kaigokensaku.mhlw.go.jp/37/index.php?action_kouhyou_detail_004_kani=true&JigyosyoCd=3770300212-00&ServiceCd=510&Type=search", "url2": "http://ryokusei.byoinnavi.jp" }, "geometry": { "type": "Point", "coordinates": [ 133.880992099999958, 34.3200524 ] } },
{ "type": "Feature", "properties": { "内容": "特別養護老人ホーム松ヶ浦荘【介護老人福祉施設】香川県坂出市大屋冨町３１００番地１３", "url": "https://www.kaigokensaku.mhlw.go.jp/37/index.php?action_kouhyou_detail_004_kani=true&JigyosyoCd=3770300162-00&ServiceCd=510&Type=search", "url2": "http://www.shouju.or.jp/" }, "geometry": { "type": "Point", "coordinates": [ 133.894061500000021, 34.3556199 ] } },
{ "type": "Feature", "properties": { "内容": "聖マルチンの園　介護老人福祉施設【介護老人福祉施設】香川県坂出市沖の浜1番5号", "url": "https://www.kaigokensaku.mhlw.go.jp/37/index.php?action_kouhyou_detail_004_kani=true&JigyosyoCd=3770300048-00&ServiceCd=510&Type=search", "url2": "https://seimartinnoie.or.jp/" }, "geometry": { "type": "Point", "coordinates": [ 133.843503883467037, 34.325356056507879 ] } },
{ "type": "Feature", "properties": { "内容": "特別養護老人ホーム白百合荘【介護老人福祉施設】香川県善通寺市与北町1680番地1", "url": "https://www.kaigokensaku.mhlw.go.jp/37/index.php?action_kouhyou_detail_004_kani=true&JigyosyoCd=3770400137-00&ServiceCd=510&Type=search", "url2": "http://www.care-net.biz/37/sirayuri" }, "geometry": { "type": "Point", "coordinates": [ 133.807353, 34.2304937 ] } },
{ "type": "Feature", "properties": { "内容": "特別養護老人ホーム仙遊荘【介護老人福祉施設】香川県善通寺市仙遊町二丁目3番43号", "url": "https://www.kaigokensaku.mhlw.go.jp/37/index.php?action_kouhyou_detail_004_kani=true&JigyosyoCd=3770400319-00&ServiceCd=510&Type=search", "url2": "http://zen-fukushikai.jp/" }, "geometry": { "type": "Point", "coordinates": [ 133.7702008, 34.2279322 ] } },
{ "type": "Feature", "properties": { "内容": "特別養護老人ホームまほろば【介護老人福祉施設】善通寺市仙遊町二丁目3番40号", "url": "https://www.kaigokensaku.mhlw.go.jp/37/index.php?action_kouhyou_detail_004_kani=true&JigyosyoCd=3770400723-00&ServiceCd=510&Type=search", "url2": "http://zen-fukushikai.jp/" }, "geometry": { "type": "Point", "coordinates": [ 133.769862, 34.2286044 ] } },
{ "type": "Feature", "properties": { "内容": "特別養護老人ホーム　明日香【介護老人福祉施設】香川県善通寺市原田町1561番地5", "url": "https://www.kaigokensaku.mhlw.go.jp/37/index.php?action_kouhyou_detail_004_kani=true&JigyosyoCd=3770400285-00&ServiceCd=510&Type=search", "url2": "http://www.senju.group.or.jp" }, "geometry": { "type": "Point", "coordinates": [ 133.787251800000035, 34.2546298 ] } },
{ "type": "Feature", "properties": { "内容": "特別養護老人ホーム　豊恩荘【介護老人福祉施設】香川県観音寺市茂木町四丁目６番２号", "url": "https://www.kaigokensaku.mhlw.go.jp/37/index.php?action_kouhyou_detail_004_kani=true&JigyosyoCd=3770500100-00&ServiceCd=510&Type=search", "url2": "https://haneikai.or.jp/" }, "geometry": { "type": "Point", "coordinates": [ 133.6599367, 34.1327101 ] } },
{ "type": "Feature", "properties": { "内容": "特別養護老人ホームひうち【介護老人福祉施設】香川県観音寺市大野原町内野々597番地", "url": "https://www.kaigokensaku.mhlw.go.jp/37/index.php?action_kouhyou_detail_004_kani=true&JigyosyoCd=3771701012-00&ServiceCd=510&Type=search", "url2": "http://onoharahukushi.com/houkoku.html" }, "geometry": { "type": "Point", "coordinates": [ 133.69960130000004, 34.0605882 ] } },
{ "type": "Feature", "properties": { "内容": "特別養護老人ホーム　長寿苑【介護老人福祉施設】香川県観音寺市木之郷町499番地62", "url": "https://www.kaigokensaku.mhlw.go.jp/37/index.php?action_kouhyou_detail_004_kani=true&JigyosyoCd=3770500332-00&ServiceCd=510&Type=search", "url2": "http://care-net.biz./37/choujuen/" }, "geometry": { "type": "Point", "coordinates": [ 133.691940299999942, 34.1063966 ] } },
{ "type": "Feature", "properties": { "内容": "広域型特別養護老人ホーム　ネムの木【介護老人福祉施設】香川県観音寺市豊浜町姫浜41-1", "url": "https://www.kaigokensaku.mhlw.go.jp/37/index.php?action_kouhyou_detail_004_kani=true&JigyosyoCd=3770500860-00&ServiceCd=510&Type=search", "url2": "http://www.koushi-f.or.jp" }, "geometry": { "type": "Point", "coordinates": [ 133.6381586, 34.0880405 ] } },
{ "type": "Feature", "properties": { "内容": "介護保険施設特別養護老人ホーム　楽陽荘【介護老人福祉施設】香川県観音寺市柞田町甲1936番地", "url": "https://www.kaigokensaku.mhlw.go.jp/37/index.php?action_kouhyou_detail_004_kani=true&JigyosyoCd=3770500118-00&ServiceCd=510&Type=search", "url2": "http://www.rakuyousou.com/" }, "geometry": { "type": "Point", "coordinates": [ 133.660241375549276, 34.118243519435865 ] } },
{ "type": "Feature", "properties": { "内容": "特別養護老人ホーム　おおとよ荘【介護老人福祉施設】香川県観音寺市大野原町大野原7010番地", "url": "https://www.kaigokensaku.mhlw.go.jp/37/index.php?action_kouhyou_detail_004_kani=true&JigyosyoCd=3770500928-00&ServiceCd=510&Type=search", "url2": "https://www.ootoyo.jp/" }, "geometry": { "type": "Point", "coordinates": [ 133.6651636, 34.0733927 ] } },
{ "type": "Feature", "properties": { "内容": "さざんか荘特別養護老人ホーム【介護老人福祉施設】香川県さぬき市大川町田面360番地", "url": "https://www.kaigokensaku.mhlw.go.jp/37/index.php?action_kouhyou_detail_004_kani=true&JigyosyoCd=3771100264-00&ServiceCd=510&Type=search", "url2": "http://www.o-kouiki.jp/sazankasou/" }, "geometry": { "type": "Point", "coordinates": [ 134.2559539, 34.2532461 ] } },
{ "type": "Feature", "properties": { "内容": "特別養護老人ホーム　香東園【介護老人福祉施設】香川県さぬき市寒川町石田西６８０番地１", "url": "https://www.kaigokensaku.mhlw.go.jp/37/index.php?action_kouhyou_detail_004_kani=true&JigyosyoCd=3771100165-00&ServiceCd=510&Type=search", "url2": "http://www.koutouen.com/" }, "geometry": { "type": "Point", "coordinates": [ 134.195864031352187, 34.275575176341675 ] } },
{ "type": "Feature", "properties": { "内容": "介護老人福祉施設さわやかホーム【介護老人福祉施設】香川県さぬき市津田町津田２２０７番地", "url": "https://www.kaigokensaku.mhlw.go.jp/37/index.php?action_kouhyou_detail_004_kani=true&JigyosyoCd=3771100637-00&ServiceCd=510&Type=search", "url2": "https://sawayakakaigo.or.jp/" }, "geometry": { "type": "Point", "coordinates": [ 134.2389743, 34.2944693 ] } },
{ "type": "Feature", "properties": { "内容": "特別養護老人ホーム志度玉浦園【介護老人福祉施設】香川県さぬき市志度1610-1", "url": "https://www.kaigokensaku.mhlw.go.jp/37/index.php?action_kouhyou_detail_004_kani=true&JigyosyoCd=3771100298-00&ServiceCd=510&Type=search", "url2": "http://www.tamauraen.or.jp" }, "geometry": { "type": "Point", "coordinates": [ 134.1943278, 34.319239 ] } },
{ "type": "Feature", "properties": { "内容": "特別養護老人ホーム　ゆたか荘【介護老人福祉施設】香川県さぬき市昭和562-4", "url": "https://www.kaigokensaku.mhlw.go.jp/37/index.php?action_kouhyou_detail_004_kani=true&JigyosyoCd=3771100397-00&ServiceCd=510&Type=search", "url2": "https://nagaofukushikai.jp/" }, "geometry": { "type": "Point", "coordinates": [ 134.166707, 34.2467745 ] } },
{ "type": "Feature", "properties": { "内容": "特別養護老人ホーム　湊荘【介護老人福祉施設】東かがわ市湊1183-5", "url": "https://www.kaigokensaku.mhlw.go.jp/37/index.php?action_kouhyou_detail_004_kani=true&JigyosyoCd=3771100280-00&ServiceCd=510&Type=search", "url2": "http://www.shikoku.ne.jp/zuishou/shisetsu/minato.html" }, "geometry": { "type": "Point", "coordinates": [ 134.339697300000012, 34.2187752 ] } },
{ "type": "Feature", "properties": { "内容": "特別養護老人ホーム　絹島荘【介護老人福祉施設】香川県東かがわ市馬篠1227-20", "url": "https://www.kaigokensaku.mhlw.go.jp/37/index.php?action_kouhyou_detail_004_kani=true&JigyosyoCd=3771100173-00&ServiceCd=510&Type=search", "url2": "http://www.koutouen.com/" }, "geometry": { "type": "Point", "coordinates": [ 134.299378700000034, 34.273917299999937 ] } },
{ "type": "Feature", "properties": { "内容": "特別養護老人ホーム引田荘【介護老人福祉施設】香川県東かがわ市引田922番地18", "url": "https://www.kaigokensaku.mhlw.go.jp/37/index.php?action_kouhyou_detail_004_kani=true&JigyosyoCd=3771100272-00&ServiceCd=510&Type=search", "url2": "http://www.shikoku.ne.jp/zuishou/" }, "geometry": { "type": "Point", "coordinates": [ 134.397764700000039, 34.2143374 ] } },
{ "type": "Feature", "properties": { "内容": "特別養護老人ホーム　諶之丞の丘【介護老人福祉施設】香川県三豊市財田町財田上1112番地1", "url": "https://www.kaigokensaku.mhlw.go.jp/37/index.php?action_kouhyou_detail_004_kani=true&JigyosyoCd=3771700824-00&ServiceCd=510&Type=search", "url2": "jinnojyounooka@basil.ocn.ne.jp" }, "geometry": { "type": "Point", "coordinates": [ 133.79628619999994, 34.1062784 ] } },
{ "type": "Feature", "properties": { "内容": "特別養護老人ホームみの【介護老人福祉施設】香川県三豊市三野町大見乙91-12", "url": "https://www.kaigokensaku.mhlw.go.jp/37/index.php?action_kouhyou_detail_004_kani=true&JigyosyoCd=3771700725-00&ServiceCd=510&Type=search", "url2": "http://minofukushikai.sun-age.or.jp" }, "geometry": { "type": "Point", "coordinates": [ 133.7206251, 34.2266288 ] } },
{ "type": "Feature", "properties": { "内容": "特別養護老人ホーム壽苑【介護老人福祉施設】香川県三豊市高瀬町上高瀬712番地3", "url": "https://www.kaigokensaku.mhlw.go.jp/37/index.php?action_kouhyou_detail_004_kani=true&JigyosyoCd=3770800229-00&ServiceCd=510&Type=search", "url2": "http://houjyukai.info/" }, "geometry": { "type": "Point", "coordinates": [ 133.726256599999942, 34.1984061 ] } },
{ "type": "Feature", "properties": { "内容": "特別養護老人ホーム優楽荘【介護老人福祉施設】香川県三豊市山本町辻585番地", "url": "https://www.kaigokensaku.mhlw.go.jp/37/index.php?action_kouhyou_detail_004_kani=true&JigyosyoCd=3770800443-00&ServiceCd=510&Type=search", "url2": "https://aikoukai.net/" }, "geometry": { "type": "Point", "coordinates": [ 133.720326300000011, 34.1190951 ] } },
{ "type": "Feature", "properties": { "内容": "特別養護老人ホーム　たくま荘【介護老人福祉施設】香川県三豊市詫間町詫間7732番地60", "url": "https://www.kaigokensaku.mhlw.go.jp/37/index.php?action_kouhyou_detail_004_kani=true&JigyosyoCd=3771700410-00&ServiceCd=510&Type=search", "url2": "http://www.takumaso.com" }, "geometry": { "type": "Point", "coordinates": [ 133.669261300000016, 34.2142801 ] } },
{ "type": "Feature", "properties": { "内容": "特別養護老人ホームクレール高瀬【介護老人福祉施設】香川県三豊市高瀬町新名2035番地", "url": "https://www.kaigokensaku.mhlw.go.jp/37/index.php?action_kouhyou_detail_004_kani=true&JigyosyoCd=3770800302-00&ServiceCd=510&Type=search", "url2": "http://keishoukai-group.net/" }, "geometry": { "type": "Point", "coordinates": [ 133.726262099999985, 34.1991976 ] } },
{ "type": "Feature", "properties": { "内容": "特別養護老人ホーム　とよなか荘【介護老人福祉施設】香川県三豊市豊中町笠田竹田697-1", "url": "https://www.kaigokensaku.mhlw.go.jp/37/index.php?action_kouhyou_detail_004_kani=true&JigyosyoCd=3771700402-00&ServiceCd=510&Type=search", "url2": "http://www.toyonakasou.jp/" }, "geometry": { "type": "Point", "coordinates": [ 133.695546799999988, 34.1554374 ] } },
{ "type": "Feature", "properties": { "内容": "特別養護老人ホームふたな荘【介護老人福祉施設】香川県三豊市山本町辻2210", "url": "https://www.kaigokensaku.mhlw.go.jp/37/index.php?action_kouhyou_detail_004_kani=true&JigyosyoCd=3771700329-00&ServiceCd=510&Type=search", "url2": "http://www.keishoukai.jp/" }, "geometry": { "type": "Point", "coordinates": [ 133.723415199999977, 34.1078992 ] } },
{ "type": "Feature", "properties": { "内容": "特別養護老人ホームにお荘【介護老人福祉施設】香川県三豊市仁尾町仁尾辛42番地3", "url": "https://www.kaigokensaku.mhlw.go.jp/37/index.php?action_kouhyou_detail_004_kani=true&JigyosyoCd=3771700998-00&ServiceCd=510&Type=search", "url2": "https://niosou.website/" }, "geometry": { "type": "Point", "coordinates": [ 133.643475299999977, 34.1930606 ] } },
{ "type": "Feature", "properties": { "内容": "豊島ナオミ荘【介護老人福祉施設】香川県小豆郡土庄町豊島家浦43-10", "url": "https://www.kaigokensaku.mhlw.go.jp/37/index.php?action_kouhyou_detail_004_kani=true&JigyosyoCd=3771200114-00&ServiceCd=510&Type=search", "url2": "http://www.ans.co.jp/n/naomi/" }, "geometry": { "type": "Point", "coordinates": [ 134.07582560000003, 34.4948314 ] } },
{ "type": "Feature", "properties": { "内容": "特別養護老人ホーム　あづき【介護老人福祉施設】香川県小豆郡土庄町字半ノ池甲1360番地143", "url": "https://www.kaigokensaku.mhlw.go.jp/37/index.php?action_kouhyou_detail_004_kani=true&JigyosyoCd=3771200320-00&ServiceCd=510&Type=search", "url2": null }, "geometry": { "type": "Point", "coordinates": [ 134.185806899999989, 34.4860217 ] } },
{ "type": "Feature", "properties": { "内容": "特別養護老人ホーム小豆島老人ホーム【介護老人福祉施設】小豆郡土庄町渕崎甲518", "url": "https://www.kaigokensaku.mhlw.go.jp/37/index.php?action_kouhyou_detail_004_kani=true&JigyosyoCd=3771200106-00&ServiceCd=510&Type=search", "url2": null }, "geometry": { "type": "Point", "coordinates": [ 134.178715900000043, 34.4900074 ] } },
{ "type": "Feature", "properties": { "内容": "特別養護老人ホームうちのみ【介護老人福祉施設】香川県小豆郡小豆島町片城甲４４番地９５", "url": "https://www.kaigokensaku.mhlw.go.jp/37/index.php?action_kouhyou_detail_004_kani=true&JigyosyoCd=3771200577-00&ServiceCd=510&Type=search", "url2": null }, "geometry": { "type": "Point", "coordinates": [ 134.307957152114938, 34.479275215896536 ] } },
{ "type": "Feature", "properties": { "内容": "特別養護老人ホームリベラルサンシャイン【介護老人福祉施設】香川県小豆郡小豆島町蒲生甲３５０", "url": "https://www.kaigokensaku.mhlw.go.jp/37/index.php?action_kouhyou_detail_004_kani=true&JigyosyoCd=3771200049-00&ServiceCd=510&Type=search", "url2": "http://www.sunshine-kai.com/" }, "geometry": { "type": "Point", "coordinates": [ 134.216180799999961, 34.477057 ] } },
{ "type": "Feature", "properties": { "内容": "特別養護老人ホームマリアの園【介護老人福祉施設】香川県小豆郡小豆島町草壁本町上蔵田1-13", "url": "https://www.kaigokensaku.mhlw.go.jp/37/index.php?action_kouhyou_detail_004_kani=true&JigyosyoCd=3771200031-00&ServiceCd=510&Type=search", "url2": null }, "geometry": { "type": "Point", "coordinates": [ 134.306800466040215, 34.486588353859489 ] } },
{ "type": "Feature", "properties": { "内容": "特別養護老人ホーム　白山山荘【介護老人福祉施設】香川県木田郡三木町大字下高岡２８８２番地１", "url": "https://www.kaigokensaku.mhlw.go.jp/37/index.php?action_kouhyou_detail_004_kani=true&JigyosyoCd=3771300120-00&ServiceCd=510&Type=search", "url2": "http://www.kitafuku.jp/" }, "geometry": { "type": "Point", "coordinates": [ 134.14462530000003, 34.27387 ] } },
{ "type": "Feature", "properties": { "内容": "特別養護老人ホーム　みき山荘【介護老人福祉施設】香川県木田郡三木町大字井戸３８番地１", "url": "https://www.kaigokensaku.mhlw.go.jp/37/index.php?action_kouhyou_detail_004_kani=true&JigyosyoCd=3771300526-00&ServiceCd=510&Type=search", "url2": "http://www.kitafuku.jp/" }, "geometry": { "type": "Point", "coordinates": [ 134.156647, 34.241053 ] } },
{ "type": "Feature", "properties": { "内容": "特別養護老人ホーム　レファシード直島【介護老人福祉施設】香川県香川郡直島町3749-1", "url": "https://www.kaigokensaku.mhlw.go.jp/37/index.php?action_kouhyou_detail_004_kani=true&JigyosyoCd=3771400367-00&ServiceCd=510&Type=search", "url2": null }, "geometry": { "type": "Point", "coordinates": [ 133.998283600000036, 34.4605448 ] } },
{ "type": "Feature", "properties": { "内容": "特別養護老人ホーム寿楽荘【介護老人福祉施設】香川県綾歌郡宇多津町１７０番地１", "url": "https://www.kaigokensaku.mhlw.go.jp/37/index.php?action_kouhyou_detail_004_kani=true&JigyosyoCd=3771500273-00&ServiceCd=510&Type=search", "url2": "http://www.utazufukushikai.or.jp/" }, "geometry": { "type": "Point", "coordinates": [ 133.821118899999988, 34.3088148 ] } },
{ "type": "Feature", "properties": { "内容": "特別養護老人ホーム　松林荘【介護老人福祉施設】香川県綾歌郡綾川町山田下山王435番地4", "url": "https://www.kaigokensaku.mhlw.go.jp/37/index.php?action_kouhyou_detail_004_kani=true&JigyosyoCd=3771500232-00&ServiceCd=510&Type=search", "url2": "https://syourinsou.com" }, "geometry": { "type": "Point", "coordinates": [ 133.960090065559399, 34.229899505995071 ] } },
{ "type": "Feature", "properties": { "内容": "特別養護老人ホーム　楽々苑【介護老人福祉施設】香川県綾歌郡綾川町滝宮380番地", "url": "https://www.kaigokensaku.mhlw.go.jp/37/index.php?action_kouhyou_detail_004_kani=true&JigyosyoCd=3771500240-00&ServiceCd=510&Type=search", "url2": "https://rakurakuen-kagawa.or.jp" }, "geometry": { "type": "Point", "coordinates": [ 133.924973663229366, 34.248975382963337 ] } },
{ "type": "Feature", "properties": { "内容": "特別養護老人ホーム　クレールみどり【介護老人福祉施設】香川県仲多度郡琴平町苗田字中森402番地1", "url": "https://www.kaigokensaku.mhlw.go.jp/37/index.php?action_kouhyou_detail_004_kani=true&JigyosyoCd=3771600552-00&ServiceCd=510&Type=search", "url2": "http://www.keishoukai.jp/" }, "geometry": { "type": "Point", "coordinates": [ 133.814033800000061, 34.2007408 ] } },
{ "type": "Feature", "properties": { "内容": "特別養護老人ホーム　桃陵苑　ユニット【介護老人福祉施設】香川県仲多度郡多度津町西港町127番地3", "url": "https://www.kaigokensaku.mhlw.go.jp/37/index.php?action_kouhyou_detail_004_kani=true&JigyosyoCd=3771601162-00&ServiceCd=510&Type=search", "url2": "http://toryoen.jp/" }, "geometry": { "type": "Point", "coordinates": [ 133.737381300000038, 34.2656636 ] } },
{ "type": "Feature", "properties": { "内容": "特別養護老人ホーム　桃陵苑【介護老人福祉施設】香川県仲多度郡多度津町西港町127番地３", "url": "https://www.kaigokensaku.mhlw.go.jp/37/index.php?action_kouhyou_detail_004_kani=true&JigyosyoCd=3771600180-00&ServiceCd=510&Type=search", "url2": "http://toryoen.jp/" }, "geometry": { "type": "Point", "coordinates": [ 133.737395200000037, 34.2657219 ] } },
{ "type": "Feature", "properties": { "内容": "特別養護老人ホームかざみ鳥【介護老人福祉施設】香川県仲多度郡多度津町北鴨二丁目１１０番地１", "url": "https://www.kaigokensaku.mhlw.go.jp/37/index.php?action_kouhyou_detail_004_kani=true&JigyosyoCd=3771600990-00&ServiceCd=510&Type=search", "url2": null }, "geometry": { "type": "Point", "coordinates": [ 133.766595100000018, 34.2778599 ] } },
{ "type": "Feature", "properties": { "内容": "特別養護老人ホーム仲南荘【介護老人福祉施設】香川県仲多度郡まんのう町帆山505", "url": "https://www.kaigokensaku.mhlw.go.jp/37/index.php?action_kouhyou_detail_004_kani=true&JigyosyoCd=3771600271-00&ServiceCd=510&Type=search", "url2": "https://www.seiyuukai.jp/" }, "geometry": { "type": "Point", "coordinates": [ 133.844285600000035, 34.1543836 ] } },
{ "type": "Feature", "properties": { "内容": "特別養護老人ホーム満濃荘【介護老人福祉施設】香川県仲多度郡まんのう町長尾１１０２", "url": "https://www.kaigokensaku.mhlw.go.jp/37/index.php?action_kouhyou_detail_004_kani=true&JigyosyoCd=3771600263-00&ServiceCd=510&Type=search", "url2": "https://www.seiyuukai.jp/" }, "geometry": { "type": "Point", "coordinates": [ 133.8555007, 34.1950398 ] } },
{ "type": "Feature", "properties": { "内容": "特別養護老人ホームやすらぎ荘【介護老人福祉施設】香川県仲多度郡まんのう町川東１５０２－１", "url": "https://www.kaigokensaku.mhlw.go.jp/37/index.php?action_kouhyou_detail_004_kani=true&JigyosyoCd=3771600735-00&ServiceCd=510&Type=search", "url2": "http://www.seiyuukai.jp/" }, "geometry": { "type": "Point", "coordinates": [ 133.978299399999969, 34.1113914 ] } }
]
}
