{
"type": "FeatureCollection",
"name": "geo_37_専修学校",
"crs": { "type": "name", "properties": { "name": "urn:ogc:def:crs:EPSG::6668" } },
"features": [
{ "type": "Feature", "properties": { "P29_001": "37403", "P29_002": "H137240300017", "P29_003": "16016", "P29_004": "香川県立農業大学校", "P29_005": "香川県仲多度郡琴平町榎井34-3", "P29_006": "2", "P29_007": "0", "P29_008": "00", "P29_009": null }, "geometry": { "type": "Point", "coordinates": [ 133.831047433500771, 34.191085262892088 ] } },
{ "type": "Feature", "properties": { "P29_001": "37201", "P29_002": "H137320100019", "P29_003": "16016", "P29_004": "シャルムドレスメーカー専門学校", "P29_005": "香川県高松市常盤町2-9-7", "P29_006": "4", "P29_007": "0", "P29_008": "00", "P29_009": null }, "geometry": { "type": "Point", "coordinates": [ 134.050926411897308, 34.337254362512653 ] } },
{ "type": "Feature", "properties": { "P29_001": "37201", "P29_002": "H137320100028", "P29_003": "16016", "P29_004": "高松市医師会看護専門学校", "P29_005": "香川県高松市松島町1-16-20", "P29_006": "4", "P29_007": "0", "P29_008": "00", "P29_009": null }, "geometry": { "type": "Point", "coordinates": [ 134.059655024491803, 34.339230501233921 ] } },
{ "type": "Feature", "properties": { "P29_001": "37201", "P29_002": "H137320100037", "P29_003": "16016", "P29_004": "香川県歯科医療専門学校", "P29_005": "香川県高松市錦町2-8-37", "P29_006": "4", "P29_007": "0", "P29_008": "00", "P29_009": null }, "geometry": { "type": "Point", "coordinates": [ 134.043001819194245, 34.347307127987662 ] } },
{ "type": "Feature", "properties": { "P29_001": "37201", "P29_002": "H137320100046", "P29_003": "16016", "P29_004": "吉田愛服飾専門学校", "P29_005": "香川県高松市番町2-3-11", "P29_006": "4", "P29_007": "0", "P29_008": "00", "P29_009": null }, "geometry": { "type": "Point", "coordinates": [ 134.044291450126252, 34.34370030703866 ] } },
{ "type": "Feature", "properties": { "P29_001": "37201", "P29_002": "H137320100055", "P29_003": "16016", "P29_004": "キッス調理技術専門学校", "P29_005": "香川県高松市天神前9-25", "P29_006": "4", "P29_007": "0", "P29_008": "00", "P29_009": null }, "geometry": { "type": "Point", "coordinates": [ 134.046454372017593, 34.338583067507045 ] } },
{ "type": "Feature", "properties": { "P29_001": "37201", "P29_002": "H137320100064", "P29_003": "16016", "P29_004": "専修学校香川県美容学校", "P29_005": "香川県高松市松縄町1091-3", "P29_006": "4", "P29_007": "0", "P29_008": "00", "P29_009": null }, "geometry": { "type": "Point", "coordinates": [ 134.063531533978875, 34.31623629987326 ] } },
{ "type": "Feature", "properties": { "P29_001": "37201", "P29_002": "H137320100073", "P29_003": "16016", "P29_004": "専門学校穴吹コンピュータカレッジ", "P29_005": "香川県高松市番町2-4-14", "P29_006": "4", "P29_007": "0", "P29_008": "00", "P29_009": null }, "geometry": { "type": "Point", "coordinates": [ 134.044348060494144, 34.34308908206409 ] } },
{ "type": "Feature", "properties": { "P29_001": "37201", "P29_002": "H137320100082", "P29_003": "16016", "P29_004": "専門学校穴吹デザインカレッジ", "P29_005": "香川県高松市錦町1-3-5", "P29_006": "4", "P29_007": "0", "P29_008": "00", "P29_009": null }, "geometry": { "type": "Point", "coordinates": [ 134.044847535093936, 34.349261551352512 ] } },
{ "type": "Feature", "properties": { "P29_001": "37201", "P29_002": "H137320100091", "P29_003": "16016", "P29_004": "専門学校穴吹ビジネスカレッジ", "P29_005": "香川県高松市番町2-4-14", "P29_006": "4", "P29_007": "0", "P29_008": "00", "P29_009": null }, "geometry": { "type": "Point", "coordinates": [ 134.044348060494144, 34.343026119408087 ] } },
{ "type": "Feature", "properties": { "P29_001": "37201", "P29_002": "H137320100108", "P29_003": "16016", "P29_004": "四国総合ビジネス専門学校", "P29_005": "香川県高松市松並町1026-1", "P29_006": "4", "P29_007": "0", "P29_008": "00", "P29_009": null }, "geometry": { "type": "Point", "coordinates": [ 134.029535402084036, 34.320997292306323 ] } },
{ "type": "Feature", "properties": { "P29_001": "37201", "P29_002": "H137320100117", "P29_003": "16016", "P29_004": "四国医療福祉専門学校", "P29_005": "香川県高松市上之町2-12-30", "P29_006": "4", "P29_007": "0", "P29_008": "00", "P29_009": null }, "geometry": { "type": "Point", "coordinates": [ 134.048019709314616, 34.319366934157898 ] } },
{ "type": "Feature", "properties": { "P29_001": "37201", "P29_002": "H137320100126", "P29_003": "16016", "P29_004": "専門学校穴吹ビューティカレッジ", "P29_005": "香川県高松市錦町1-3-5", "P29_006": "4", "P29_007": "0", "P29_008": "00", "P29_009": null }, "geometry": { "type": "Point", "coordinates": [ 134.044840373082678, 34.349179581102248 ] } },
{ "type": "Feature", "properties": { "P29_001": "37201", "P29_002": "H137320100135", "P29_003": "16016", "P29_004": "専門学校穴吹リハビリテーションカレッジ", "P29_005": "香川県高松市上天神町722-1", "P29_006": "4", "P29_007": "0", "P29_008": "00", "P29_009": null }, "geometry": { "type": "Point", "coordinates": [ 134.036958230901604, 34.306795347727451 ] } },
{ "type": "Feature", "properties": { "P29_001": "37201", "P29_002": "H137320100144", "P29_003": "16016", "P29_004": "専門学校穴吹工科カレッジ", "P29_005": "香川県高松市上天神町722-1", "P29_006": "4", "P29_007": "0", "P29_008": "00", "P29_009": null }, "geometry": { "type": "Point", "coordinates": [ 134.036952145475283, 34.306710462933644 ] } },
{ "type": "Feature", "properties": { "P29_001": "37201", "P29_002": "H137320100153", "P29_003": "16016", "P29_004": "専門学校穴吹パティシエ福祉カレッジ", "P29_005": "香川県高松市西の丸町14-10", "P29_006": "4", "P29_007": "0", "P29_008": "00", "P29_009": null }, "geometry": { "type": "Point", "coordinates": [ 134.046902331393539, 34.348941755755426 ] } },
{ "type": "Feature", "properties": { "P29_001": "37201", "P29_002": "H137320100162", "P29_003": "16016", "P29_004": "高松高等予備校", "P29_005": "香川県高松市観光町547-1", "P29_006": "4", "P29_007": "0", "P29_008": "00", "P29_009": null }, "geometry": { "type": "Point", "coordinates": [ 134.063332619872654, 34.334571341685844 ] } },
{ "type": "Feature", "properties": { "P29_001": "37201", "P29_002": "H137320100171", "P29_003": "16016", "P29_004": "専門学校穴吹動物看護カレッジ", "P29_005": "香川県高松市塩屋町6-2", "P29_006": "4", "P29_007": "0", "P29_008": "00", "P29_009": null }, "geometry": { "type": "Point", "coordinates": [ 134.054661905309842, 34.341657417318906 ] } },
{ "type": "Feature", "properties": { "P29_001": "37201", "P29_002": "H137320100180", "P29_003": "16016", "P29_004": "穴吹医療大学校", "P29_005": "香川県高松市錦町1-22-23", "P29_006": "4", "P29_007": "0", "P29_008": "00", "P29_009": null }, "geometry": { "type": "Point", "coordinates": [ 134.044663289107717, 34.349629519218588 ] } },
{ "type": "Feature", "properties": { "P29_001": "37201", "P29_002": "H137320100199", "P29_003": "16016", "P29_004": "守里会看護福祉専門学校", "P29_005": "香川県高松市香西本町17-9", "P29_006": "4", "P29_007": "0", "P29_008": "00", "P29_009": null }, "geometry": { "type": "Point", "coordinates": [ 134.003890798008342, 34.350054169057074 ] } },
{ "type": "Feature", "properties": { "P29_001": "37202", "P29_002": "H137320200018", "P29_003": "16016", "P29_004": "さぬき福祉専門学校", "P29_005": "香川県丸亀市飯野町東分2700", "P29_006": "4", "P29_007": "0", "P29_008": "00", "P29_009": null }, "geometry": { "type": "Point", "coordinates": [ 133.837091064389568, 34.272392027897062 ] } },
{ "type": "Feature", "properties": { "P29_001": "37204", "P29_002": "H137320400016", "P29_003": "16016", "P29_004": "香川看護専門学校", "P29_005": "香川県善通寺市生野町920-1", "P29_006": "4", "P29_007": "0", "P29_008": "00", "P29_009": null }, "geometry": { "type": "Point", "coordinates": [ 133.793285263333331, 34.228085386530829 ] } },
{ "type": "Feature", "properties": { "P29_001": "37204", "P29_002": "H137320400025", "P29_003": "16016", "P29_004": "独立行政法人国立病院機構四国こどもとおとなの医療センター附属善通寺看護学校", "P29_005": "香川県善通寺市仙遊町2-1-1", "P29_006": "0", "P29_007": "0", "P29_008": "00", "P29_009": null }, "geometry": { "type": "Point", "coordinates": [ 133.771700380103368, 34.23030598999901 ] } },
{ "type": "Feature", "properties": { "P29_001": "37208", "P29_002": "H137320800012", "P29_003": "16016", "P29_004": "四国学院大学専門学校", "P29_005": "香川県三豊市高瀬町下勝間2351-2", "P29_006": "4", "P29_007": "0", "P29_008": "00", "P29_009": null }, "geometry": { "type": "Point", "coordinates": [ 133.716536975647045, 34.178985420407294 ] } },
{ "type": "Feature", "properties": { "P29_001": "37386", "P29_002": "H137338600016", "P29_003": "16016", "P29_004": "四国医療専門学校", "P29_005": "香川県綾歌郡宇多津町浜五番丁62-1", "P29_006": "4", "P29_007": "0", "P29_008": "00", "P29_009": null }, "geometry": { "type": "Point", "coordinates": [ 133.809191318811941, 34.303237455735804 ] } }
]
}
