{
"type": "FeatureCollection",
"name": "geo_37_訪問リハビリテーション",
"crs": { "type": "name", "properties": { "name": "urn:ogc:def:crs:OGC:1.3:CRS84" } },
"features": [
{ "type": "Feature", "properties": { "内容": "介護老人保健施設まゆみの里　指定訪問リハビリテーション【訪問リハビリテーション】香川県高松市木太町2691番1", "url": "https://www.kaigokensaku.mhlw.go.jp/37/index.php?action_kouhyou_detail_004_kani=true&JigyosyoCd=3770111536-00&ServiceCd=140&Type=search", "url2": "http://satokikai.jp/" }, "geometry": { "type": "Point", "coordinates": [ 134.0814342, 34.3398356 ] } },
{ "type": "Feature", "properties": { "内容": "一般財団法人三宅医学研究所　附属三宅リハビリテーション病院訪問リハビリテーション【訪問リハビリテーション】香川県高松市天神前5番5号", "url": "https://www.kaigokensaku.mhlw.go.jp/37/index.php?action_kouhyou_detail_004_kani=true&JigyosyoCd=3710118419-00&ServiceCd=140&Type=search", "url2": "https://www.miyake.or.jp/home/%e5%9c%a8%e5%ae%85%e3%82%b5%e3%83%bc%e3%83%93%e3%82%b9/%e8%a8%aa%e5%95%8f%e3%83%aa%e3%83%8f%e3%83%93%e3%83%aa/" }, "geometry": { "type": "Point", "coordinates": [ 134.045068600000064, 34.3400936 ] } },
{ "type": "Feature", "properties": { "内容": "医療法人社団　研宣会　広瀬病院【訪問リハビリテーション】香川県高松市松縄町35-3", "url": "https://www.kaigokensaku.mhlw.go.jp/37/index.php?action_kouhyou_detail_004_kani=true&JigyosyoCd=3710116470-00&ServiceCd=140&Type=search", "url2": "https://www.hirose-hosp.or.jp/" }, "geometry": { "type": "Point", "coordinates": [ 134.0644519, 34.322367400000019 ] } },
{ "type": "Feature", "properties": { "内容": "医療法人社団有史会　高畠病院【訪問リハビリテーション】香川県高松市国分寺町新名481番地9", "url": "https://www.kaigokensaku.mhlw.go.jp/37/index.php?action_kouhyou_detail_004_kani=true&JigyosyoCd=3710119128-00&ServiceCd=140&Type=search", "url2": "http://www.takabatakehospital.com" }, "geometry": { "type": "Point", "coordinates": [ 133.958246693254068, 34.291634003571183 ] } },
{ "type": "Feature", "properties": { "内容": "医療法人社団　西高松脳外科・内科クリニック【訪問リハビリテーション】香川県高松市郷東町134-1西高松メディカルビル・イーア２F", "url": "https://www.kaigokensaku.mhlw.go.jp/37/index.php?action_kouhyou_detail_004_kani=true&JigyosyoCd=3710119912-00&ServiceCd=140&Type=search", "url2": "https://www.nishitakamatsu.jp" }, "geometry": { "type": "Point", "coordinates": [ 134.016864299999952, 34.344751 ] } },
{ "type": "Feature", "properties": { "内容": "渡の里　訪問リハビリテーション【訪問リハビリテーション】香川県高松市香川町浅野2061番地", "url": "https://www.kaigokensaku.mhlw.go.jp/37/index.php?action_kouhyou_detail_004_kani=true&JigyosyoCd=3770105561-00&ServiceCd=140&Type=search", "url2": "http://www.jinsenkai.jp/watashi/" }, "geometry": { "type": "Point", "coordinates": [ 134.041880399999968, 34.2513122 ] } },
{ "type": "Feature", "properties": { "内容": "鮎の里　訪問リハビリテーション【訪問リハビリテーション】香川県高松市香川町川東上150番地1", "url": "https://www.kaigokensaku.mhlw.go.jp/37/index.php?action_kouhyou_detail_004_kani=true&JigyosyoCd=3771400409-00&ServiceCd=140&Type=search", "url2": "http://www.jinsenkai.jp/ayu/" }, "geometry": { "type": "Point", "coordinates": [ 134.034368500000028, 34.2137707 ] } },
{ "type": "Feature", "properties": { "内容": "高松平和病院【訪問リハビリテーション】香川県高松市栗林町1-4-1", "url": "https://www.kaigokensaku.mhlw.go.jp/37/index.php?action_kouhyou_detail_004_kani=true&JigyosyoCd=3710114731-00&ServiceCd=140&Type=search", "url2": "http:/www.t-heiwa.com" }, "geometry": { "type": "Point", "coordinates": [ 134.0468439, 34.3314389 ] } },
{ "type": "Feature", "properties": { "内容": "高松協同病院【訪問リハビリテーション】高松市木太町4664番地高松協同病院", "url": "https://www.kaigokensaku.mhlw.go.jp/37/index.php?action_kouhyou_detail_004_kani=true&JigyosyoCd=3710120027-00&ServiceCd=140&Type=search", "url2": "http://www.t-kyodo.com/" }, "geometry": { "type": "Point", "coordinates": [ 134.085785499999929, 34.3231871 ] } },
{ "type": "Feature", "properties": { "内容": "医療法人和光会　前田病院【訪問リハビリテーション】東ハゼ町824番地", "url": "https://www.kaigokensaku.mhlw.go.jp/37/index.php?action_kouhyou_detail_004_kani=true&JigyosyoCd=3710112511-00&ServiceCd=140&Type=search", "url2": "https://www.maeda-hosp.com/" }, "geometry": { "type": "Point", "coordinates": [ 134.0388324, 34.3204616 ] } },
{ "type": "Feature", "properties": { "内容": "医療法人社団　東高松クリニック【訪問リハビリテーション】香川県高松市高松町2310-2", "url": "https://www.kaigokensaku.mhlw.go.jp/37/index.php?action_kouhyou_detail_004_kani=true&JigyosyoCd=3710116041-00&ServiceCd=140&Type=search", "url2": "https://east.nishitakamatsu.jp" }, "geometry": { "type": "Point", "coordinates": [ 134.118178, 34.3401097 ] } },
{ "type": "Feature", "properties": { "内容": "老人保健施設　健祥会バーデン【訪問リハビリテーション】香川県高松市塩江町安原上東137番地", "url": "https://www.kaigokensaku.mhlw.go.jp/37/index.php?action_kouhyou_detail_004_kani=true&JigyosyoCd=3770111114-00&ServiceCd=140&Type=search", "url2": "https://www.kenshokai.group/" }, "geometry": { "type": "Point", "coordinates": [ 134.0791126, 34.1711541 ] } },
{ "type": "Feature", "properties": { "内容": "医療法人社団　丸亀おのクリニック【訪問リハビリテーション】香川県丸亀市新町2-13", "url": "https://www.kaigokensaku.mhlw.go.jp/37/index.php?action_kouhyou_detail_004_kani=true&JigyosyoCd=3710211594-00&ServiceCd=140&Type=search", "url2": "http://www.ono-clinic.or.jp" }, "geometry": { "type": "Point", "coordinates": [ 133.792092300000036, 34.2922781 ] } },
{ "type": "Feature", "properties": { "内容": "医療法人社団丸亀博愛会ふたご山クリニック【訪問リハビリテーション】丸亀市川西町北1360-1ふたご山クリニック", "url": "https://www.kaigokensaku.mhlw.go.jp/37/index.php?action_kouhyou_detail_004_kani=true&JigyosyoCd=3710211644-00&ServiceCd=140&Type=search", "url2": null }, "geometry": { "type": "Point", "coordinates": [ 133.8212002, 34.267701 ] } },
{ "type": "Feature", "properties": { "内容": "医療法人社団　田村クリニック【訪問リハビリテーション】香川県丸亀市幸町1丁目5番5号", "url": "https://www.kaigokensaku.mhlw.go.jp/37/index.php?action_kouhyou_detail_004_kani=true&JigyosyoCd=3710212139-00&ServiceCd=140&Type=search", "url2": "http://www.tamura-clin.com" }, "geometry": { "type": "Point", "coordinates": [ 133.7894344, 34.2877842 ] } },
{ "type": "Feature", "properties": { "内容": "医療法人西山記念会MIRAI病院【訪問リハビリテーション】香川県坂出市加茂町633-1", "url": "https://www.kaigokensaku.mhlw.go.jp/37/index.php?action_kouhyou_detail_004_kani=true&JigyosyoCd=3710311410-00&ServiceCd=140&Type=search", "url2": "http://www.kbn.ne.jp/home/neuronis/" }, "geometry": { "type": "Point", "coordinates": [ 133.910264899999987, 34.3069658 ] } },
{ "type": "Feature", "properties": { "内容": "医療法人西山記念会MIRAI病院【訪問リハビリテーション】香川県坂出市加茂町633-1", "url": "https://www.kaigokensaku.mhlw.go.jp/37/index.php?action_kouhyou_detail_004_kani=true&JigyosyoCd=3710311873-00&ServiceCd=140&Type=search", "url2": "https://www.mirai-hospital.com/" }, "geometry": { "type": "Point", "coordinates": [ 133.9104654, 34.3078217 ] } },
{ "type": "Feature", "properties": { "内容": "医療法人社団　純心会　善通寺前田病院【訪問リハビリテーション】善通寺市中村町894番地1", "url": "https://www.kaigokensaku.mhlw.go.jp/37/index.php?action_kouhyou_detail_004_kani=true&JigyosyoCd=3710410766-00&ServiceCd=140&Type=search", "url2": "http://www.junshinkai.com" }, "geometry": { "type": "Point", "coordinates": [ 133.7648839, 34.2432488 ] } },
{ "type": "Feature", "properties": { "内容": "善通寺診療所【訪問リハビリテーション】香川県善通寺市上吉田町6-8-9", "url": "https://www.kaigokensaku.mhlw.go.jp/37/index.php?action_kouhyou_detail_004_kani=true&JigyosyoCd=3710410717-00&ServiceCd=140&Type=search", "url2": "https://kagawa.coop/zentsuji/" }, "geometry": { "type": "Point", "coordinates": [ 133.7846599, 34.2307076 ] } },
{ "type": "Feature", "properties": { "内容": "医療法人高樹会ふじた医院【訪問リハビリテーション】香川県善通寺市上吉田町４丁目５番１号", "url": "https://www.kaigokensaku.mhlw.go.jp/37/index.php?action_kouhyou_detail_004_kani=true&JigyosyoCd=3710411061-00&ServiceCd=140&Type=search", "url2": null }, "geometry": { "type": "Point", "coordinates": [ 133.7807913, 34.2288974 ] } },
{ "type": "Feature", "properties": { "内容": "医療法人社団　大杉脳神経外科医院【訪問リハビリテーション】香川県善通寺市大麻町2079番地1", "url": "https://www.kaigokensaku.mhlw.go.jp/37/index.php?action_kouhyou_detail_004_kani=true&JigyosyoCd=3710410865-00&ServiceCd=140&Type=search", "url2": "https://www.osugi-mao.jp" }, "geometry": { "type": "Point", "coordinates": [ 133.799843, 34.2159144 ] } },
{ "type": "Feature", "properties": { "内容": "冨士クリニック【訪問リハビリテーション】香川県観音寺市観音寺町甲３００２番地", "url": "https://www.kaigokensaku.mhlw.go.jp/37/index.php?action_kouhyou_detail_004_kani=true&JigyosyoCd=3710511209-00&ServiceCd=140&Type=search", "url2": null }, "geometry": { "type": "Point", "coordinates": [ 133.650557, 34.1277307 ] } },
{ "type": "Feature", "properties": { "内容": "医療法人社団香川井下病院【訪問リハビリテーション】香川県観音寺市大野原町花稲818番地１", "url": "https://www.kaigokensaku.mhlw.go.jp/37/index.php?action_kouhyou_detail_004_kani=true&JigyosyoCd=3710511399-00&ServiceCd=140&Type=search", "url2": "http://www.kagawa-inosita-hospital.or.jp/index.html" }, "geometry": { "type": "Point", "coordinates": [ 133.647279700000013, 34.0974338 ] } },
{ "type": "Feature", "properties": { "内容": "香川県立白鳥病院【訪問リハビリテーション】香川県東かがわ市松原963", "url": "https://www.kaigokensaku.mhlw.go.jp/37/index.php?action_kouhyou_detail_004_kani=true&JigyosyoCd=3717010080-00&ServiceCd=140&Type=search", "url2": "http://www.pref.kagawa.jp/shirotoribyoin/" }, "geometry": { "type": "Point", "coordinates": [ 134.369910849737579, 34.241867844705261 ] } },
{ "type": "Feature", "properties": { "内容": "医療法人社団聖心会阪本病院【訪問リハビリテーション】香川県東かがわ市川東１０３番地１", "url": "https://www.kaigokensaku.mhlw.go.jp/37/index.php?action_kouhyou_detail_004_kani=true&JigyosyoCd=3710710306-00&ServiceCd=140&Type=search", "url2": "http://www.sakamoto-hosp.or.jp" }, "geometry": { "type": "Point", "coordinates": [ 134.331867399999965, 34.2492878 ] } },
{ "type": "Feature", "properties": { "内容": "太田病院訪問リハビリテーション【訪問リハビリテーション】香川県東かがわ市三本松１７５８番地", "url": "https://www.kaigokensaku.mhlw.go.jp/37/index.php?action_kouhyou_detail_004_kani=true&JigyosyoCd=3710710371-00&ServiceCd=140&Type=search", "url2": "http:/www.otahospital.org/" }, "geometry": { "type": "Point", "coordinates": [ 134.3389177, 34.2479411 ] } },
{ "type": "Feature", "properties": { "内容": "介護老人保健施設みの荘　訪問リハビリテーション【訪問リハビリテーション】香川県三豊市三野町大見乙91-8", "url": "https://www.kaigokensaku.mhlw.go.jp/37/index.php?action_kouhyou_detail_004_kani=true&JigyosyoCd=3751780028-00&ServiceCd=140&Type=search", "url2": "http://minofukushikai.sun-age.or.jp" }, "geometry": { "type": "Point", "coordinates": [ 133.7206251, 34.2266288 ] } },
{ "type": "Feature", "properties": { "内容": "三豊市立西香川病院【訪問リハビリテーション】香川県三豊市高瀬町比地中２９８６番地３", "url": "https://www.kaigokensaku.mhlw.go.jp/37/index.php?action_kouhyou_detail_004_kani=true&JigyosyoCd=3717011476-00&ServiceCd=140&Type=search", "url2": "http://nishikagawa.com" }, "geometry": { "type": "Point", "coordinates": [ 133.70176790000005, 34.1742124 ] } },
{ "type": "Feature", "properties": { "内容": "訪問リハビリテーションセンターはしもと【訪問リハビリテーション】香川県三豊市山本町財田西902番地1医療法人社団和風会橋本病院", "url": "https://www.kaigokensaku.mhlw.go.jp/37/index.php?action_kouhyou_detail_004_kani=true&JigyosyoCd=3710810106-00&ServiceCd=140&Type=search", "url2": "http://www.wafukai-hashimoto.jp" }, "geometry": { "type": "Point", "coordinates": [ 133.735695309786934, 34.117515003551063 ] } },
{ "type": "Feature", "properties": { "内容": "生協みき診療所【訪問リハビリテーション】木田郡三木町氷上112-1", "url": "https://www.kaigokensaku.mhlw.go.jp/37/index.php?action_kouhyou_detail_004_kani=true&JigyosyoCd=3711310528-00&ServiceCd=140&Type=search", "url2": "http://www.kagawa.coop/" }, "geometry": { "type": "Point", "coordinates": [ 134.1302217, 34.2659147 ] } },
{ "type": "Feature", "properties": { "内容": "綾川町国民健康保険陶病院【訪問リハビリテーション】香川県綾歌郡綾川町陶1720番地1", "url": "https://www.kaigokensaku.mhlw.go.jp/37/index.php?action_kouhyou_detail_004_kani=true&JigyosyoCd=3717011583-00&ServiceCd=140&Type=search", "url2": "http://www.sue-hp.jp" }, "geometry": { "type": "Point", "coordinates": [ 133.943477700000017, 34.2595458 ] } },
{ "type": "Feature", "properties": { "内容": "医療法人社団たけお会　岩佐病院【訪問リハビリテーション】仲多度郡琴平町榎井775", "url": "https://www.kaigokensaku.mhlw.go.jp/37/index.php?action_kouhyou_detail_004_kani=true&JigyosyoCd=3711610745-00&ServiceCd=140&Type=search", "url2": "http://www.iwasa.or.jp" }, "geometry": { "type": "Point", "coordinates": [ 133.824530399999958, 34.1912893 ] } },
{ "type": "Feature", "properties": { "内容": "医療法人社団　昌樹会　ウツミ整形外科医院【訪問リハビリテーション】仲多度郡多度津町道福寺132", "url": "https://www.kaigokensaku.mhlw.go.jp/37/index.php?action_kouhyou_detail_004_kani=true&JigyosyoCd=3711611032-00&ServiceCd=140&Type=search", "url2": "http://www.utsumi-clinic.com" }, "geometry": { "type": "Point", "coordinates": [ 133.7646221, 34.2600356 ] } },
{ "type": "Feature", "properties": { "内容": "介護老人保健施設　やすらぎの森【訪問リハビリテーション】香川県仲多度郡多度津町寿町７番３号", "url": "https://www.kaigokensaku.mhlw.go.jp/37/index.php?action_kouhyou_detail_004_kani=true&JigyosyoCd=3751680046-00&ServiceCd=140&Type=search", "url2": "http://katouhp.net/" }, "geometry": { "type": "Point", "coordinates": [ 133.75882660000002, 34.2701493 ] } },
{ "type": "Feature", "properties": { "内容": "医療法人社団　山本ヒフ泌尿器科医院【訪問リハビリテーション】香川県仲多度郡まんのう町四條下村下所1105-1", "url": "https://www.kaigokensaku.mhlw.go.jp/37/index.php?action_kouhyou_detail_004_kani=true&JigyosyoCd=3711611024-00&ServiceCd=140&Type=search", "url2": "http://www.myclinic.ne.jp/yama3258/" }, "geometry": { "type": "Point", "coordinates": [ 133.834529800000041, 34.1932255 ] } }
]
}
