{
"type": "FeatureCollection",
"name": "geo_37_幼保連携型認定こども園",
"crs": { "type": "name", "properties": { "name": "urn:ogc:def:crs:EPSG::6668" } },
"features": [
{ "type": "Feature", "properties": { "P29_001": "37201", "P29_002": "A237220100015", "P29_003": "16013", "P29_004": "高松市下笠居こども園", "P29_005": "香川県高松市生島町335", "P29_006": "3", "P29_007": "0", "P29_008": "00", "P29_009": null }, "geometry": { "type": "Point", "coordinates": [ 133.967551997901865, 34.358476828564143 ] } },
{ "type": "Feature", "properties": { "P29_001": "37201", "P29_002": "A237220100024", "P29_003": "16013", "P29_004": "高松市はらこども園", "P29_005": "香川県高松市牟礼町原570-1", "P29_006": "3", "P29_007": "0", "P29_008": "00", "P29_009": null }, "geometry": { "type": "Point", "coordinates": [ 134.156041444312962, 34.328583443444927 ] } },
{ "type": "Feature", "properties": { "P29_001": "37201", "P29_002": "A237220100033", "P29_003": "16013", "P29_004": "高松市庵治こども園", "P29_005": "香川県高松市庵治町853-1", "P29_006": "3", "P29_007": "0", "P29_008": "00", "P29_009": null }, "geometry": { "type": "Point", "coordinates": [ 134.131479580537928, 34.385780342919233 ] } },
{ "type": "Feature", "properties": { "P29_001": "37201", "P29_002": "A237220100042", "P29_003": "16013", "P29_004": "高松市香南こども園", "P29_005": "香川県高松市香南町横井865-1", "P29_006": "3", "P29_007": "0", "P29_008": "00", "P29_009": null }, "geometry": { "type": "Point", "coordinates": [ 134.005791809132745, 34.242060518643164 ] } },
{ "type": "Feature", "properties": { "P29_001": "37201", "P29_002": "A237220100051", "P29_003": "16013", "P29_004": "高松市塩江こども園", "P29_005": "香川県高松市塩江町安原下第1-887", "P29_006": "3", "P29_007": "0", "P29_008": "00", "P29_009": null }, "geometry": { "type": "Point", "coordinates": [ 134.061290173364739, 34.18868919594162 ] } },
{ "type": "Feature", "properties": { "P29_001": "37201", "P29_002": "A237220100060", "P29_003": "16013", "P29_004": "高松市川東こども園", "P29_005": "香川県高松市香川町川東上1987-4", "P29_006": "3", "P29_007": "0", "P29_008": "00", "P29_009": null }, "geometry": { "type": "Point", "coordinates": [ 134.035183567853636, 34.237724283182338 ] } },
{ "type": "Feature", "properties": { "P29_001": "37201", "P29_002": "A237220100079", "P29_003": "16013", "P29_004": "高松市林こども園", "P29_005": "香川県高松市林町1405-4", "P29_006": "3", "P29_007": "0", "P29_008": "00", "P29_009": null }, "geometry": { "type": "Point", "coordinates": [ 134.075019447464058, 34.301568306404491 ] } },
{ "type": "Feature", "properties": { "P29_001": "37201", "P29_002": "A237220100088", "P29_003": "16013", "P29_004": "高松市屋島こども園", "P29_005": "香川県高松市屋島西町1744-1", "P29_006": "3", "P29_007": "0", "P29_008": "00", "P29_009": null }, "geometry": { "type": "Point", "coordinates": [ 134.099813003213313, 34.342543000124536 ] } },
{ "type": "Feature", "properties": { "P29_001": "37201", "P29_002": "A237220100097", "P29_003": "16013", "P29_004": "高松市川島こども園", "P29_005": "香川県高松市川島東町253-4", "P29_006": "3", "P29_007": "0", "P29_008": "00", "P29_009": null }, "geometry": { "type": "Point", "coordinates": [ 134.09151060514435, 34.276765066070865 ] } },
{ "type": "Feature", "properties": { "P29_001": "37201", "P29_002": "A237220100104", "P29_003": "16013", "P29_004": "高松市浅野こども園", "P29_005": "香川県高松市香川町浅野816-1", "P29_006": "3", "P29_007": "0", "P29_008": "00", "P29_009": null }, "geometry": { "type": "Point", "coordinates": [ 134.036940999767296, 34.257823999954475 ] } },
{ "type": "Feature", "properties": { "P29_001": "37202", "P29_002": "A237220200014", "P29_003": "16013", "P29_004": "丸亀市立飯野こども園", "P29_005": "香川県丸亀市飯野町東分2576", "P29_006": "3", "P29_007": "0", "P29_008": "00", "P29_009": null }, "geometry": { "type": "Point", "coordinates": [ 133.83338758442116, 34.278918197369805 ] } },
{ "type": "Feature", "properties": { "P29_001": "37202", "P29_002": "A237220200023", "P29_003": "16013", "P29_004": "丸亀市立あやうたこども園", "P29_005": "香川県丸亀市綾歌町岡田東1150", "P29_006": "3", "P29_007": "0", "P29_008": "00", "P29_009": null }, "geometry": { "type": "Point", "coordinates": [ 133.869366452723312, 34.235727918331506 ] } },
{ "type": "Feature", "properties": { "P29_001": "37202", "P29_002": "A237220200032", "P29_003": "16013", "P29_004": "丸亀市立垂水こども園", "P29_005": "香川県丸亀市垂水町1709", "P29_006": "3", "P29_007": "0", "P29_008": "00", "P29_009": null }, "geometry": { "type": "Point", "coordinates": [ 133.824522201736386, 34.231186961356876 ] } },
{ "type": "Feature", "properties": { "P29_001": "37202", "P29_002": "A237220200041", "P29_003": "16013", "P29_004": "丸亀市立飯山こども園", "P29_005": "香川県丸亀市飯山町真時71-1", "P29_006": "3", "P29_007": "0", "P29_008": "00", "P29_009": null }, "geometry": { "type": "Point", "coordinates": [ 133.850133484675354, 34.25635813647154 ] } },
{ "type": "Feature", "properties": { "P29_001": "37202", "P29_002": "A237220200050", "P29_003": "16013", "P29_004": "丸亀市立城北こども園", "P29_005": "香川県丸亀市北平山町2-12-20", "P29_006": "3", "P29_007": "0", "P29_008": "00", "P29_009": null }, "geometry": { "type": "Point", "coordinates": [ 133.79771943396679, 34.297462477837989 ] } },
{ "type": "Feature", "properties": { "P29_001": "37202", "P29_002": "A237220200069", "P29_003": "16013", "P29_004": "丸亀市立郡家こども園", "P29_005": "香川県丸亀市郡家町787", "P29_006": "3", "P29_007": "0", "P29_008": "00", "P29_009": null }, "geometry": { "type": "Point", "coordinates": [ 133.814463847359065, 34.252167643598078 ] } },
{ "type": "Feature", "properties": { "P29_001": "37203", "P29_002": "A237220300013", "P29_003": "16013", "P29_004": "坂出市立府中こども園", "P29_005": "香川県坂出市府中町5008-1", "P29_006": "3", "P29_007": "0", "P29_008": "00", "P29_009": null }, "geometry": { "type": "Point", "coordinates": [ 133.915586862011537, 34.291648315916184 ] } },
{ "type": "Feature", "properties": { "P29_001": "37203", "P29_002": "A237220300022", "P29_003": "16013", "P29_004": "坂出市立松山こども園", "P29_005": "香川県坂出市高屋町1101-3", "P29_006": "3", "P29_007": "0", "P29_008": "00", "P29_009": null }, "geometry": { "type": "Point", "coordinates": [ 133.908207142677668, 34.339412224444978 ] } },
{ "type": "Feature", "properties": { "P29_001": "37203", "P29_002": "A237220300031", "P29_003": "16013", "P29_004": "坂出市立川津こども園", "P29_005": "香川県坂出市川津町3093-21", "P29_006": "3", "P29_007": "0", "P29_008": "00", "P29_009": null }, "geometry": { "type": "Point", "coordinates": [ 133.856754403426663, 34.29333961279589 ] } },
{ "type": "Feature", "properties": { "P29_001": "37205", "P29_002": "A237220500011", "P29_003": "16013", "P29_004": "観音寺市立観音寺こども園", "P29_005": "香川県観音寺市観音寺町甲2558-2", "P29_006": "3", "P29_007": "0", "P29_008": "00", "P29_009": null }, "geometry": { "type": "Point", "coordinates": [ 133.649193001013003, 34.125413997780541 ] } },
{ "type": "Feature", "properties": { "P29_001": "37205", "P29_002": "A237220500020", "P29_003": "16013", "P29_004": "観音寺市立大野原こども園", "P29_005": "香川県観音寺市大野原町大野原1675-1", "P29_006": "3", "P29_007": "0", "P29_008": "00", "P29_009": null }, "geometry": { "type": "Point", "coordinates": [ 133.659531847598487, 34.08498038169828 ] } },
{ "type": "Feature", "properties": { "P29_001": "37206", "P29_002": "A237220600010", "P29_003": "16013", "P29_004": "さぬき市立津田こども園", "P29_005": "香川県さぬき市津田町津田164-2", "P29_006": "3", "P29_007": "0", "P29_008": "00", "P29_009": null }, "geometry": { "type": "Point", "coordinates": [ 134.251521294972633, 34.285192429882308 ] } },
{ "type": "Feature", "properties": { "P29_001": "37207", "P29_002": "A237220700019", "P29_003": "16013", "P29_004": "東かがわ市立大内こども園", "P29_005": "香川県東かがわ市中筋367-1", "P29_006": "3", "P29_007": "0", "P29_008": "00", "P29_009": null }, "geometry": { "type": "Point", "coordinates": [ 134.323304598986198, 34.242952624877155 ] } },
{ "type": "Feature", "properties": { "P29_001": "37207", "P29_002": "A237220700028", "P29_003": "16013", "P29_004": "東かがわ市立引田こども園", "P29_005": "香川県東かがわ市引田545-6", "P29_006": "3", "P29_007": "0", "P29_008": "00", "P29_009": null }, "geometry": { "type": "Point", "coordinates": [ 134.402937215256429, 34.220825337928659 ] } },
{ "type": "Feature", "properties": { "P29_001": "37207", "P29_002": "A237220700037", "P29_003": "16013", "P29_004": "東かがわ市立丹生こども園", "P29_005": "香川県東かがわ市町田182-1", "P29_006": "3", "P29_007": "0", "P29_008": "00", "P29_009": null }, "geometry": { "type": "Point", "coordinates": [ 134.301040002172243, 34.250349996695441 ] } },
{ "type": "Feature", "properties": { "P29_001": "37208", "P29_002": "A237220800018", "P29_003": "16013", "P29_004": "三豊市立財田こども園", "P29_005": "香川県三豊市財田町財田上1417-1", "P29_006": "3", "P29_007": "0", "P29_008": "00", "P29_009": null }, "geometry": { "type": "Point", "coordinates": [ 133.777373098817293, 34.11878400823403 ] } },
{ "type": "Feature", "properties": { "P29_001": "37208", "P29_002": "A237220800027", "P29_003": "16013", "P29_004": "三豊市立仁尾こども園", "P29_005": "香川県三豊市仁尾町仁尾丁636-1", "P29_006": "3", "P29_007": "0", "P29_008": "00", "P29_009": null }, "geometry": { "type": "Point", "coordinates": [ 133.651277030791874, 34.20420717425403 ] } },
{ "type": "Feature", "properties": { "P29_001": "37322", "P29_002": "A237232200019", "P29_003": "16013", "P29_004": "土庄町立土庄こども園", "P29_005": "香川県小豆郡土庄町甲657-7", "P29_006": "3", "P29_007": "0", "P29_008": "00", "P29_009": null }, "geometry": { "type": "Point", "coordinates": [ 134.183799622604994, 34.485804957550009 ] } },
{ "type": "Feature", "properties": { "P29_001": "37322", "P29_002": "A237232200028", "P29_003": "16013", "P29_004": "土庄町立四海こども園", "P29_005": "香川県小豆郡土庄町伊喜末81-8", "P29_006": "3", "P29_007": "0", "P29_008": "00", "P29_009": null }, "geometry": { "type": "Point", "coordinates": [ 134.165939004335399, 34.513669997392626 ] } },
{ "type": "Feature", "properties": { "P29_001": "37322", "P29_002": "A237232200037", "P29_003": "16013", "P29_004": "土庄町立大鐸こども園", "P29_005": "香川県小豆郡土庄町肥土山甲1729-1", "P29_006": "3", "P29_007": "0", "P29_008": "00", "P29_009": null }, "geometry": { "type": "Point", "coordinates": [ 134.224030002354766, 34.504975997504175 ] } },
{ "type": "Feature", "properties": { "P29_001": "37322", "P29_002": "A237232200046", "P29_003": "16013", "P29_004": "土庄町立北浦こども園", "P29_005": "香川県小豆郡土庄町見目乙423-6", "P29_006": "3", "P29_007": "0", "P29_008": "00", "P29_009": null }, "geometry": { "type": "Point", "coordinates": [ 134.230994745008331, 34.527227962518644 ] } },
{ "type": "Feature", "properties": { "P29_001": "37322", "P29_002": "A237232200055", "P29_003": "16013", "P29_004": "土庄町立大部こども園", "P29_005": "香川県小豆郡土庄町大部甲2019", "P29_006": "3", "P29_007": "0", "P29_008": "00", "P29_009": null }, "geometry": { "type": "Point", "coordinates": [ 134.280582002962063, 34.544973003834336 ] } },
{ "type": "Feature", "properties": { "P29_001": "37364", "P29_002": "A237236400018", "P29_003": "16013", "P29_004": "直島町立直島幼児学園", "P29_005": "香川県香川郡直島町1841", "P29_006": "3", "P29_007": "0", "P29_008": "00", "P29_009": null }, "geometry": { "type": "Point", "coordinates": [ 133.984661180980311, 34.459389585480295 ] } },
{ "type": "Feature", "properties": { "P29_001": "37387", "P29_002": "A237238700011", "P29_003": "16013", "P29_004": "綾川町立滝宮こども園", "P29_005": "香川県綾歌郡綾川町萱原791-1", "P29_006": "3", "P29_007": "0", "P29_008": "00", "P29_009": null }, "geometry": { "type": "Point", "coordinates": [ 133.930040168642819, 34.2478433522054 ] } },
{ "type": "Feature", "properties": { "P29_001": "37387", "P29_002": "A237238700020", "P29_003": "16013", "P29_004": "綾川町立山田こども園", "P29_005": "香川県綾歌郡綾川町山田上甲1490", "P29_006": "3", "P29_007": "0", "P29_008": "00", "P29_009": null }, "geometry": { "type": "Point", "coordinates": [ 133.968987033025485, 34.218389223791995 ] } },
{ "type": "Feature", "properties": { "P29_001": "37403", "P29_002": "A237240300011", "P29_003": "16013", "P29_004": "琴平町立南こども園", "P29_005": "香川県仲多度郡琴平町103", "P29_006": "3", "P29_007": "0", "P29_008": "00", "P29_009": null }, "geometry": { "type": "Point", "coordinates": [ 133.824121181535503, 34.187211204103427 ] } },
{ "type": "Feature", "properties": { "P29_001": "37403", "P29_002": "A237240300020", "P29_003": "16013", "P29_004": "琴平町立北こども園", "P29_005": "香川県仲多度郡琴平町上櫛梨31-1", "P29_006": "3", "P29_007": "0", "P29_008": "00", "P29_009": null }, "geometry": { "type": "Point", "coordinates": [ 133.815588029882662, 34.206452346946463 ] } },
{ "type": "Feature", "properties": { "P29_001": "37406", "P29_002": "A237240600018", "P29_003": "16013", "P29_004": "まんのう町立仲南こども園", "P29_005": "香川県仲多度郡まんのう町帆山744-18", "P29_006": "3", "P29_007": "0", "P29_008": "00", "P29_009": null }, "geometry": { "type": "Point", "coordinates": [ 133.838778037535434, 34.153663301755991 ] } },
{ "type": "Feature", "properties": { "P29_001": "37406", "P29_002": "A237240600027", "P29_003": "16013", "P29_004": "まんのう町立満濃南こども園", "P29_005": "香川県仲多度郡まんのう町吉野66", "P29_006": "3", "P29_007": "0", "P29_008": "00", "P29_009": null }, "geometry": { "type": "Point", "coordinates": [ 133.851181640138748, 34.185326372546776 ] } },
{ "type": "Feature", "properties": { "P29_001": "37406", "P29_002": "A237240600036", "P29_003": "16013", "P29_004": "まんのう町立琴南こども園", "P29_005": "香川県仲多度郡まんのう町造田1981", "P29_006": "3", "P29_007": "0", "P29_008": "00", "P29_009": null }, "geometry": { "type": "Point", "coordinates": [ 133.9252779186927, 34.164679136969355 ] } },
{ "type": "Feature", "properties": { "P29_001": "37406", "P29_002": "A237240600045", "P29_003": "16013", "P29_004": "まんのう町立長炭こども園", "P29_005": "香川県仲多度郡まんのう町炭所西777", "P29_006": "3", "P29_007": "0", "P29_008": "00", "P29_009": null }, "geometry": { "type": "Point", "coordinates": [ 133.883142132247087, 34.182482671526138 ] } },
{ "type": "Feature", "properties": { "P29_001": "37201", "P29_002": "A237320100013", "P29_003": "16013", "P29_004": "サンシャインこどもの森", "P29_005": "香川県高松市上林町502-2", "P29_006": "4", "P29_007": "0", "P29_008": "00", "P29_009": null }, "geometry": { "type": "Point", "coordinates": [ 134.066286136621443, 34.292102128509093 ] } },
{ "type": "Feature", "properties": { "P29_001": "37201", "P29_002": "A237320100022", "P29_003": "16013", "P29_004": "いずみこども園", "P29_005": "香川県高松市国分寺町国分2408", "P29_006": "4", "P29_007": "0", "P29_008": "00", "P29_009": null }, "geometry": { "type": "Point", "coordinates": [ 133.949191220440639, 34.303317648321297 ] } },
{ "type": "Feature", "properties": { "P29_001": "37201", "P29_002": "A237320100031", "P29_003": "16013", "P29_004": "いずみこども園分園", "P29_005": "香川県高松市国分寺町新居281-1", "P29_006": "4", "P29_007": "0", "P29_008": "00", "P29_009": null }, "geometry": { "type": "Point", "coordinates": [ 133.972386446452873, 34.304268470647401 ] } },
{ "type": "Feature", "properties": { "P29_001": "37201", "P29_002": "A237320100040", "P29_003": "16013", "P29_004": "認定こども園高松東幼稚園", "P29_005": "香川県高松市春日町688", "P29_006": "4", "P29_007": "0", "P29_008": "00", "P29_009": null }, "geometry": { "type": "Point", "coordinates": [ 134.087364745900288, 34.327567770669198 ] } },
{ "type": "Feature", "properties": { "P29_001": "37201", "P29_002": "A237320100059", "P29_003": "16013", "P29_004": "幼保連携型認定こども園新田幼稚園", "P29_005": "香川県高松市新田町甲2630-1", "P29_006": "4", "P29_007": "0", "P29_008": "00", "P29_009": null }, "geometry": { "type": "Point", "coordinates": [ 134.099130599541496, 34.325357280878492 ] } },
{ "type": "Feature", "properties": { "P29_001": "37201", "P29_002": "A237320100068", "P29_003": "16013", "P29_004": "和光こども園", "P29_005": "香川県高松市川部町1561-1", "P29_006": "4", "P29_007": "0", "P29_008": "00", "P29_009": null }, "geometry": { "type": "Point", "coordinates": [ 134.00674518149043, 34.268394993698969 ] } },
{ "type": "Feature", "properties": { "P29_001": "37201", "P29_002": "A237320100077", "P29_003": "16013", "P29_004": "認定こども園春日こども園", "P29_005": "香川県高松市春日町1287-1", "P29_006": "4", "P29_007": "0", "P29_008": "00", "P29_009": null }, "geometry": { "type": "Point", "coordinates": [ 134.09451610330521, 34.331478732956107 ] } },
{ "type": "Feature", "properties": { "P29_001": "37201", "P29_002": "A237320100086", "P29_003": "16013", "P29_004": "認定こども園花ノ宮こども園", "P29_005": "香川県高松市花ノ宮町1-10-22", "P29_006": "4", "P29_007": "0", "P29_008": "00", "P29_009": null }, "geometry": { "type": "Point", "coordinates": [ 134.047835036018967, 34.326524265872166 ] } },
{ "type": "Feature", "properties": { "P29_001": "37201", "P29_002": "A237320100095", "P29_003": "16013", "P29_004": "認定こども園中野保育所", "P29_005": "香川県高松市中野町27-5", "P29_006": "4", "P29_007": "0", "P29_008": "00", "P29_009": null }, "geometry": { "type": "Point", "coordinates": [ 134.04505999911899, 34.333462997045039 ] } },
{ "type": "Feature", "properties": { "P29_001": "37201", "P29_002": "A237320100102", "P29_003": "16013", "P29_004": "幼保連携型認定こども園カナン保育園", "P29_005": "香川県高松市仏生山町甲745-2", "P29_006": "4", "P29_007": "0", "P29_008": "00", "P29_009": null }, "geometry": { "type": "Point", "coordinates": [ 134.042352001008396, 34.279874000450448 ] } },
{ "type": "Feature", "properties": { "P29_001": "37201", "P29_002": "A237320100111", "P29_003": "16013", "P29_004": "幼保連携型認定こども園すまいる", "P29_005": "香川県高松市三名町591-1", "P29_006": "4", "P29_007": "0", "P29_008": "00", "P29_009": null }, "geometry": { "type": "Point", "coordinates": [ 134.035115071970154, 34.2930003161187 ] } },
{ "type": "Feature", "properties": { "P29_001": "37201", "P29_002": "A237320100120", "P29_003": "16013", "P29_004": "げんき・結愛・げんきこども園", "P29_005": "香川県高松市六条町604-7", "P29_006": "4", "P29_007": "0", "P29_008": "00", "P29_009": null }, "geometry": { "type": "Point", "coordinates": [ 134.078900003964435, 34.293704001637728 ] } },
{ "type": "Feature", "properties": { "P29_001": "37201", "P29_002": "A237320100139", "P29_003": "16013", "P29_004": "カナン十河こども園", "P29_005": "香川県高松市十川西町546-1", "P29_006": "4", "P29_007": "0", "P29_008": "00", "P29_009": null }, "geometry": { "type": "Point", "coordinates": [ 134.102375004916098, 34.273551000662422 ] } },
{ "type": "Feature", "properties": { "P29_001": "37201", "P29_002": "A237320100148", "P29_003": "16013", "P29_004": "幼保連携型認定こども園高松和貴こども園", "P29_005": "香川県高松市林町2197-1", "P29_006": "4", "P29_007": "0", "P29_008": "00", "P29_009": null }, "geometry": { "type": "Point", "coordinates": [ 134.078428004018463, 34.307240995409181 ] } },
{ "type": "Feature", "properties": { "P29_001": "37201", "P29_002": "A237320100157", "P29_003": "16013", "P29_004": "みらい学園", "P29_005": "香川県高松市木太町3429-3", "P29_006": "4", "P29_007": "0", "P29_008": "00", "P29_009": null }, "geometry": { "type": "Point", "coordinates": [ 134.077842589853987, 34.327120097300799 ] } },
{ "type": "Feature", "properties": { "P29_001": "37201", "P29_002": "A237320100166", "P29_003": "16013", "P29_004": "認定こども園西光寺保育所", "P29_005": "香川県高松市前田西町167-1", "P29_006": "4", "P29_007": "0", "P29_008": "00", "P29_009": null }, "geometry": { "type": "Point", "coordinates": [ 134.115758950484093, 34.300447369584234 ] } },
{ "type": "Feature", "properties": { "P29_001": "37201", "P29_002": "A237320100175", "P29_003": "16013", "P29_004": "幼保連携型認定こども園川添こども園", "P29_005": "香川県高松市下田井町52", "P29_006": "4", "P29_007": "0", "P29_008": "00", "P29_009": null }, "geometry": { "type": "Point", "coordinates": [ 134.092386920345717, 34.299529182592792 ] } },
{ "type": "Feature", "properties": { "P29_001": "37201", "P29_002": "A237320100184", "P29_003": "16013", "P29_004": "幼保連携型円座百華こども園", "P29_005": "香川県高松市円座町1478-1", "P29_006": "4", "P29_007": "0", "P29_008": "00", "P29_009": null }, "geometry": { "type": "Point", "coordinates": [ 134.010142003198808, 34.284916998325876 ] } },
{ "type": "Feature", "properties": { "P29_001": "37201", "P29_002": "A237320100193", "P29_003": "16013", "P29_004": "認定こども園高松くりの木学舎", "P29_005": "香川県高松市花園町3-4-5", "P29_006": "4", "P29_007": "0", "P29_008": "00", "P29_009": null }, "geometry": { "type": "Point", "coordinates": [ 134.055793003542988, 34.333035999612029 ] } },
{ "type": "Feature", "properties": { "P29_001": "37201", "P29_002": "A237320100200", "P29_003": "16013", "P29_004": "幼保連携型勅使百華こども園", "P29_005": "香川県高松市勅使町955", "P29_006": "4", "P29_007": "0", "P29_008": "00", "P29_009": null }, "geometry": { "type": "Point", "coordinates": [ 134.02159784041325, 34.304738578124685 ] } },
{ "type": "Feature", "properties": { "P29_001": "37202", "P29_002": "A237320200012", "P29_003": "16013", "P29_004": "幼保連携型認定こども園はらだこども園", "P29_005": "香川県丸亀市原田町2046", "P29_006": "4", "P29_007": "0", "P29_008": "00", "P29_009": null }, "geometry": { "type": "Point", "coordinates": [ 133.79037920790887, 34.258392978172211 ] } },
{ "type": "Feature", "properties": { "P29_001": "37202", "P29_002": "A237320200021", "P29_003": "16013", "P29_004": "幼保連携型認定こども園誠心こども園", "P29_005": "香川県丸亀市郡家町2573-1", "P29_006": "4", "P29_007": "0", "P29_008": "00", "P29_009": null }, "geometry": { "type": "Point", "coordinates": [ 133.812431538382214, 34.260632042464493 ] } },
{ "type": "Feature", "properties": { "P29_001": "37202", "P29_002": "A237320200030", "P29_003": "16013", "P29_004": "ドルカスこども園", "P29_005": "香川県丸亀市飯山町東坂元185", "P29_006": "4", "P29_007": "0", "P29_008": "00", "P29_009": null }, "geometry": { "type": "Point", "coordinates": [ 133.855397997017263, 34.27268299747044 ] } },
{ "type": "Feature", "properties": { "P29_001": "37202", "P29_002": "A237320200049", "P29_003": "16013", "P29_004": "丸亀ひまわりこども園", "P29_005": "香川県丸亀市城東町2-1-38", "P29_006": "4", "P29_007": "0", "P29_008": "00", "P29_009": null }, "geometry": { "type": "Point", "coordinates": [ 133.80440999856242, 34.28424499863111 ] } },
{ "type": "Feature", "properties": { "P29_001": "37202", "P29_002": "A237320200058", "P29_003": "16013", "P29_004": "幼保連携型認定こども園彩芽こども園", "P29_005": "香川県丸亀市三条町781-1", "P29_006": "4", "P29_007": "0", "P29_008": "00", "P29_009": null }, "geometry": { "type": "Point", "coordinates": [ 133.806381264528056, 34.25076921319495 ] } },
{ "type": "Feature", "properties": { "P29_001": "37203", "P29_002": "A237320300011", "P29_003": "16013", "P29_004": "認定こども園きんかこども園", "P29_005": "香川県坂出市西庄町638-1", "P29_006": "4", "P29_007": "0", "P29_008": "00", "P29_009": null }, "geometry": { "type": "Point", "coordinates": [ 133.887092564904464, 34.314614644109341 ] } },
{ "type": "Feature", "properties": { "P29_001": "37204", "P29_002": "A237320400010", "P29_003": "16013", "P29_004": "香川短期大学附属のぞみこども園", "P29_005": "香川県善通寺市上吉田町8-7-24", "P29_006": "4", "P29_007": "0", "P29_008": "00", "P29_009": null }, "geometry": { "type": "Point", "coordinates": [ 133.779354478352445, 34.232263228533526 ] } },
{ "type": "Feature", "properties": { "P29_001": "37204", "P29_002": "A237320400029", "P29_003": "16013", "P29_004": "幼保連携型認定こども園カナン子育てプラザ２１", "P29_005": "香川県善通寺市生野本町2-16-1", "P29_006": "4", "P29_007": "0", "P29_008": "00", "P29_009": null }, "geometry": { "type": "Point", "coordinates": [ 133.78537464710891, 34.224887354207745 ] } },
{ "type": "Feature", "properties": { "P29_001": "37205", "P29_002": "A237320500019", "P29_003": "16013", "P29_004": "くれよん認定こども園", "P29_005": "香川県観音寺市大野原町花稲218-1", "P29_006": "4", "P29_007": "0", "P29_008": "00", "P29_009": null }, "geometry": { "type": "Point", "coordinates": [ 133.644260850813907, 34.097659712659379 ] } },
{ "type": "Feature", "properties": { "P29_001": "37205", "P29_002": "A237320500028", "P29_003": "16013", "P29_004": "柞田こども園", "P29_005": "香川県観音寺市柞田町丙1538", "P29_006": "4", "P29_007": "0", "P29_008": "00", "P29_009": null }, "geometry": { "type": "Point", "coordinates": [ 133.660642998142066, 34.10898399786128 ] } },
{ "type": "Feature", "properties": { "P29_001": "37205", "P29_002": "A237320500037", "P29_003": "16013", "P29_004": "愛和ハーベスト", "P29_005": "香川県観音寺市木之郷町203", "P29_006": "4", "P29_007": "0", "P29_008": "00", "P29_009": null }, "geometry": { "type": "Point", "coordinates": [ 133.679013004705155, 34.107682000944607 ] } },
{ "type": "Feature", "properties": { "P29_001": "37205", "P29_002": "A237320500046", "P29_003": "16013", "P29_004": "観音寺中部こども園", "P29_005": "香川県観音寺市植田町1217-3", "P29_006": "4", "P29_007": "0", "P29_008": "00", "P29_009": null }, "geometry": { "type": "Point", "coordinates": [ 133.675905596330949, 34.121084063283348 ] } },
{ "type": "Feature", "properties": { "P29_001": "37206", "P29_002": "A237320600018", "P29_003": "16013", "P29_004": "幼保連携型認定こども園だいご", "P29_005": "香川県さぬき市寒川町石田東甲639-2", "P29_006": "4", "P29_007": "0", "P29_008": "00", "P29_009": null }, "geometry": { "type": "Point", "coordinates": [ 134.202571207636055, 34.259532051694208 ] } },
{ "type": "Feature", "properties": { "P29_001": "37206", "P29_002": "A237320600027", "P29_003": "16013", "P29_004": "よしいけこども園", "P29_005": "香川県さぬき市志度4212-1", "P29_006": "4", "P29_007": "0", "P29_008": "00", "P29_009": null }, "geometry": { "type": "Point", "coordinates": [ 134.177064995266903, 34.314699999064551 ] } },
{ "type": "Feature", "properties": { "P29_001": "37206", "P29_002": "A237320600036", "P29_003": "16013", "P29_004": "ひまわりこども園", "P29_005": "香川県さぬき市鴨部1629", "P29_006": "4", "P29_007": "0", "P29_008": "00", "P29_009": null }, "geometry": { "type": "Point", "coordinates": [ 134.222396546143159, 34.313324209398665 ] } },
{ "type": "Feature", "properties": { "P29_001": "37206", "P29_002": "A237320600045", "P29_003": "16013", "P29_004": "認定こども園長尾学舎", "P29_005": "香川県さぬき市長尾西1601-1", "P29_006": "4", "P29_007": "0", "P29_008": "00", "P29_009": null }, "geometry": { "type": "Point", "coordinates": [ 134.175058999614635, 34.254897000182936 ] } },
{ "type": "Feature", "properties": { "P29_001": "37207", "P29_002": "A237320700017", "P29_003": "16013", "P29_004": "けいあいこども園", "P29_005": "香川県東かがわ市白鳥647-1", "P29_006": "4", "P29_007": "0", "P29_008": "00", "P29_009": null }, "geometry": { "type": "Point", "coordinates": [ 134.348317946478886, 34.238869114112056 ] } },
{ "type": "Feature", "properties": { "P29_001": "37208", "P29_002": "A237320800016", "P29_003": "16013", "P29_004": "虹ヲわたり", "P29_005": "香川県三豊市高瀬町比地181-1", "P29_006": "4", "P29_007": "0", "P29_008": "00", "P29_009": null }, "geometry": { "type": "Point", "coordinates": [ 133.693656909720005, 34.178538267642793 ] } },
{ "type": "Feature", "properties": { "P29_001": "37208", "P29_002": "A237320800025", "P29_003": "16013", "P29_004": "幼保連携型認定こども園スマはぴ丘の上ｓｔａｔｉｏｎ", "P29_005": "香川県三豊市上高瀬2024-2", "P29_006": "4", "P29_007": "0", "P29_008": "00", "P29_009": null }, "geometry": { "type": "Point", "coordinates": [ 133.729367670858267, 34.185344552301757 ] } },
{ "type": "Feature", "properties": { "P29_001": "37324", "P29_002": "A237332400015", "P29_003": "16013", "P29_004": "せいけんじこども園", "P29_005": "香川県小豆郡小豆島町草壁本町395", "P29_006": "4", "P29_007": "0", "P29_008": "00", "P29_009": null }, "geometry": { "type": "Point", "coordinates": [ 134.303142998524379, 34.48493499722931 ] } },
{ "type": "Feature", "properties": { "P29_001": "37386", "P29_002": "A237338600010", "P29_003": "16013", "P29_004": "わかくさ北こども園", "P29_005": "香川県綾歌郡宇多津町浜八番丁111", "P29_006": "4", "P29_007": "0", "P29_008": "00", "P29_009": null }, "geometry": { "type": "Point", "coordinates": [ 133.821384267073256, 34.312046290193955 ] } },
{ "type": "Feature", "properties": { "P29_001": "37386", "P29_002": "A237338600029", "P29_003": "16013", "P29_004": "平山こども園", "P29_005": "香川県綾歌郡宇多津町2626-1", "P29_006": "4", "P29_007": "0", "P29_008": "00", "P29_009": null }, "geometry": { "type": "Point", "coordinates": [ 133.826654618710279, 34.315752924737403 ] } },
{ "type": "Feature", "properties": { "P29_001": "37386", "P29_002": "A237338600038", "P29_003": "16013", "P29_004": "わかくさこども園", "P29_005": "香川県綾歌郡宇多津町926-1", "P29_006": "4", "P29_007": "0", "P29_008": "00", "P29_009": null }, "geometry": { "type": "Point", "coordinates": [ 133.832460728774691, 34.306965200336158 ] } }
]
}
