{
"type": "FeatureCollection",
"name": "geo_37_特定施設入居者生活介護（有料老人ホーム（サービス付き高齢者向け住宅））",
"crs": { "type": "name", "properties": { "name": "urn:ogc:def:crs:OGC:1.3:CRS84" } },
"features": [
{ "type": "Feature", "properties": { "内容": "サービス付き高齢者向け住宅　アゼリア木太【特定施設入居者生活介護（有料老人ホーム（サービス付き高齢者向け住宅））】香川県高松市木太町3429番地8", "url": "https://www.kaigokensaku.mhlw.go.jp/37/index.php?action_kouhyou_detail_004_kani=true&JigyosyoCd=3770110991-00&ServiceCd=&Type=search", "url2": "https://utazufukushikai.or.jp/" }, "geometry": { "type": "Point", "coordinates": [ 134.077660825794993, 34.327164919447654 ] } },
{ "type": "Feature", "properties": { "内容": "特定施設　花らんまん【特定施設入居者生活介護（有料老人ホーム（サービス付き高齢者向け住宅））】香川県高松市浜ノ町60番65号花らんまん", "url": "https://www.kaigokensaku.mhlw.go.jp/37/index.php?action_kouhyou_detail_004_kani=true&JigyosyoCd=3770110157-00&ServiceCd=&Type=search", "url2": "http://www.zuishou.net" }, "geometry": { "type": "Point", "coordinates": [ 134.040443029499784, 34.351401837310959 ] } },
{ "type": "Feature", "properties": { "内容": "特定施設すずかけの径【特定施設入居者生活介護（有料老人ホーム（サービス付き高齢者向け住宅））】香川県高松市上福岡町919-1-", "url": "https://www.kaigokensaku.mhlw.go.jp/37/index.php?action_kouhyou_detail_004_kani=true&JigyosyoCd=3770108037-00&ServiceCd=&Type=search", "url2": "https://www.zuishou.net/" }, "geometry": { "type": "Point", "coordinates": [ 134.067045600000029, 34.3268812 ] } },
{ "type": "Feature", "properties": { "内容": "サービス付き高齢者向け住宅アゼリア今津【特定施設入居者生活介護（有料老人ホーム（サービス付き高齢者向け住宅））】香川県丸亀市新田町172-1", "url": "https://www.kaigokensaku.mhlw.go.jp/37/index.php?action_kouhyou_detail_004_kani=true&JigyosyoCd=3770201733-00&ServiceCd=&Type=search", "url2": "ｈｔｔｐ：//ｗｗｗ.utazufukushikai.or.jp" }, "geometry": { "type": "Point", "coordinates": [ 133.7903182, 34.2668422 ] } },
{ "type": "Feature", "properties": { "内容": "介護付高齢者住宅　おおとよ荘【特定施設入居者生活介護（有料老人ホーム（サービス付き高齢者向け住宅））】香川県観音寺市大野原町大野原7010番地", "url": "https://www.kaigokensaku.mhlw.go.jp/37/index.php?action_kouhyou_detail_004_kani=true&JigyosyoCd=3770500704-00&ServiceCd=&Type=search", "url2": "http://www.ootoyo.jp/" }, "geometry": { "type": "Point", "coordinates": [ 133.665261603843675, 34.073499013160806 ] } },
{ "type": "Feature", "properties": { "内容": "特定施設ライムライト【特定施設入居者生活介護（有料老人ホーム（サービス付き高齢者向け住宅））】志度2325-1", "url": "https://www.kaigokensaku.mhlw.go.jp/37/index.php?action_kouhyou_detail_004_kani=true&JigyosyoCd=3770601106-00&ServiceCd=&Type=search", "url2": "http://www.zuishou.net/" }, "geometry": { "type": "Point", "coordinates": [ 134.174463, 34.316091 ] } },
{ "type": "Feature", "properties": { "内容": "サービス付き高齢者向け住宅太陽がいっぱい【特定施設入居者生活介護（有料老人ホーム（サービス付き高齢者向け住宅））】香川県三豊市詫間町詫間679番地41サービス付き高齢者向け住宅太陽がいっぱい", "url": "https://www.kaigokensaku.mhlw.go.jp/37/index.php?action_kouhyou_detail_004_kani=true&JigyosyoCd=3770800732-00&ServiceCd=&Type=search", "url2": "http://www.iwasaki.hp.or.jp" }, "geometry": { "type": "Point", "coordinates": [ 133.676968699999946, 34.2222347 ] } },
{ "type": "Feature", "properties": { "内容": "特定施設入居者生活介護　せせらぎの郷【特定施設入居者生活介護（有料老人ホーム（サービス付き高齢者向け住宅））】香川県仲多度郡多度津町寿町2番17号", "url": "https://www.kaigokensaku.mhlw.go.jp/37/index.php?action_kouhyou_detail_004_kani=true&JigyosyoCd=3771601113-00&ServiceCd=&Type=search", "url2": "http://katouhp.net/" }, "geometry": { "type": "Point", "coordinates": [ 133.758304400000043, 34.2705937 ] } },
{ "type": "Feature", "properties": { "内容": "介護付き有料老人ホームフラワーガーデンまんのう【特定施設入居者生活介護（有料老人ホーム（サービス付き高齢者向け住宅））】仲多度郡まんのう町吉野下416フラワーガーデンまんのう", "url": "https://www.kaigokensaku.mhlw.go.jp/37/index.php?action_kouhyou_detail_004_kani=true&JigyosyoCd=3771601030-00&ServiceCd=&Type=search", "url2": "http://maedaseikei.net/" }, "geometry": { "type": "Point", "coordinates": [ 133.840415600000028, 34.1925174 ] } }
]
}
