{
"type": "FeatureCollection",
"name": "geo_37_1",
"crs": { "type": "name", "properties": { "name": "urn:ogc:def:crs:OGC:1.3:CRS84" } },
"features": [
{ "type": "Feature", "properties": { "ID": 3711370100010, "正式名称": "香川県立白鳥病院", "機関区分": 1, "都道府県コード": 37, "市区町村コード": 207, "所在地": "香川県東かがわ市松原９６３", "緯度": 34.241283, "経度": 134.370027, "url": "https://www.iryou.teikyouseido.mhlw.go.jp/znk-web/juminkanja/S2430/initialize?prefCd=37&kikanCd=1370100010&kikanKbn=1", "url2": "https://www.pref.kagawa.lg.jp/shirotoribyoin/", "内容": "香川県立白鳥病院【1:病院】【診療科目:内科_呼吸器内科_循環器内科_消化器内科_外科_心臓血管外科_整形外科_小児科_眼科_泌尿器科_リハビリテーション科_放射線科_麻酔科】【一般病床数:148療養病床数:0精神病床数:0感染症病床数:0合計病床数:148】香川県東かがわ市松原９６３" }, "geometry": { "type": "Point", "coordinates": [ 134.370027, 34.241283 ] } },
{ "type": "Feature", "properties": { "ID": 3711370100020, "正式名称": "さぬき市民病院", "機関区分": 1, "都道府県コード": 37, "市区町村コード": 206, "所在地": "香川県さぬき市寒川町石田東甲３８７－１", "緯度": 34.267255, "経度": 134.202095, "url": "https://www.iryou.teikyouseido.mhlw.go.jp/znk-web/juminkanja/S2430/initialize?prefCd=37&kikanCd=1370100020&kikanKbn=1", "url2": "http://www.city.sanuki.lg.jp/shiminbyoin/index.html", "内容": "さぬき市民病院【1:病院】【診療科目:内科_外科_脳神経外科_整形外科_形成外科_小児科_産婦人科_眼科_耳鼻いんこう科_皮膚科_泌尿器科_精神科_心療内科_リウマチ科_リハビリテーション科_放射線科_麻酔科】【一般病床数:175療養病床数:0精神病床数:0感染症病床数:4合計病床数:179】香川県さぬき市寒川町石田東甲３８７－１" }, "geometry": { "type": "Point", "coordinates": [ 134.202095, 34.267255 ] } },
{ "type": "Feature", "properties": { "ID": 3711370100030, "正式名称": "医療法人日昭会岡病院", "機関区分": 1, "都道府県コード": 37, "市区町村コード": 206, "所在地": "香川県さぬき市志度１５６２", "緯度": 34.320271, "経度": 134.195149, "url": "https://www.iryou.teikyouseido.mhlw.go.jp/znk-web/juminkanja/S2430/initialize?prefCd=37&kikanCd=1370100030&kikanKbn=1", "url2": "http://sanuki-oka-hosp.sakura.ne.jp/", "内容": "医療法人日昭会岡病院【1:病院】【診療科目:内科_神経内科_整形外科_泌尿器科_精神科_心療内科_リハビリテーション科_放射線科】【一般病床数:0療養病床数:224精神病床数:0感染症病床数:0合計病床数:224】香川県さぬき市志度１５６２" }, "geometry": { "type": "Point", "coordinates": [ 134.195149, 34.320271 ] } },
{ "type": "Feature", "properties": { "ID": 3711370100040, "正式名称": "太田病院", "機関区分": 1, "都道府県コード": 37, "市区町村コード": 207, "所在地": "香川県東かがわ市三本松１７５８", "緯度": 34.248059, "経度": 134.339141, "url": "https://www.iryou.teikyouseido.mhlw.go.jp/znk-web/juminkanja/S2430/initialize?prefCd=37&kikanCd=1370100040&kikanKbn=1", "url2": "https://www.ohta-medical.org/", "内容": "太田病院【1:病院】【診療科目:内科_循環器内科_消化器内科_外科_脳神経外科_肛門外科_整形外科_形成外科_皮膚科_泌尿器科_リウマチ科_リハビリテーション科】【一般病床数:48療養病床数:12精神病床数:0感染症病床数:0合計病床数:60】香川県東かがわ市三本松１７５８" }, "geometry": { "type": "Point", "coordinates": [ 134.339141, 34.248059 ] } },
{ "type": "Feature", "properties": { "ID": 3711370100050, "正式名称": "医療法人社団聖心会阪本病院", "機関区分": 1, "都道府県コード": 37, "市区町村コード": 207, "所在地": "香川県東かがわ市川東１０３－１", "緯度": 34.249392, "経度": 134.331891, "url": "https://www.iryou.teikyouseido.mhlw.go.jp/znk-web/juminkanja/S2430/initialize?prefCd=37&kikanCd=1370100050&kikanKbn=1", "url2": "http://www.sakamoto-hosp.or.jp", "内容": "医療法人社団聖心会阪本病院【1:病院】【診療科目:内科_呼吸器内科_循環器内科_外科_脳神経外科_呼吸器外科_消化器外科_肛門外科_整形外科_形成外科_皮膚科_泌尿器科_歯科_歯科口腔外科_小児歯科_リハビリテーション科_放射線科_麻酔科】【一般病床数:52療養病床数:0精神病床数:0感染症病床数:0合計病床数:52】香川県東かがわ市川東１０３－１" }, "geometry": { "type": "Point", "coordinates": [ 134.331891, 34.249392 ] } },
{ "type": "Feature", "properties": { "ID": 3711370100060, "正式名称": "香川大学医学部附属病院", "機関区分": 1, "都道府県コード": 37, "市区町村コード": 341, "所在地": "香川県木田郡三木町大字池戸１７５０番地１", "緯度": 34.292467, "経度": 134.123656, "url": "https://www.iryou.teikyouseido.mhlw.go.jp/znk-web/juminkanja/S2430/initialize?prefCd=37&kikanCd=1370100060&kikanKbn=1", "url2": "https://www.med.kagawa-u.ac.jp/hosp/", "内容": "香川大学医学部附属病院【1:病院】【診療科目:内科_血液内科_代謝・内分泌内科_脳神経内科_呼吸器内科_循環器内科_消化器内科_腎臓内科_腫瘍内科_血管内科_外科_脳神経外科_呼吸器外科_心臓血管外科_消化器外科_整形外科_形成外科_小児科_小児外科_産婦人科_眼科_耳鼻いんこう科_皮膚科_泌尿器科_精神科_歯科口腔外科_リウマチ科_リハビリテーション科_放射線診断科_放射線治療科_病理診断科_救急科_麻酔科】【一般病床数:587療養病床数:0精神病床数:26感染症病床数:0合計病床数:613】香川県木田郡三木町大字池戸１７５０番地１" }, "geometry": { "type": "Point", "coordinates": [ 134.123656, 34.292467 ] } },
{ "type": "Feature", "properties": { "ID": 3711370100070, "正式名称": "医療法人社団讃陽堂松原病院", "機関区分": 1, "都道府県コード": 37, "市区町村コード": 341, "所在地": "香川県木田郡三木町大字池戸３２３２－１", "緯度": 34.274691, "経度": 134.120908, "url": "https://www.iryou.teikyouseido.mhlw.go.jp/znk-web/juminkanja/S2430/initialize?prefCd=37&kikanCd=1370100070&kikanKbn=1", "url2": "http://www.sanyodo-hp.jp/", "内容": "医療法人社団讃陽堂松原病院【1:病院】【診療科目:内科_循環器内科_消化器内科_整形外科_小児科_リハビリテーション科】【一般病床数:42療養病床数:0精神病床数:0感染症病床数:0合計病床数:42】香川県木田郡三木町大字池戸３２３２－１" }, "geometry": { "type": "Point", "coordinates": [ 134.120908, 34.274691 ] } },
{ "type": "Feature", "properties": { "ID": 3711370100080, "正式名称": "医療法人春風会樫村病院", "機関区分": 1, "都道府県コード": 37, "市区町村コード": 341, "所在地": "香川県木田郡三木町平木５６－７", "緯度": 34.270997, "経度": 134.128629, "url": "https://www.iryou.teikyouseido.mhlw.go.jp/znk-web/juminkanja/S2430/initialize?prefCd=37&kikanCd=1370100080&kikanKbn=1", "url2": "http://www.kasimura.org/", "内容": "医療法人春風会樫村病院【1:病院】【診療科目:内科_外科_肛門外科_整形外科_形成外科_皮膚科_泌尿器科_リハビリテーション科_麻酔科】【一般病床数:37療養病床数:0精神病床数:0感染症病床数:0合計病床数:37】香川県木田郡三木町平木５６－７" }, "geometry": { "type": "Point", "coordinates": [ 134.128629, 34.270997 ] } },
{ "type": "Feature", "properties": { "ID": 3711370200030, "正式名称": "特定医療法人社団宝樹会小豆島病院", "機関区分": 1, "都道府県コード": 37, "市区町村コード": 324, "所在地": "香川県小豆郡小豆島町池田２５１９－４", "緯度": 34.484209, "経度": 134.230952, "url": "https://www.iryou.teikyouseido.mhlw.go.jp/znk-web/juminkanja/S2430/initialize?prefCd=37&kikanCd=1370200030&kikanKbn=1", "url2": "www.syodoshima-hp.jp/", "内容": "特定医療法人社団宝樹会小豆島病院【1:病院】【診療科目:内科_神経内科_精神科_心療内科_リハビリテーション科_放射線科】【一般病床数:0療養病床数:0精神病床数:184感染症病床数:0合計病床数:184】香川県小豆郡小豆島町池田２５１９－４" }, "geometry": { "type": "Point", "coordinates": [ 134.230952, 34.484209 ] } },
{ "type": "Feature", "properties": { "ID": 3711370200040, "正式名称": "医療法人社団つばき会牟礼病院", "機関区分": 1, "都道府県コード": 37, "市区町村コード": 324, "所在地": "香川県小豆郡小豆島町安田甲３３番地", "緯度": 34.478867, "経度": 134.316521, "url": "https://www.iryou.teikyouseido.mhlw.go.jp/znk-web/juminkanja/S2430/initialize?prefCd=37&kikanCd=1370200040&kikanKbn=1", "url2": null, "内容": "医療法人社団つばき会牟礼病院【1:病院】【診療科目:内科_外科_脳神経外科_消化器外科_肛門外科_整形外科_リウマチ科_リハビリテーション科】【一般病床数:0療養病床数:47精神病床数:0感染症病床数:0合計病床数:47】香川県小豆郡小豆島町安田甲３３番地" }, "geometry": { "type": "Point", "coordinates": [ 134.316521, 34.478867 ] } },
{ "type": "Feature", "properties": { "ID": 3711370200050, "正式名称": "小豆島中央病院", "機関区分": 1, "都道府県コード": 37, "市区町村コード": 324, "所在地": "香川県小豆郡小豆島町池田２０６０番地１", "緯度": 34.482921, "経度": 134.234416, "url": "https://www.iryou.teikyouseido.mhlw.go.jp/znk-web/juminkanja/S2430/initialize?prefCd=37&kikanCd=1370200050&kikanKbn=1", "url2": "http://scha.jp", "内容": "小豆島中央病院【1:病院】【診療科目:内科_人工透析内科_外科_脳神経外科_整形外科_小児科_産婦人科_眼科_耳鼻いんこう科_皮膚科_泌尿器科_リハビリテーション科_放射線科_麻酔科】【一般病床数:130療養病床数:60精神病床数:0感染症病床数:4合計病床数:199】香川県小豆郡小豆島町池田２０６０番地１" }, "geometry": { "type": "Point", "coordinates": [ 134.234416, 34.482921 ] } },
{ "type": "Feature", "properties": { "ID": 3711370300010, "正式名称": "独立行政法人労働者健康安全機構　香川労災病院", "機関区分": 1, "都道府県コード": 37, "市区町村コード": 202, "所在地": "香川県丸亀市城東町３丁目３－１", "緯度": 34.288101, "経度": 133.805628, "url": "https://www.iryou.teikyouseido.mhlw.go.jp/znk-web/juminkanja/S2430/initialize?prefCd=37&kikanCd=1370300010&kikanKbn=1", "url2": "http://www.kagawah.johas.go.jp", "内容": "独立行政法人労働者健康安全機構　香川労災病院【1:病院】【診療科目:内科_循環器内科_外科_脳神経外科_消化器外科_整形外科_形成外科_産婦人科_眼科_耳鼻いんこう科_皮膚科_泌尿器科_歯科口腔外科_リハビリテーション科_放射線治療科_麻酔科】【一般病床数:404療養病床数:0精神病床数:0感染症病床数:0合計病床数:404】香川県丸亀市城東町３丁目３－１" }, "geometry": { "type": "Point", "coordinates": [ 133.805628, 34.288101 ] } },
{ "type": "Feature", "properties": { "ID": 3711370300020, "正式名称": "香川県立丸亀病院", "機関区分": 1, "都道府県コード": 37, "市区町村コード": 202, "所在地": "香川県丸亀市土器町東九丁目２９１番地", "緯度": 34.301849, "経度": 133.808627, "url": "https://www.iryou.teikyouseido.mhlw.go.jp/znk-web/juminkanja/S2430/initialize?prefCd=37&kikanCd=1370300020&kikanKbn=1", "url2": "https://www.pref.kagawa.lg.jp/marugamebyoin/marugamebyoin/index.html", "内容": "香川県立丸亀病院【1:病院】【診療科目:内科_精神科_心療内科_歯科_リハビリテーション科】【一般病床数:0療養病床数:0精神病床数:215感染症病床数:0合計病床数:215】香川県丸亀市土器町東九丁目２９１番地" }, "geometry": { "type": "Point", "coordinates": [ 133.808627, 34.301849 ] } },
{ "type": "Feature", "properties": { "ID": 3711370300040, "正式名称": "医療法人社団純心会　中山病院", "機関区分": 1, "都道府県コード": 37, "市区町村コード": 202, "所在地": "香川県丸亀市城西町２丁目１－３", "緯度": 34.282824, "経度": 133.796573, "url": "https://www.iryou.teikyouseido.mhlw.go.jp/znk-web/juminkanja/S2430/initialize?prefCd=37&kikanCd=1370300040&kikanKbn=1", "url2": "https://www.junshinkai.com/news/entry-149.html", "内容": "医療法人社団純心会　中山病院【1:病院】【診療科目:内科】【一般病床数:0療養病床数:54精神病床数:0感染症病床数:0合計病床数:54】香川県丸亀市城西町２丁目１－３" }, "geometry": { "type": "Point", "coordinates": [ 133.796573, 34.282824 ] } },
{ "type": "Feature", "properties": { "ID": 3711370300050, "正式名称": "医療法人社団三愛会　三船病院", "機関区分": 1, "都道府県コード": 37, "市区町村コード": 202, "所在地": "香川県丸亀市柞原町３６６", "緯度": 34.267409, "経度": 133.804267, "url": "https://www.iryou.teikyouseido.mhlw.go.jp/znk-web/juminkanja/S2430/initialize?prefCd=37&kikanCd=1370300050&kikanKbn=1", "url2": "http://www.mifune-hp.jp", "内容": "医療法人社団三愛会　三船病院【1:病院】【診療科目:内科_精神科_心療内科_歯科】【一般病床数:0療養病床数:0精神病床数:328感染症病床数:0合計病床数:328】香川県丸亀市柞原町３６６" }, "geometry": { "type": "Point", "coordinates": [ 133.804267, 34.267409 ] } },
{ "type": "Feature", "properties": { "ID": 3711370300060, "正式名称": "医療法人仁寿会吉田病院", "機関区分": 1, "都道府県コード": 37, "市区町村コード": 202, "所在地": "香川県丸亀市宗古町５", "緯度": 34.292572, "経度": 133.796295, "url": "https://www.iryou.teikyouseido.mhlw.go.jp/znk-web/juminkanja/S2430/initialize?prefCd=37&kikanCd=1370300060&kikanKbn=1", "url2": "https://yoshida-hp.jimdofree.com/", "内容": "医療法人仁寿会吉田病院【1:病院】【診療科目:内科_循環器内科_胃腸内科_脳神経外科_整形外科_老年精神科_歯科_歯科口腔外科_小児歯科_リハビリテーション科】【一般病床数:0療養病床数:62精神病床数:0感染症病床数:0合計病床数:62】香川県丸亀市宗古町５" }, "geometry": { "type": "Point", "coordinates": [ 133.796295, 34.292572 ] } },
{ "type": "Feature", "properties": { "ID": 3711370300070, "正式名称": "医療法人社団三和会しおかぜ病院", "機関区分": 1, "都道府県コード": 37, "市区町村コード": 404, "所在地": "香川県仲多度郡多度津町堀江４丁目３－１９", "緯度": 34.280684, "経度": 133.761215, "url": "https://www.iryou.teikyouseido.mhlw.go.jp/znk-web/juminkanja/S2430/initialize?prefCd=37&kikanCd=1370300070&kikanKbn=1", "url2": "http://www.shiokaze-hospital.com/", "内容": "医療法人社団三和会しおかぜ病院【1:病院】【診療科目:内科_神経内科_精神科_心療内科】【一般病床数:0療養病床数:0精神病床数:186感染症病床数:0合計病床数:186】香川県仲多度郡多度津町堀江４丁目３－１９" }, "geometry": { "type": "Point", "coordinates": [ 133.761215, 34.280684 ] } },
{ "type": "Feature", "properties": { "ID": 3711370300080, "正式名称": "医療法人社団ひかり会河内病院", "機関区分": 1, "都道府県コード": 37, "市区町村コード": 404, "所在地": "香川県仲多度郡多度津町青木１３０－１", "緯度": 34.252984, "経度": 133.75215, "url": "https://www.iryou.teikyouseido.mhlw.go.jp/znk-web/juminkanja/S2430/initialize?prefCd=37&kikanCd=1370300080&kikanKbn=1", "url2": "https://www.kawauchi-hp.com/", "内容": "医療法人社団ひかり会河内病院【1:病院】【診療科目:内科_糖尿病内科_呼吸器内科_循環器内科_胃腸内科_腎臓内科_人工透析内科_肝臓内科_老年内科_内視鏡内科_泌尿器科_アレルギー科_リハビリテーション科】【一般病床数:0療養病床数:60精神病床数:0感染症病床数:0合計病床数:60】香川県仲多度郡多度津町青木１３０－１" }, "geometry": { "type": "Point", "coordinates": [ 133.75215, 34.252984 ] } },
{ "type": "Feature", "properties": { "ID": 3711370300090, "正式名称": "医療法人社団中和会　西紋病院", "機関区分": 1, "都道府県コード": 37, "市区町村コード": 202, "所在地": "香川県丸亀市津森町５９５", "緯度": 34.281046, "経度": 133.790212, "url": "https://www.iryou.teikyouseido.mhlw.go.jp/znk-web/juminkanja/S2430/initialize?prefCd=37&kikanCd=1370300090&kikanKbn=1", "url2": "https://www.nishimon-hp.jp/", "内容": "医療法人社団中和会　西紋病院【1:病院】【診療科目:神経内科_精神科_心療内科】【一般病床数:0療養病床数:0精神病床数:130感染症病床数:0合計病床数:130】香川県丸亀市津森町５９５" }, "geometry": { "type": "Point", "coordinates": [ 133.790212, 34.281046 ] } },
{ "type": "Feature", "properties": { "ID": 3711370300100, "正式名称": "医療法人社団更新会　丸亀林病院", "機関区分": 1, "都道府県コード": 37, "市区町村コード": 202, "所在地": "香川県丸亀市風袋町１７７－１", "緯度": 34.292128, "経度": 133.800378, "url": "https://www.iryou.teikyouseido.mhlw.go.jp/znk-web/juminkanja/S2430/initialize?prefCd=37&kikanCd=1370300100&kikanKbn=1", "url2": null, "内容": "医療法人社団更新会　丸亀林病院【1:病院】【診療科目:内科_リハビリテーション科_放射線科】【一般病床数:0療養病床数:48精神病床数:0感染症病床数:0合計病床数:48】香川県丸亀市風袋町１７７－１" }, "geometry": { "type": "Point", "coordinates": [ 133.800378, 34.292128 ] } },
{ "type": "Feature", "properties": { "ID": 3711370300110, "正式名称": "医療法人社団健仁会　岩本病院", "機関区分": 1, "都道府県コード": 37, "市区町村コード": 202, "所在地": "香川県丸亀市郡家町２４８６－５", "緯度": 34.256493, "経度": 133.81049, "url": "https://www.iryou.teikyouseido.mhlw.go.jp/znk-web/juminkanja/S2430/initialize?prefCd=37&kikanCd=1370300110&kikanKbn=1", "url2": "http://www.k-ih.com", "内容": "医療法人社団健仁会　岩本病院【1:病院】【診療科目:内科_糖尿病内科_循環器内科_消化器内科_外科_整形外科_リウマチ科_リハビリテーション科】【一般病床数:0療養病床数:73精神病床数:0感染症病床数:0合計病床数:73】香川県丸亀市郡家町２４８６－５" }, "geometry": { "type": "Point", "coordinates": [ 133.81049, 34.256493 ] } },
{ "type": "Feature", "properties": { "ID": 3711370300120, "正式名称": "医療法人社団厚仁会　厚仁病院", "機関区分": 1, "都道府県コード": 37, "市区町村コード": 202, "所在地": "香川県丸亀市通町１３３", "緯度": 34.291545, "経度": 133.796684, "url": "https://www.iryou.teikyouseido.mhlw.go.jp/znk-web/juminkanja/S2430/initialize?prefCd=37&kikanCd=1370300120&kikanKbn=1", "url2": "http://www.koujinkai-kagawa.net/", "内容": "医療法人社団厚仁会　厚仁病院【1:病院】【診療科目:内科_産婦人科_産婦人科（生殖医療）_リハビリテーション科】【一般病床数:42療養病床数:0精神病床数:0感染症病床数:0合計病床数:42】香川県丸亀市通町１３３" }, "geometry": { "type": "Point", "coordinates": [ 133.796684, 34.291545 ] } },
{ "type": "Feature", "properties": { "ID": 3711370300130, "正式名称": "医療法人社団みどり会　加藤病院", "機関区分": 1, "都道府県コード": 37, "市区町村コード": 404, "所在地": "香川県仲多度郡多度津町寿町７－３", "緯度": 34.270019, "経度": 133.758632, "url": "https://www.iryou.teikyouseido.mhlw.go.jp/znk-web/juminkanja/S2430/initialize?prefCd=37&kikanCd=1370300130&kikanKbn=1", "url2": "http://katouhp.net", "内容": "医療法人社団みどり会　加藤病院【1:病院】【診療科目:内科_循環器内科_胃腸内科_整形外科_婦人科_リハビリテーション科_放射線科】【一般病床数:0療養病床数:43精神病床数:0感染症病床数:0合計病床数:43】香川県仲多度郡多度津町寿町７－３" }, "geometry": { "type": "Point", "coordinates": [ 133.758632, 34.270019 ] } },
{ "type": "Feature", "properties": { "ID": 3711370300140, "正式名称": "多度津三宅病院", "機関区分": 1, "都道府県コード": 37, "市区町村コード": 404, "所在地": "香川県仲多度郡多度津町栄町２丁目１－３６", "緯度": 34.272852, "経度": 133.75666, "url": "https://www.iryou.teikyouseido.mhlw.go.jp/znk-web/juminkanja/S2430/initialize?prefCd=37&kikanCd=1370300140&kikanKbn=1", "url2": "http://www.tadotsumiyake-hp.jp/", "内容": "多度津三宅病院【1:病院】【診療科目:胃腸内科_外科_肛門外科_整形外科_小児外科_リハビリテーション科】【一般病床数:29療養病床数:0精神病床数:0感染症病床数:0合計病床数:29】香川県仲多度郡多度津町栄町２丁目１－３６" }, "geometry": { "type": "Point", "coordinates": [ 133.75666, 34.272852 ] } },
{ "type": "Feature", "properties": { "ID": 3711370300150, "正式名称": "医療法人社団岐山会篠原記念病院", "機関区分": 1, "都道府県コード": 37, "市区町村コード": 202, "所在地": "香川県丸亀市中府町５丁目１２－１１", "緯度": 34.28599, "経度": 133.79249, "url": "https://www.iryou.teikyouseido.mhlw.go.jp/znk-web/juminkanja/S2430/initialize?prefCd=37&kikanCd=1370300150&kikanKbn=1", "url2": null, "内容": "医療法人社団岐山会篠原記念病院【1:病院】【診療科目:内科_循環器内科】【一般病床数:30療養病床数:118精神病床数:0感染症病床数:0合計病床数:148】香川県丸亀市中府町５丁目１２－１１" }, "geometry": { "type": "Point", "coordinates": [ 133.79249, 34.28599 ] } },
{ "type": "Feature", "properties": { "ID": 3711370300160, "正式名称": "人工透析センター宮野病院", "機関区分": 1, "都道府県コード": 37, "市区町村コード": 202, "所在地": "香川県丸亀市今津町１９－１", "緯度": 34.279507, "経度": 133.784866, "url": "https://www.iryou.teikyouseido.mhlw.go.jp/znk-web/juminkanja/S2430/initialize?prefCd=37&kikanCd=1370300160&kikanKbn=1", "url2": "http://www.miyano-hp.com/", "内容": "人工透析センター宮野病院【1:病院】【診療科目:内科_胃腸内科_腎臓内科_人工透析内科_内視鏡内科_整形外科_皮膚科_泌尿器科_リハビリテーション科】【一般病床数:0療養病床数:52精神病床数:0感染症病床数:0合計病床数:52】香川県丸亀市今津町１９－１" }, "geometry": { "type": "Point", "coordinates": [ 133.784866, 34.279507 ] } },
{ "type": "Feature", "properties": { "ID": 3711370300170, "正式名称": "坂出市立病院", "機関区分": 1, "都道府県コード": 37, "市区町村コード": 203, "所在地": "香川県坂出市寿町３丁目１－２", "緯度": 34.317321, "経度": 133.849428, "url": "https://www.iryou.teikyouseido.mhlw.go.jp/znk-web/juminkanja/S2430/initialize?prefCd=37&kikanCd=1370300170&kikanKbn=1", "url2": "http://www.city.sakaide.lg.jp/site/sakaide-hospital/", "内容": "坂出市立病院【1:病院】【診療科目:内科_循環器内科_消化器内科_腎臓内科_外科_脳神経外科_呼吸器外科_消化器外科_整形外科_形成外科_小児科_産婦人科_眼科_耳鼻いんこう科_泌尿器科_リウマチ科_リハビリテーション科_放射線科_臨床検査科_麻酔科】【一般病床数:190療養病床数:0精神病床数:0感染症病床数:4合計病床数:194】香川県坂出市寿町３丁目１－２" }, "geometry": { "type": "Point", "coordinates": [ 133.849428, 34.317321 ] } },
{ "type": "Feature", "properties": { "ID": 3711370300180, "正式名称": "社会医療法人財団大樹会　総合病院回生病院", "機関区分": 1, "都道府県コード": 37, "市区町村コード": 203, "所在地": "香川県坂出市室町三丁目５－２８", "緯度": 34.317738, "経度": 133.861622, "url": "https://www.iryou.teikyouseido.mhlw.go.jp/znk-web/juminkanja/S2430/initialize?prefCd=37&kikanCd=1370300180&kikanKbn=1", "url2": "https://www.kaisei.or.jp/", "内容": "社会医療法人財団大樹会　総合病院回生病院【1:病院】【診療科目:内科_血液内科_呼吸器内科_消化器内科_神経内科_ペインクリニック内科_外科_脳神経外科_整形外科_小児科_産婦人科_眼科_耳鼻いんこう科_泌尿器科_精神科_リハビリテーション科_放射線科_病理診断科_臨床検査科_救急科_麻酔科】【一般病床数:346療養病床数:0精神病床数:51感染症病床数:0合計病床数:397】香川県坂出市室町三丁目５－２８" }, "geometry": { "type": "Point", "coordinates": [ 133.861622, 34.317738 ] } },
{ "type": "Feature", "properties": { "ID": 3711370300190, "正式名称": "こころの医療センター　五色台", "機関区分": 1, "都道府県コード": 37, "市区町村コード": 203, "所在地": "香川県坂出市加茂町９６３", "緯度": 34.31085, "経度": 133.912284, "url": "https://www.iryou.teikyouseido.mhlw.go.jp/znk-web/juminkanja/S2430/initialize?prefCd=37&kikanCd=1370300190&kikanKbn=1", "url2": "https://goshikidai.or.jp", "内容": "こころの医療センター　五色台【1:病院】【診療科目:内科_精神科_心療内科_老年精神科_児童・思春期精神科_歯科】【一般病床数:0療養病床数:0精神病床数:280感染症病床数:0合計病床数:280】香川県坂出市加茂町９６３" }, "geometry": { "type": "Point", "coordinates": [ 133.912284, 34.31085 ] } },
{ "type": "Feature", "properties": { "ID": 3711370300200, "正式名称": "医療法人社団赤心会　赤沢病院", "機関区分": 1, "都道府県コード": 37, "市区町村コード": 203, "所在地": "香川県坂出市府中町３２５", "緯度": 34.294964, "経度": 133.936533, "url": "https://www.iryou.teikyouseido.mhlw.go.jp/znk-web/juminkanja/S2430/initialize?prefCd=37&kikanCd=1370300200&kikanKbn=1", "url2": "https://akazawa-hp.com", "内容": "医療法人社団赤心会　赤沢病院【1:病院】【診療科目:内科_神経内科_小児科_精神科】【一般病床数:21療養病床数:21精神病床数:152感染症病床数:0合計病床数:194】香川県坂出市府中町３２５" }, "geometry": { "type": "Point", "coordinates": [ 133.936533, 34.294964 ] } },
{ "type": "Feature", "properties": { "ID": 3711370300210, "正式名称": "坂出聖マルチン病院", "機関区分": 1, "都道府県コード": 37, "市区町村コード": 203, "所在地": "香川県坂出市谷町１丁目４－１３", "緯度": 34.311612, "経度": 133.86054, "url": "https://www.iryou.teikyouseido.mhlw.go.jp/znk-web/juminkanja/S2430/initialize?prefCd=37&kikanCd=1370300210&kikanKbn=1", "url2": "https://sakaide-martinhp.jp/", "内容": "坂出聖マルチン病院【1:病院】【診療科目:内科_脳神経内科_呼吸器内科_循環器内科_消化器内科_緩和ケア内科_外科_整形外科_緩和ケア外科_小児科_眼科_皮膚科_泌尿器科_リハビリテーション科_放射線科_麻酔科】【一般病床数:156療養病床数:40精神病床数:0感染症病床数:0合計病床数:196】香川県坂出市谷町１丁目４－１３" }, "geometry": { "type": "Point", "coordinates": [ 133.86054, 34.311612 ] } },
{ "type": "Feature", "properties": { "ID": 3711370300220, "正式名称": "医療法人西山記念会　ＭＩＲＡＩ病院", "機関区分": 1, "都道府県コード": 37, "市区町村コード": 203, "所在地": "香川県坂出市加茂町６３３番地１", "緯度": 34.307101, "経度": 133.909868, "url": "https://www.iryou.teikyouseido.mhlw.go.jp/znk-web/juminkanja/S2430/initialize?prefCd=37&kikanCd=1370300220&kikanKbn=1", "url2": "https://www.mirai-hospital.com", "内容": "医療法人西山記念会　ＭＩＲＡＩ病院【1:病院】【診療科目:内科_循環器内科_消化器内科_外科_脳神経外科_整形外科_形成外科_婦人科_眼科_耳鼻いんこう科_皮膚科_泌尿器科_リハビリテーション科】【一般病床数:41療養病床数:0精神病床数:0感染症病床数:0合計病床数:41】香川県坂出市加茂町６３３番地１" }, "geometry": { "type": "Point", "coordinates": [ 133.909868, 34.307101 ] } },
{ "type": "Feature", "properties": { "ID": 3711370300250, "正式名称": "綾川町国民健康保険陶病院", "機関区分": 1, "都道府県コード": 37, "市区町村コード": 387, "所在地": "香川県綾歌郡綾川町陶１７２０番地１", "緯度": 34.259329, "経度": 133.943867, "url": "https://www.iryou.teikyouseido.mhlw.go.jp/znk-web/juminkanja/S2430/initialize?prefCd=37&kikanCd=1370300250&kikanKbn=1", "url2": "http://www.sue-hp.jp", "内容": "綾川町国民健康保険陶病院【1:病院】【診療科目:内科_糖尿病内科_呼吸器内科_老年・呼吸器内科_循環器内科_消化器内科_腎臓内科_老年内科_小児科_耳鼻いんこう科_リハビリテーション科】【一般病床数:35療養病床数:28精神病床数:0感染症病床数:0合計病床数:63】香川県綾歌郡綾川町陶１７２０番地１" }, "geometry": { "type": "Point", "coordinates": [ 133.943867, 34.259329 ] } },
{ "type": "Feature", "properties": { "ID": 3711370300260, "正式名称": "香川県厚生農業協同組合連合会　滝宮総合病院", "機関区分": 1, "都道府県コード": 37, "市区町村コード": 387, "所在地": "香川県綾歌郡綾川町滝宮４８６", "緯度": 34.247996, "経度": 133.923925, "url": "https://www.iryou.teikyouseido.mhlw.go.jp/znk-web/juminkanja/S2430/initialize?prefCd=37&kikanCd=1370300260&kikanKbn=1", "url2": "http://www.takinomiya-hp.com/", "内容": "香川県厚生農業協同組合連合会　滝宮総合病院【1:病院】【診療科目:内科_外科_脳神経外科_整形外科_小児科_産婦人科_眼科_耳鼻いんこう科_皮膚科_泌尿器科_歯科_リハビリテーション科_放射線診断科_放射線治療科_救急科_麻酔科】【一般病床数:191療養病床数:0精神病床数:0感染症病床数:0合計病床数:191】香川県綾歌郡綾川町滝宮４８６" }, "geometry": { "type": "Point", "coordinates": [ 133.923925, 34.247996 ] } },
{ "type": "Feature", "properties": { "ID": 3711370300270, "正式名称": "医療法人社団たけお会　岩佐病院", "機関区分": 1, "都道府県コード": 37, "市区町村コード": 403, "所在地": "香川県仲多度郡琴平町榎井７７５", "緯度": 34.19125, "経度": 133.824714, "url": "https://www.iryou.teikyouseido.mhlw.go.jp/znk-web/juminkanja/S2430/initialize?prefCd=37&kikanCd=1370300270&kikanKbn=1", "url2": "http://www.iwasa.or.jp", "内容": "医療法人社団たけお会　岩佐病院【1:病院】【診療科目:内科_糖尿病内科_呼吸器内科_消化器内科_漢方内科_外科_脳神経外科_消化器外科_胆のう外科_乳腺外科_肛門外科_整形外科_皮膚科_泌尿器科_リハビリテーション科_放射線科】【一般病床数:29療養病床数:34精神病床数:0感染症病床数:0合計病床数:63】香川県仲多度郡琴平町榎井７７５" }, "geometry": { "type": "Point", "coordinates": [ 133.824714, 34.19125 ] } },
{ "type": "Feature", "properties": { "ID": 3711370300280, "正式名称": "医療法人圭良会　永生病院", "機関区分": 1, "都道府県コード": 37, "市区町村コード": 406, "所在地": "香川県仲多度郡まんのう町買田２２１－３", "緯度": 34.172447, "経度": 133.827464, "url": "https://www.iryou.teikyouseido.mhlw.go.jp/znk-web/juminkanja/S2430/initialize?prefCd=37&kikanCd=1370300280&kikanKbn=1", "url2": "http://www.eisei-hp.or.jp", "内容": "医療法人圭良会　永生病院【1:病院】【診療科目:内科_糖尿病内科_呼吸器内科_循環器内科_消化器内科_腎臓内科_脳神経外科_呼吸器外科_内視鏡外科_整形外科_皮膚科_泌尿器科_リウマチ科_リハビリテーション科_放射線科】【一般病床数:40療養病床数:0精神病床数:0感染症病床数:0合計病床数:40】香川県仲多度郡まんのう町買田２２１－３" }, "geometry": { "type": "Point", "coordinates": [ 133.827464, 34.172447 ] } },
{ "type": "Feature", "properties": { "ID": 3711370300290, "正式名称": "医療法人社団慶昭会　おおにし病院", "機関区分": 1, "都道府県コード": 37, "市区町村コード": 403, "所在地": "香川県仲多度郡琴平町３５０－１０", "緯度": 34.192945, "経度": 133.819159, "url": "https://www.iryou.teikyouseido.mhlw.go.jp/znk-web/juminkanja/S2430/initialize?prefCd=37&kikanCd=1370300290&kikanKbn=1", "url2": "https://keisyokai.com/", "内容": "医療法人社団慶昭会　おおにし病院【1:病院】【診療科目:内科_呼吸器内科_循環器内科_整形外科_形成外科_婦人科_皮膚科_リウマチ科_リハビリテーション科_放射線科】【一般病床数:24療養病床数:0精神病床数:0感染症病床数:0合計病床数:24】香川県仲多度郡琴平町３５０－１０" }, "geometry": { "type": "Point", "coordinates": [ 133.819159, 34.192945 ] } },
{ "type": "Feature", "properties": { "ID": 3711370300300, "正式名称": "医療法人社団純心会　善通寺前田病院", "機関区分": 1, "都道府県コード": 37, "市区町村コード": 204, "所在地": "香川県善通寺市中村町８９４－１", "緯度": 34.243244, "経度": 133.764883, "url": "https://www.iryou.teikyouseido.mhlw.go.jp/znk-web/juminkanja/S2430/initialize?prefCd=37&kikanCd=1370300300&kikanKbn=1", "url2": "www.junshinkai.com/", "内容": "医療法人社団純心会　善通寺前田病院【1:病院】【診療科目:内科_呼吸器内科_消化器内科_小児科_皮膚科_泌尿器科_アレルギー科_リハビリテーション科_放射線科】【一般病床数:46療養病床数:0精神病床数:0感染症病床数:0合計病床数:46】香川県善通寺市中村町８９４－１" }, "geometry": { "type": "Point", "coordinates": [ 133.764883, 34.243244 ] } },
{ "type": "Feature", "properties": { "ID": 3711370300310, "正式名称": "医療法人社団真弘会　谷病院", "機関区分": 1, "都道府県コード": 37, "市区町村コード": 204, "所在地": "香川県善通寺市原田町字下五条１１９０番地１", "緯度": 34.250105, "経度": 133.787075, "url": "https://www.iryou.teikyouseido.mhlw.go.jp/znk-web/juminkanja/S2430/initialize?prefCd=37&kikanCd=1370300310&kikanKbn=1", "url2": "http://www.tani.com", "内容": "医療法人社団真弘会　谷病院【1:病院】【診療科目:産婦人科】【一般病床数:41療養病床数:0精神病床数:0感染症病床数:0合計病床数:41】香川県善通寺市原田町字下五条１１９０番地１" }, "geometry": { "type": "Point", "coordinates": [ 133.787075, 34.250105 ] } },
{ "type": "Feature", "properties": { "ID": 3711370300330, "正式名称": "独立行政法人国立病院機構　四国こどもとおとなの医療センター", "機関区分": 1, "都道府県コード": 37, "市区町村コード": 204, "所在地": "香川県善通寺市仙遊町２丁目１番１号", "緯度": 34.228716, "経度": 133.770928, "url": "https://www.iryou.teikyouseido.mhlw.go.jp/znk-web/juminkanja/S2430/initialize?prefCd=37&kikanCd=1370300330&kikanKbn=1", "url2": "https://shikoku-mc.hosp.go.jp/", "内容": "独立行政法人国立病院機構　四国こどもとおとなの医療センター【1:病院】【診療科目:内科_代謝・内分泌内科_呼吸器内科_循環器内科_消化器内科_外科_脳神経外科_呼吸器外科_心臓血管外科_乳腺外科_整形外科_形成外科_小児科_小児眼科_小児耳鼻いんこう科_児童精神科_小児外科_新生児内科_小児循環器内科_産科_婦人科_不妊外来_眼科_耳鼻いんこう科_皮膚科_泌尿器科_心療内科_歯科口腔外科_小児歯科_リウマチ科_リハビリテーション科_放射線科_病理診断科_臨床検査科_救急科_麻酔科】【一般病床数:667療養病床数:0精神病床数:22感染症病床数:0合計病床数:689】香川県善通寺市仙遊町２丁目１番１号" }, "geometry": { "type": "Point", "coordinates": [ 133.770928, 34.228716 ] } },
{ "type": "Feature", "properties": { "ID": 3711370300340, "正式名称": "医療法人社団清仁会宇多津病院", "機関区分": 1, "都道府県コード": 37, "市区町村コード": 386, "所在地": "香川県綾歌郡宇多津町浜五番丁６６－１", "緯度": 34.304177, "経度": 133.81069, "url": "https://www.iryou.teikyouseido.mhlw.go.jp/znk-web/juminkanja/S2430/initialize?prefCd=37&kikanCd=1370300340&kikanKbn=1", "url2": "http://www.utz.or.jp", "内容": "医療法人社団清仁会宇多津病院【1:病院】【診療科目:内科_糖尿病内科_腎臓内科_整形外科_リウマチ科_リハビリテーション科_放射線科】【一般病床数:50療養病床数:0精神病床数:0感染症病床数:0合計病床数:50】香川県綾歌郡宇多津町浜五番丁６６－１" }, "geometry": { "type": "Point", "coordinates": [ 133.81069, 34.304177 ] } },
{ "type": "Feature", "properties": { "ID": 3711370300360, "正式名称": "まるがめ医療センター", "機関区分": 1, "都道府県コード": 37, "市区町村コード": 202, "所在地": "香川県丸亀市津森町２１９", "緯度": 34.27688, "経度": 133.794712, "url": "https://www.iryou.teikyouseido.mhlw.go.jp/znk-web/juminkanja/S2430/initialize?prefCd=37&kikanCd=1370300360&kikanKbn=1", "url2": "http://www.jyujin-mmc.jp/", "内容": "まるがめ医療センター【1:病院】【診療科目:内科_糖尿病内科_呼吸器内科_循環器内科_消化器内科_神経内科_外科_脳神経外科_呼吸器外科_消化器外科_整形外科_形成外科_婦人科_眼科_耳鼻いんこう科_皮膚科_美容皮膚科_泌尿器科_リハビリテーション科_放射線科】【一般病床数:300療養病床数:0精神病床数:0感染症病床数:0合計病床数:300】香川県丸亀市津森町２１９" }, "geometry": { "type": "Point", "coordinates": [ 133.794712, 34.27688 ] } },
{ "type": "Feature", "properties": { "ID": 3711370400010, "正式名称": "三豊市立西香川病院", "機関区分": 1, "都道府県コード": 37, "市区町村コード": 208, "所在地": "香川県三豊市高瀬町比地中２９８６－３", "緯度": 34.1745, "経度": 133.702252, "url": "https://www.iryou.teikyouseido.mhlw.go.jp/znk-web/juminkanja/S2430/initialize?prefCd=37&kikanCd=1370400010&kikanKbn=1", "url2": "http://www.nishikagawa.jp", "内容": "三豊市立西香川病院【1:病院】【診療科目:内科_精神科_リハビリテーション科】【一般病床数:0療養病床数:90精神病床数:60感染症病床数:0合計病床数:150】香川県三豊市高瀬町比地中２９８６－３" }, "geometry": { "type": "Point", "coordinates": [ 133.702252, 34.1745 ] } },
{ "type": "Feature", "properties": { "ID": 3711370400020, "正式名称": "三豊市立みとよ市民病院", "機関区分": 1, "都道府県コード": 37, "市区町村コード": 208, "所在地": "香川県三豊市詫間町詫間６７８４番地２０６", "緯度": 34.218188, "経度": 133.672642, "url": "https://www.iryou.teikyouseido.mhlw.go.jp/znk-web/juminkanja/S2430/initialize?prefCd=37&kikanCd=1370400020&kikanKbn=1", "url2": "http://eiko-hosp.sun-age.or.jp/", "内容": "三豊市立みとよ市民病院【1:病院】【診療科目:内科_外科_脳神経外科_整形外科_小児科_眼科_耳鼻いんこう科_泌尿器科_精神科_心療内科_リハビリテーション科】【一般病床数:46療養病床数:46精神病床数:30感染症病床数:0合計病床数:122】香川県三豊市詫間町詫間６７８４番地２０６" }, "geometry": { "type": "Point", "coordinates": [ 133.672642, 34.218188 ] } },
{ "type": "Feature", "properties": { "ID": 3711370400030, "正式名称": "三豊総合病院", "機関区分": 1, "都道府県コード": 37, "市区町村コード": 205, "所在地": "香川県観音寺市豊浜町姫浜７０８番地", "緯度": 34.082453, "経度": 133.64154, "url": "https://www.iryou.teikyouseido.mhlw.go.jp/znk-web/juminkanja/S2430/initialize?prefCd=37&kikanCd=1370400030&kikanKbn=1", "url2": "http://www.mitoyo-hosp.jp", "内容": "三豊総合病院【1:病院】【診療科目:内科_呼吸器内科_循環器内科_消化器内科_神経内科_外科_脳神経外科_循環器外科_心臓血管外科_頭頸部外科_整形外科_形成外科_小児科_産婦人科_眼科_耳鼻いんこう科_皮膚科_泌尿器科_精神科_心療内科_歯科_矯正歯科_歯科口腔外科_リウマチ科_リハビリテーション科_放射線診断科_放射線治療科_病理診断科_麻酔科】【一般病床数:412療養病床数:0精神病床数:0感染症病床数:4合計病床数:416】香川県観音寺市豊浜町姫浜７０８番地" }, "geometry": { "type": "Point", "coordinates": [ 133.64154, 34.082453 ] } },
{ "type": "Feature", "properties": { "ID": 3711370400050, "正式名称": "医療法人清和会清水病院", "機関区分": 1, "都道府県コード": 37, "市区町村コード": 205, "所在地": "香川県観音寺市柞田町甲１４２５－１", "緯度": 34.113765, "経度": 133.661967, "url": "https://www.iryou.teikyouseido.mhlw.go.jp/znk-web/juminkanja/S2430/initialize?prefCd=37&kikanCd=1370400050&kikanKbn=1", "url2": "shimizu-hospital.net", "内容": "医療法人清和会清水病院【1:病院】【診療科目:精神科_神経科_歯科】【一般病床数:0療養病床数:0精神病床数:161感染症病床数:0合計病床数:161】香川県観音寺市柞田町甲１４２５－１" }, "geometry": { "type": "Point", "coordinates": [ 133.661967, 34.113765 ] } },
{ "type": "Feature", "properties": { "ID": 3711370400060, "正式名称": "医療法人社団寿愛会羽崎病院", "機関区分": 1, "都道府県コード": 37, "市区町村コード": 205, "所在地": "香川県観音寺市栄町３丁目４－１", "緯度": 34.124661, "経度": 133.653493, "url": "https://www.iryou.teikyouseido.mhlw.go.jp/znk-web/juminkanja/S2430/initialize?prefCd=37&kikanCd=1370400060&kikanKbn=1", "url2": "www.hazaki.jp", "内容": "医療法人社団寿愛会羽崎病院【1:病院】【診療科目:内科_糖尿病内科_循環器内科_消化器内科_脳神経外科_整形外科_リウマチ科_リハビリテーション科】【一般病床数:40療養病床数:60精神病床数:0感染症病床数:0合計病床数:100】香川県観音寺市栄町３丁目４－１" }, "geometry": { "type": "Point", "coordinates": [ 133.653493, 34.124661 ] } },
{ "type": "Feature", "properties": { "ID": 3711370400070, "正式名称": "医療法人ブルースカイ松井病院", "機関区分": 1, "都道府県コード": 37, "市区町村コード": 205, "所在地": "香川県観音寺市村黒町７３９", "緯度": 34.134004, "経度": 133.666979, "url": "https://www.iryou.teikyouseido.mhlw.go.jp/znk-web/juminkanja/S2430/initialize?prefCd=37&kikanCd=1370400070&kikanKbn=1", "url2": "http://www.matsui-hp.com", "内容": "医療法人ブルースカイ松井病院【1:病院】【診療科目:内科_循環器内科_消化器内科_神経内科_外科_脳神経外科_整形外科_小児科_婦人科_眼科_耳鼻いんこう科_皮膚科_泌尿器科_心療内科_アレルギー科_リウマチ科_リハビリテーション科_放射線科】【一般病床数:115療養病床数:84精神病床数:0感染症病床数:0合計病床数:199】香川県観音寺市村黒町７３９" }, "geometry": { "type": "Point", "coordinates": [ 133.666979, 34.134004 ] } },
{ "type": "Feature", "properties": { "ID": 3711370400080, "正式名称": "医療法人明世社白井病院", "機関区分": 1, "都道府県コード": 37, "市区町村コード": 208, "所在地": "香川県三豊市高瀬町上高瀬１３３９", "緯度": 34.187916, "経度": 133.717723, "url": "https://www.iryou.teikyouseido.mhlw.go.jp/znk-web/juminkanja/S2430/initialize?prefCd=37&kikanCd=1370400080&kikanKbn=1", "url2": "http://www.shirai-hosp.or.jp", "内容": "医療法人明世社白井病院【1:病院】【診療科目:眼科】【一般病床数:40療養病床数:0精神病床数:0感染症病床数:0合計病床数:40】香川県三豊市高瀬町上高瀬１３３９" }, "geometry": { "type": "Point", "coordinates": [ 133.717723, 34.187916 ] } },
{ "type": "Feature", "properties": { "ID": 3711370400100, "正式名称": "医療法人社団愛有会岩崎病院", "機関区分": 1, "都道府県コード": 37, "市区町村コード": 208, "所在地": "香川県三豊市詫間町松崎２７８０番地４２６", "緯度": 34.220356, "経度": 133.690085, "url": "https://www.iryou.teikyouseido.mhlw.go.jp/znk-web/juminkanja/S2430/initialize?prefCd=37&kikanCd=1370400100&kikanKbn=1", "url2": "http://www.iwasaki-hp.or.jp", "内容": "医療法人社団愛有会岩崎病院【1:病院】【診療科目:内科_循環器内科_消化器内科_外科_消化器外科_整形外科_形成外科_泌尿器科_リハビリテーション科_放射線科】【一般病床数:60療養病床数:48精神病床数:0感染症病床数:0合計病床数:108】香川県三豊市詫間町松崎２７８０番地４２６" }, "geometry": { "type": "Point", "coordinates": [ 133.690085, 34.220356 ] } },
{ "type": "Feature", "properties": { "ID": 3711370400110, "正式名称": "医療法人社団　和風会　橋本病院", "機関区分": 1, "都道府県コード": 37, "市区町村コード": 208, "所在地": "香川県三豊市山本町財田西９０２番地１", "緯度": 34.117312, "経度": 133.735808, "url": "https://www.iryou.teikyouseido.mhlw.go.jp/znk-web/juminkanja/S2430/initialize?prefCd=37&kikanCd=1370400110&kikanKbn=1", "url2": "http://www.wafukai-hashimoto.jp/", "内容": "医療法人社団　和風会　橋本病院【1:病院】【診療科目:内科_整形外科_精神科_心療内科_リハビリテーション科_放射線科】【一般病床数:29療養病床数:60精神病床数:60感染症病床数:0合計病床数:149】香川県三豊市山本町財田西９０２番地１" }, "geometry": { "type": "Point", "coordinates": [ 133.735808, 34.117312 ] } },
{ "type": "Feature", "properties": { "ID": 3711370400130, "正式名称": "医療法人社団豊南会香川井下病院", "機関区分": 1, "都道府県コード": 37, "市区町村コード": 205, "所在地": "香川県観音寺市大野原町花稲８１８番地１", "緯度": 34.097174, "経度": 133.646733, "url": "https://www.iryou.teikyouseido.mhlw.go.jp/znk-web/juminkanja/S2430/initialize?prefCd=37&kikanCd=1370400130&kikanKbn=1", "url2": "www.kagawa-inoshita-hospital.or.jp/", "内容": "医療法人社団豊南会香川井下病院【1:病院】【診療科目:内科_脳神経内科_呼吸器内科_循環器内科_消化器内科_腎臓内科_乳腺外科_整形外科_小児科_産婦人科_眼科_耳鼻いんこう科_皮膚科_泌尿器科_歯科_リハビリテーション科_放射線科】【一般病床数:97療養病床数:100精神病床数:0感染症病床数:0合計病床数:207】香川県観音寺市大野原町花稲８１８番地１" }, "geometry": { "type": "Point", "coordinates": [ 133.646733, 34.097174 ] } },
{ "type": "Feature", "properties": { "ID": 3711370400140, "正式名称": "森川整形外科病院", "機関区分": 1, "都道府県コード": 37, "市区町村コード": 208, "所在地": "香川県三豊市高瀬町下勝間１６２３－１", "緯度": 34.177833, "経度": 133.717084, "url": "https://www.iryou.teikyouseido.mhlw.go.jp/znk-web/juminkanja/S2430/initialize?prefCd=37&kikanCd=1370400140&kikanKbn=1", "url2": null, "内容": "森川整形外科病院【1:病院】【診療科目:内科_循環器内科_消化器内科_外科_整形外科_リウマチ科_リハビリテーション科】【一般病床数:41療養病床数:0精神病床数:0感染症病床数:0合計病床数:41】香川県三豊市高瀬町下勝間１６２３－１" }, "geometry": { "type": "Point", "coordinates": [ 133.717084, 34.177833 ] } },
{ "type": "Feature", "properties": { "ID": 3711370500010, "正式名称": "国立療養所大島青松園", "機関区分": 1, "都道府県コード": 37, "市区町村コード": 201, "所在地": "香川県高松市庵治町６０３４－１", "緯度": 34.409315, "経度": 134.107347, "url": "https://www.iryou.teikyouseido.mhlw.go.jp/znk-web/juminkanja/S2430/initialize?prefCd=37&kikanCd=1370500010&kikanKbn=1", "url2": "https://www.mhlw.go.jp/seisakunitsuite/bunya/kenkou_iryou/iryou/hansen/osima/index.html", "内容": "国立療養所大島青松園【1:病院】【診療科目:内科_外科_整形外科_形成外科_眼科_耳鼻いんこう科_皮膚科_歯科】【一般病床数:100療養病床数:0精神病床数:0感染症病床数:0合計病床数:100】香川県高松市庵治町６０３４－１" }, "geometry": { "type": "Point", "coordinates": [ 134.107347, 34.409315 ] } },
{ "type": "Feature", "properties": { "ID": 3711370500020, "正式名称": "独立行政法人国立病院機構　高松医療センター", "機関区分": 1, "都道府県コード": 37, "市区町村コード": 201, "所在地": "香川県高松市新田町乙８番地", "緯度": 34.320019, "経度": 134.110156, "url": "https://www.iryou.teikyouseido.mhlw.go.jp/znk-web/juminkanja/S2430/initialize?prefCd=37&kikanCd=1370500020&kikanKbn=1", "url2": "https://takamatsu.hosp.go.jp", "内容": "独立行政法人国立病院機構　高松医療センター【1:病院】【診療科目:内科_呼吸器内科_循環器内科_消化器内科_神経内科_外科_整形外科_小児科_小児神経内科_皮膚科_泌尿器科_歯科_リハビリテーション科_麻酔科】【一般病床数:220療養病床数:0精神病床数:0感染症病床数:0合計病床数:232】香川県高松市新田町乙８番地" }, "geometry": { "type": "Point", "coordinates": [ 134.110156, 34.320019 ] } },
{ "type": "Feature", "properties": { "ID": 3711370500030, "正式名称": "香川県立中央病院", "機関区分": 1, "都道府県コード": 37, "市区町村コード": 201, "所在地": "香川県高松市朝日町１丁目２番１号", "緯度": 34.348682, "経度": 134.062326, "url": "https://www.iryou.teikyouseido.mhlw.go.jp/znk-web/juminkanja/S2430/initialize?prefCd=37&kikanCd=1370500030&kikanKbn=1", "url2": "https://www.chp-kagawa.jp/", "内容": "香川県立中央病院【1:病院】【診療科目:内科_血液内科_糖尿病内科_脳神経内科_呼吸器内科_循環器内科_消化器内科_腎臓内科_肝臓内科_腫瘍内科_緩和ケア内科_外科_脳神経外科_呼吸器外科_心臓血管外科_消化器外科_乳腺・内分泌外科_頭頸部外科_整形外科_形成外科_小児科_産婦人科_眼科_耳鼻いんこう科_皮膚科_泌尿器科_歯科_歯科口腔外科_リハビリテーション科_放射線科_病理診断科_救急科_麻酔科】【一般病床数:526療養病床数:0精神病床数:0感染症病床数:2合計病床数:533】香川県高松市朝日町１丁目２番１号" }, "geometry": { "type": "Point", "coordinates": [ 134.062326, 34.348682 ] } },
{ "type": "Feature", "properties": { "ID": 3711370500040, "正式名称": "かがわ総合リハビリテーション病院", "機関区分": 1, "都道府県コード": 37, "市区町村コード": 201, "所在地": "香川県高松市田村町１１１４", "緯度": 34.306825, "経度": 134.031191, "url": "https://www.iryou.teikyouseido.mhlw.go.jp/znk-web/juminkanja/S2430/initialize?prefCd=37&kikanCd=1370500040&kikanKbn=1", "url2": "http://www.kagawa-reha.net/", "内容": "かがわ総合リハビリテーション病院【1:病院】【診療科目:内科_脳神経外科_整形外科_小児科_眼科_耳鼻いんこう科_皮膚科_歯科_矯正歯科_歯科口腔外科_小児歯科_リハビリテーション科】【一般病床数:184療養病床数:0精神病床数:0感染症病床数:0合計病床数:184】香川県高松市田村町１１１４" }, "geometry": { "type": "Point", "coordinates": [ 134.031191, 34.306825 ] } },
{ "type": "Feature", "properties": { "ID": 3711370500060, "正式名称": "高松市民病院塩江分院", "機関区分": 1, "都道府県コード": 37, "市区町村コード": 201, "所在地": "香川県高松市塩江町安原上東９９番地１", "緯度": 34.171507, "経度": 134.080638, "url": "https://www.iryou.teikyouseido.mhlw.go.jp/znk-web/juminkanja/S2430/initialize?prefCd=37&kikanCd=1370500060&kikanKbn=1", "url2": "http://tmh-shionoe.jpn.org", "内容": "高松市民病院塩江分院【1:病院】【診療科目:内科_外科_整形外科_泌尿器科_歯科_リハビリテーション科】【一般病床数:0療養病床数:0精神病床数:0感染症病床数:0合計病床数:0】香川県高松市塩江町安原上東９９番地１" }, "geometry": { "type": "Point", "coordinates": [ 134.080638, 34.171507 ] } },
{ "type": "Feature", "properties": { "ID": 3711370500080, "正式名称": "高松赤十字病院", "機関区分": 1, "都道府県コード": 37, "市区町村コード": 201, "所在地": "香川県高松市番町４丁目１－３", "緯度": 34.340738, "経度": 134.04305, "url": "https://www.iryou.teikyouseido.mhlw.go.jp/znk-web/juminkanja/S2430/initialize?prefCd=37&kikanCd=1370500080&kikanKbn=1", "url2": "https://www.takamatsu.jrc.or.jp", "内容": "高松赤十字病院【1:病院】【診療科目:内科_感染症内科_血液内科_代謝・内分泌内科_脳神経内科_呼吸器内科_循環器内科_消化器内科_腎臓内科_腫瘍内科_脳神経外科_呼吸器外科_心臓血管外科_消化器外科_腎臓外科_乳腺外科_整形外科_形成外科_小児科_小児外科_産婦人科_眼科_耳鼻いんこう科_皮膚科_泌尿器科_精神科_歯科口腔外科_リウマチ科_リハビリテーション科_放射線科_病理診断科_救急科_麻酔科】【一般病床数:463療養病床数:0精神病床数:0感染症病床数:0合計病床数:465】香川県高松市番町４丁目１－３" }, "geometry": { "type": "Point", "coordinates": [ 134.04305, 34.340738 ] } },
{ "type": "Feature", "properties": { "ID": 3711370500090, "正式名称": "社会福祉法人恩賜財団済生会支部香川県済生会病院", "機関区分": 1, "都道府県コード": 37, "市区町村コード": 201, "所在地": "香川県高松市多肥上町１３３１－１", "緯度": 34.295521, "経度": 134.058356, "url": "https://www.iryou.teikyouseido.mhlw.go.jp/znk-web/juminkanja/S2430/initialize?prefCd=37&kikanCd=1370500090&kikanKbn=1", "url2": "http://www.saiseikai-kagawa.jp/", "内容": "社会福祉法人恩賜財団済生会支部香川県済生会病院【1:病院】【診療科目:内科_糖尿病・内分泌内科_脳神経内科_循環器内科_消化器内科_腎臓内科_人工透析内科_内視鏡内科_外科_消化器外科_内視鏡外科_整形外科_小児科_眼科_皮膚科_泌尿器科_リウマチ科_リハビリテーション科_放射線科_麻酔科】【一般病床数:145療養病床数:42精神病床数:0感染症病床数:0合計病床数:187】香川県高松市多肥上町１３３１－１" }, "geometry": { "type": "Point", "coordinates": [ 134.058356, 34.295521 ] } },
{ "type": "Feature", "properties": { "ID": 3711370500100, "正式名称": "香川県厚生農業協同組合連合会　屋島総合病院", "機関区分": 1, "都道府県コード": 37, "市区町村コード": 201, "所在地": "香川県高松市屋島西町２１０５－１７", "緯度": 34.343378, "経度": 134.090712, "url": "https://www.iryou.teikyouseido.mhlw.go.jp/znk-web/juminkanja/S2430/initialize?prefCd=37&kikanCd=1370500100&kikanKbn=1", "url2": "https://www.yashima-hp.com/", "内容": "香川県厚生農業協同組合連合会　屋島総合病院【1:病院】【診療科目:内科_循環器内科_外科_脳神経外科_整形外科_形成外科_小児科_産婦人科_眼科_耳鼻いんこう科_皮膚科_泌尿器科_歯科_リハビリテーション科_放射線科_麻酔科】【一般病床数:250療養病床数:0精神病床数:0感染症病床数:0合計病床数:250】香川県高松市屋島西町２１０５－１７" }, "geometry": { "type": "Point", "coordinates": [ 134.090712, 34.343378 ] } },
{ "type": "Feature", "properties": { "ID": 3711370500110, "正式名称": "独立行政法人地域医療機能推進機構りつりん病院", "機関区分": 1, "都道府県コード": 37, "市区町村コード": 201, "所在地": "香川県高松市栗林町３丁目５－９", "緯度": 34.328768, "経度": 134.050439, "url": "https://www.iryou.teikyouseido.mhlw.go.jp/znk-web/juminkanja/S2430/initialize?prefCd=37&kikanCd=1370500110&kikanKbn=1", "url2": "http://ritsurin.jcho.go.jp", "内容": "独立行政法人地域医療機能推進機構りつりん病院【1:病院】【診療科目:内科_呼吸器内科_循環器内科_外科_脳神経外科_整形外科_小児科_婦人科_眼科_皮膚科_泌尿器科_歯科口腔外科_リハビリテーション科_放射線科_麻酔科】【一般病床数:199療養病床数:0精神病床数:0感染症病床数:0合計病床数:199】香川県高松市栗林町３丁目５－９" }, "geometry": { "type": "Point", "coordinates": [ 134.050439, 34.328768 ] } },
{ "type": "Feature", "properties": { "ID": 3711370500120, "正式名称": "高松病院", "機関区分": 1, "都道府県コード": 37, "市区町村コード": 201, "所在地": "香川県高松市天神前４－１８", "緯度": 34.340016, "経度": 134.045577, "url": "https://www.iryou.teikyouseido.mhlw.go.jp/znk-web/juminkanja/S2430/initialize?prefCd=37&kikanCd=1370500120&kikanKbn=1", "url2": "http://www.kkr-ta-hp.gr.jp/", "内容": "高松病院【1:病院】【診療科目:内科_血液内科_代謝・内分泌内科_呼吸器内科_循環器内科_消化器内科_腎臓内科_神経内科_外科_呼吸器外科_消化器外科_眼科_泌尿器科_アレルギー科_リウマチ科】【一般病床数:179療養病床数:0精神病床数:0感染症病床数:0合計病床数:179】香川県高松市天神前４－１８" }, "geometry": { "type": "Point", "coordinates": [ 134.045577, 34.340016 ] } },
{ "type": "Feature", "properties": { "ID": 3711370500130, "正式名称": "一般財団法人大西精神衛生研究所附属大西病院", "機関区分": 1, "都道府県コード": 37, "市区町村コード": 201, "所在地": "香川県高松市上天神町３３６", "緯度": 34.315602, "経度": 134.044134, "url": "https://www.iryou.teikyouseido.mhlw.go.jp/znk-web/juminkanja/S2430/initialize?prefCd=37&kikanCd=1370500130&kikanKbn=1", "url2": "http://ohnishi-hp.or.jp", "内容": "一般財団法人大西精神衛生研究所附属大西病院【1:病院】【診療科目:精神科】【一般病床数:0療養病床数:0精神病床数:374感染症病床数:0合計病床数:0】香川県高松市上天神町３３６" }, "geometry": { "type": "Point", "coordinates": [ 134.044134, 34.315602 ] } },
{ "type": "Feature", "properties": { "ID": 3711370500140, "正式名称": "一般財団法人三宅医学研究所附属三宅リハビリテーション病院", "機関区分": 1, "都道府県コード": 37, "市区町村コード": 201, "所在地": "香川県高松市天神前５－５", "緯度": 34.339988, "経度": 134.04505, "url": "https://www.iryou.teikyouseido.mhlw.go.jp/znk-web/juminkanja/S2430/initialize?prefCd=37&kikanCd=1370500140&kikanKbn=1", "url2": "http://www.miyake.or.jp", "内容": "一般財団法人三宅医学研究所附属三宅リハビリテーション病院【1:病院】【診療科目:内科_脳神経内科_脳神経外科_整形外科_リウマチ科_リハビリテーション科_放射線科】【一般病床数:61療養病床数:0精神病床数:0感染症病床数:0合計病床数:61】香川県高松市天神前５－５" }, "geometry": { "type": "Point", "coordinates": [ 134.04505, 34.339988 ] } },
{ "type": "Feature", "properties": { "ID": 3711370500150, "正式名称": "医療法人和光会前田病院", "機関区分": 1, "都道府県コード": 37, "市区町村コード": 201, "所在地": "香川県高松市東ハゼ町８２４番地", "緯度": 34.32049, "経度": 134.038829, "url": "https://www.iryou.teikyouseido.mhlw.go.jp/znk-web/juminkanja/S2430/initialize?prefCd=37&kikanCd=1370500150&kikanKbn=1", "url2": "https://www.maeda-hosp.com/", "内容": "医療法人和光会前田病院【1:病院】【診療科目:内科_消化器内科_ペインクリニック内科_外科_消化器外科_肛門外科_整形外科_リハビリテーション科_麻酔科】【一般病床数:36療養病床数:60精神病床数:0感染症病床数:0合計病床数:96】香川県高松市東ハゼ町８２４番地" }, "geometry": { "type": "Point", "coordinates": [ 134.038829, 34.32049 ] } },
{ "type": "Feature", "properties": { "ID": 3711370500160, "正式名称": "医療法人財団博仁会キナシ大林病院", "機関区分": 1, "都道府県コード": 37, "市区町村コード": 201, "所在地": "香川県高松市鬼無町藤井４３５－１", "緯度": 34.332683, "経度": 134.002165, "url": "https://www.iryou.teikyouseido.mhlw.go.jp/znk-web/juminkanja/S2430/initialize?prefCd=37&kikanCd=1370500160&kikanKbn=1", "url2": "http://www.obayashihp.or.jp", "内容": "医療法人財団博仁会キナシ大林病院【1:病院】【診療科目:内科_血液内科_糖尿病内科_呼吸器内科_循環器内科_消化器内科_腎臓内科_人工透析内科_神経内科_外科_脳神経外科_循環器外科_消化器外科_乳腺・内分泌外科_整形外科_形成外科_眼科_泌尿器科_腎臓・泌尿器科_心療内科_リハビリテーション科_放射線科_麻酔科】【一般病床数:150療養病床数:49精神病床数:0感染症病床数:0合計病床数:199】香川県高松市鬼無町藤井４３５－１" }, "geometry": { "type": "Point", "coordinates": [ 134.002165, 34.332683 ] } },
{ "type": "Feature", "properties": { "ID": 3711370500180, "正式名称": "医療法人社団三恵会木太三宅病院", "機関区分": 1, "都道府県コード": 37, "市区町村コード": 201, "所在地": "香川県高松市木太町８区３８３６－７", "緯度": 34.321074, "経度": 134.080131, "url": "https://www.iryou.teikyouseido.mhlw.go.jp/znk-web/juminkanja/S2430/initialize?prefCd=37&kikanCd=1370500180&kikanKbn=1", "url2": "http://www.kitamiyake.jp/", "内容": "医療法人社団三恵会木太三宅病院【1:病院】【診療科目:内科_循環器内科_消化器内科_外科_心臓血管外科_肛門外科_整形外科_リハビリテーション科】【一般病床数:31療養病床数:0精神病床数:0感染症病床数:0合計病床数:31】香川県高松市木太町８区３８３６－７" }, "geometry": { "type": "Point", "coordinates": [ 134.080131, 34.321074 ] } },
{ "type": "Feature", "properties": { "ID": 3711370500190, "正式名称": "医療法人社団新進会おさか脳神経外科病院", "機関区分": 1, "都道府県コード": 37, "市区町村コード": 201, "所在地": "香川県高松市三名町３７８－１", "緯度": 34.291355, "経度": 134.03247, "url": "https://www.iryou.teikyouseido.mhlw.go.jp/znk-web/juminkanja/S2430/initialize?prefCd=37&kikanCd=1370500190&kikanKbn=1", "url2": "https://osaka-nhp.jp/", "内容": "医療法人社団新進会おさか脳神経外科病院【1:病院】【診療科目:内科_脳神経内科_循環器内科_外科_脳神経外科_整形外科_リハビリテーション科_放射線科】【一般病床数:69療養病床数:0精神病床数:0感染症病床数:0合計病床数:69】香川県高松市三名町３７８－１" }, "geometry": { "type": "Point", "coordinates": [ 134.03247, 34.291355 ] } },
{ "type": "Feature", "properties": { "ID": 3711370500200, "正式名称": "医療法人社団百石病院", "機関区分": 1, "都道府県コード": 37, "市区町村コード": 201, "所在地": "香川県高松市屋島西町１９３７－１", "緯度": 34.338962, "経度": 134.104184, "url": "https://www.iryou.teikyouseido.mhlw.go.jp/znk-web/juminkanja/S2430/initialize?prefCd=37&kikanCd=1370500200&kikanKbn=1", "url2": "http://hyakkokuhp.wixsite.com/hyakkokuhp", "内容": "医療法人社団百石病院【1:病院】【診療科目:内科_循環器内科_外科_脳神経外科_胃腸外科_肛門外科_整形外科_小児外科_泌尿器科_リハビリテーション科_麻酔科】【一般病床数:87療養病床数:0精神病床数:0感染症病床数:0合計病床数:87】香川県高松市屋島西町１９３７－１" }, "geometry": { "type": "Point", "coordinates": [ 134.104184, 34.338962 ] } },
{ "type": "Feature", "properties": { "ID": 3711370500220, "正式名称": "医療法人社団清澄会ミタニ病院", "機関区分": 1, "都道府県コード": 37, "市区町村コード": 201, "所在地": "香川県高松市三谷町１６８０－１", "緯度": 34.280412, "経度": 134.059968, "url": "https://www.iryou.teikyouseido.mhlw.go.jp/znk-web/juminkanja/S2430/initialize?prefCd=37&kikanCd=1370500220&kikanKbn=1", "url2": "https://i-seichokai.jp", "内容": "医療法人社団清澄会ミタニ病院【1:病院】【診療科目:内科_呼吸器内科_循環器内科_消化器内科_腎臓内科_泌尿器科】【一般病床数:42療養病床数:43精神病床数:0感染症病床数:0合計病床数:85】香川県高松市三谷町１６８０－１" }, "geometry": { "type": "Point", "coordinates": [ 134.059968, 34.280412 ] } },
{ "type": "Feature", "properties": { "ID": 3711370500230, "正式名称": "医療法人社団康生会高松大林病院", "機関区分": 1, "都道府県コード": 37, "市区町村コード": 201, "所在地": "香川県高松市番町１丁目１０－３", "緯度": 34.342183, "経度": 134.045438, "url": "https://www.iryou.teikyouseido.mhlw.go.jp/znk-web/juminkanja/S2430/initialize?prefCd=37&kikanCd=1370500230&kikanKbn=1", "url2": "https://www.takamatsu-obayashi.com", "内容": "医療法人社団康生会高松大林病院【1:病院】【診療科目:内科_循環器内科_消化器内科_リハビリテーション科_放射線科】【一般病床数:0療養病床数:22精神病床数:0感染症病床数:0合計病床数:22】香川県高松市番町１丁目１０－３" }, "geometry": { "type": "Point", "coordinates": [ 134.045438, 34.342183 ] } },
{ "type": "Feature", "properties": { "ID": 3711370500240, "正式名称": "医療法人社団啓友会久米川病院", "機関区分": 1, "都道府県コード": 37, "市区町村コード": 201, "所在地": "香川県高松市新田町甲４７４－３", "緯度": 34.328602, "経度": 134.105601, "url": "https://www.iryou.teikyouseido.mhlw.go.jp/znk-web/juminkanja/S2430/initialize?prefCd=37&kikanCd=1370500240&kikanKbn=1", "url2": "https://kumegawa-hsp.jp", "内容": "医療法人社団啓友会久米川病院【1:病院】【診療科目:内科_糖尿病内科_呼吸器内科_循環器内科_消化器内科_肝臓内科_外科_脳神経外科_呼吸器外科_循環器外科_消化器外科_乳腺外科_整形外科_皮膚科_泌尿器科_リウマチ科_リハビリテーション科_放射線科】【一般病床数:44療養病床数:0精神病床数:0感染症病床数:0合計病床数:44】香川県高松市新田町甲４７４－３" }, "geometry": { "type": "Point", "coordinates": [ 134.105601, 34.328602 ] } },
{ "type": "Feature", "properties": { "ID": 3711370500250, "正式名称": "医療法人社団和広会伊達病院", "機関区分": 1, "都道府県コード": 37, "市区町村コード": 201, "所在地": "香川県高松市観光町５８８－８", "緯度": 34.333962, "経度": 134.060882, "url": "https://www.iryou.teikyouseido.mhlw.go.jp/znk-web/juminkanja/S2430/initialize?prefCd=37&kikanCd=1370500250&kikanKbn=1", "url2": "https://www.date-med.or.jp", "内容": "医療法人社団和広会伊達病院【1:病院】【診療科目:内科_糖尿病内科_循環器内科_外科_循環器外科_乳腺外科_整形外科_リハビリテーション科_放射線科】【一般病床数:24療養病床数:26精神病床数:0感染症病床数:0合計病床数:50】香川県高松市観光町５８８－８" }, "geometry": { "type": "Point", "coordinates": [ 134.060882, 34.333962 ] } },
{ "type": "Feature", "properties": { "ID": 3711370500260, "正式名称": "医療法人社団研宣会広瀬病院", "機関区分": 1, "都道府県コード": 37, "市区町村コード": 201, "所在地": "香川県高松市松縄町３５－３", "緯度": 34.322435, "経度": 134.064382, "url": "https://www.iryou.teikyouseido.mhlw.go.jp/znk-web/juminkanja/S2430/initialize?prefCd=37&kikanCd=1370500260&kikanKbn=1", "url2": "https://www.hirose-hosp.or.jp", "内容": "医療法人社団研宣会広瀬病院【1:病院】【診療科目:外科_整形外科_リウマチ科_リハビリテーション科】【一般病床数:43療養病床数:0精神病床数:0感染症病床数:0合計病床数:43】香川県高松市松縄町３５－３" }, "geometry": { "type": "Point", "coordinates": [ 134.064382, 34.322435 ] } },
{ "type": "Feature", "properties": { "ID": 3711370500270, "正式名称": "医療法人社団玉藻会馬場病院", "機関区分": 1, "都道府県コード": 37, "市区町村コード": 201, "所在地": "香川県高松市郷東町５８０", "緯度": 34.348654, "経度": 134.014718, "url": "https://www.iryou.teikyouseido.mhlw.go.jp/znk-web/juminkanja/S2430/initialize?prefCd=37&kikanCd=1370500270&kikanKbn=1", "url2": "http://nttbj.itp.ne.jp/0878814375/index.html", "内容": "医療法人社団玉藻会馬場病院【1:病院】【診療科目:内科_精神科_心療内科】【一般病床数:0療養病床数:0精神病床数:427感染症病床数:0合計病床数:427】香川県高松市郷東町５８０" }, "geometry": { "type": "Point", "coordinates": [ 134.014718, 34.348654 ] } },
{ "type": "Feature", "properties": { "ID": 3711370500280, "正式名称": "高松協同病院", "機関区分": 1, "都道府県コード": 37, "市区町村コード": 201, "所在地": "香川県高松市木太町４６６４番地", "緯度": 34.32313, "経度": 134.085853, "url": "https://www.iryou.teikyouseido.mhlw.go.jp/znk-web/juminkanja/S2430/initialize?prefCd=37&kikanCd=1370500280&kikanKbn=1", "url2": "http://www.t-kyodo.com/", "内容": "高松協同病院【1:病院】【診療科目:内科_整形外科_リハビリテーション科】【一般病床数:0療養病床数:85精神病床数:0感染症病床数:0合計病床数:85】香川県高松市木太町４６６４番地" }, "geometry": { "type": "Point", "coordinates": [ 134.085853, 34.32313 ] } },
{ "type": "Feature", "properties": { "ID": 3711370500290, "正式名称": "医療法人社団雙和会クワヤ病院", "機関区分": 1, "都道府県コード": 37, "市区町村コード": 201, "所在地": "香川県高松市塩屋町１－４", "緯度": 34.344072, "経度": 134.055104, "url": "https://www.iryou.teikyouseido.mhlw.go.jp/znk-web/juminkanja/S2430/initialize?prefCd=37&kikanCd=1370500290&kikanKbn=1", "url2": "http://www.kuwaya.or.jp/", "内容": "医療法人社団雙和会クワヤ病院【1:病院】【診療科目:内科_糖尿病内科_呼吸器内科_循環器内科_消化器内科_ペインクリニック内科_整形外科_皮膚科_美容皮膚科_泌尿器科_精神科_心療内科_リウマチ科_リハビリテーション科_放射線科】【一般病床数:73療養病床数:0精神病床数:0感染症病床数:0合計病床数:73】香川県高松市塩屋町１－４" }, "geometry": { "type": "Point", "coordinates": [ 134.055104, 34.344072 ] } },
{ "type": "Feature", "properties": { "ID": 3711370500300, "正式名称": "高松平和病院", "機関区分": 1, "都道府県コード": 37, "市区町村コード": 201, "所在地": "香川県高松市栗林町１丁目４－１", "緯度": 34.331434, "経度": 134.046856, "url": "https://www.iryou.teikyouseido.mhlw.go.jp/znk-web/juminkanja/S2430/initialize?prefCd=37&kikanCd=1370500300&kikanKbn=1", "url2": "www.t-heiwa.com", "内容": "高松平和病院【1:病院】【診療科目:内科_呼吸器内科_循環器内科_消化器内科_緩和ケア内科_乳腺外科_整形外科_小児科_アレルギー科_リウマチ科_リハビリテーション科_病理診断科_救急科】【一般病床数:123療養病床数:0精神病床数:0感染症病床数:0合計病床数:123】香川県高松市栗林町１丁目４－１" }, "geometry": { "type": "Point", "coordinates": [ 134.046856, 34.331434 ] } },
{ "type": "Feature", "properties": { "ID": 3711370500330, "正式名称": "整形外科吉峰病院", "機関区分": 1, "都道府県コード": 37, "市区町村コード": 201, "所在地": "香川県高松市番町１丁目４番１３号", "緯度": 34.343794, "経度": 134.045411, "url": "https://www.iryou.teikyouseido.mhlw.go.jp/znk-web/juminkanja/S2430/initialize?prefCd=37&kikanCd=1370500330&kikanKbn=1", "url2": "http://www.yoshimine.com", "内容": "整形外科吉峰病院【1:病院】【診療科目:内科_脳神経内科_消化器内科_外科_整形外科_皮膚科_リウマチ科_リハビリテーション科】【一般病床数:54療養病床数:0精神病床数:0感染症病床数:0合計病床数:54】香川県高松市番町１丁目４番１３号" }, "geometry": { "type": "Point", "coordinates": [ 134.045411, 34.343794 ] } },
{ "type": "Feature", "properties": { "ID": 3711370500340, "正式名称": "医療法人社団弘徳会マオカ病院", "機関区分": 1, "都道府県コード": 37, "市区町村コード": 201, "所在地": "香川県高松市瓦町１丁目１２番地４５", "緯度": 34.341016, "経度": 134.051466, "url": "https://www.iryou.teikyouseido.mhlw.go.jp/znk-web/juminkanja/S2430/initialize?prefCd=37&kikanCd=1370500340&kikanKbn=1", "url2": "https://kotokukai.net/maoka/", "内容": "医療法人社団弘徳会マオカ病院【1:病院】【診療科目:内科_整形外科_リウマチ科_リハビリテーション科_麻酔科】【一般病床数:29療養病床数:29精神病床数:0感染症病床数:0合計病床数:58】香川県高松市瓦町１丁目１２番地４５" }, "geometry": { "type": "Point", "coordinates": [ 134.051466, 34.341016 ] } },
{ "type": "Feature", "properties": { "ID": 3711370500350, "正式名称": "医療法人社団以和貴会いわき病院", "機関区分": 1, "都道府県コード": 37, "市区町村コード": 201, "所在地": "香川県高松市香南町由佐１１３－１", "緯度": 34.236888, "経度": 134.021695, "url": "https://www.iryou.teikyouseido.mhlw.go.jp/znk-web/juminkanja/S2430/initialize?prefCd=37&kikanCd=1370500350&kikanKbn=1", "url2": "http://www.iwaki-hospital.or.jp", "内容": "医療法人社団以和貴会いわき病院【1:病院】【診療科目:内科_神経内科_精神科_心療内科_歯科】【一般病床数:0療養病床数:0精神病床数:226感染症病床数:0合計病床数:226】香川県高松市香南町由佐１１３－１" }, "geometry": { "type": "Point", "coordinates": [ 134.021695, 34.236888 ] } },
{ "type": "Feature", "properties": { "ID": 3711370500360, "正式名称": "医療法人社団光風会三光病院", "機関区分": 1, "都道府県コード": 37, "市区町村コード": 201, "所在地": "香川県高松市牟礼町原８８３－１", "緯度": 34.335296, "経度": 134.14793, "url": "https://www.iryou.teikyouseido.mhlw.go.jp/znk-web/juminkanja/S2430/initialize?prefCd=37&kikanCd=1370500360&kikanKbn=1", "url2": "http://www.sanko-hp.com/", "内容": "医療法人社団光風会三光病院【1:病院】【診療科目:内科_児童精神科_精神科_心療内科_老年精神科】【一般病床数:0療養病床数:0精神病床数:320感染症病床数:0合計病床数:320】香川県高松市牟礼町原８８３－１" }, "geometry": { "type": "Point", "coordinates": [ 134.14793, 34.335296 ] } },
{ "type": "Feature", "properties": { "ID": 3711370500370, "正式名称": "医療法人社団仁樹会オサカ病院", "機関区分": 1, "都道府県コード": 37, "市区町村コード": 201, "所在地": "香川県高松市香川町浅野２７２", "緯度": 34.266552, "経度": 134.03411, "url": "https://www.iryou.teikyouseido.mhlw.go.jp/znk-web/juminkanja/S2430/initialize?prefCd=37&kikanCd=1370500370&kikanKbn=1", "url2": "http://www.osaka-hp.jp/", "内容": "医療法人社団仁樹会オサカ病院【1:病院】【診療科目:内科_循環器内科_外科_整形外科_形成外科_皮膚科_泌尿器科_リハビリテーション科_放射線科_麻酔科】【一般病床数:52療養病床数:0精神病床数:0感染症病床数:0合計病床数:52】香川県高松市香川町浅野２７２" }, "geometry": { "type": "Point", "coordinates": [ 134.03411, 34.266552 ] } },
{ "type": "Feature", "properties": { "ID": 3711370500380, "正式名称": "医療法人社団有史会高畠病院", "機関区分": 1, "都道府県コード": 37, "市区町村コード": 201, "所在地": "香川県高松市国分寺町新名５００番地１", "緯度": 34.291602, "経度": 133.958254, "url": "https://www.iryou.teikyouseido.mhlw.go.jp/znk-web/juminkanja/S2430/initialize?prefCd=37&kikanCd=1370500380&kikanKbn=1", "url2": "https://takabatake-hp.com", "内容": "医療法人社団有史会高畠病院【1:病院】【診療科目:内科_糖尿病内科_循環器内科_消化器内科_神経内科_外科_肛門外科_整形外科_眼科_リハビリテーション科】【一般病床数:50療養病床数:48精神病床数:0感染症病床数:0合計病床数:98】香川県高松市国分寺町新名５００番地１" }, "geometry": { "type": "Point", "coordinates": [ 133.958254, 34.291602 ] } },
{ "type": "Feature", "properties": { "ID": 3711370500390, "正式名称": "高松市立みんなの病院", "機関区分": 1, "都道府県コード": 37, "市区町村コード": 201, "所在地": "香川県高松市仏生山町甲８４７番地１", "緯度": 34.282094, "経度": 134.046657, "url": "https://www.iryou.teikyouseido.mhlw.go.jp/znk-web/juminkanja/S2430/initialize?prefCd=37&kikanCd=1370500390&kikanKbn=1", "url2": "http://www.takamatsu-municipal-hospital.jp/", "内容": "高松市立みんなの病院【1:病院】【診療科目:内科_脳神経内科_呼吸器内科_循環器内科_消化器内科_神経内科_外科_脳神経外科_脳・血管外科_呼吸器外科_整形外科_形成外科_小児科_産科_婦人科_眼科_耳鼻いんこう科_皮膚科_泌尿器科_精神科_歯科口腔外科_リハビリテーション科_放射線科_病理診断科_臨床検査科_救急科_麻酔科】【一般病床数:299療養病床数:0精神病床数:0感染症病床数:6合計病床数:305】香川県高松市仏生山町甲８４７番地１" }, "geometry": { "type": "Point", "coordinates": [ 134.046657, 34.282094 ] } }
]
}
