{
"type": "FeatureCollection",
"name": "geo_37_通所介護",
"crs": { "type": "name", "properties": { "name": "urn:ogc:def:crs:OGC:1.3:CRS84" } },
"features": [
{ "type": "Feature", "properties": { "内容": "ミルキーウェイ【通所介護】香川県高松市三谷町3518-16", "url": "https://www.kaigokensaku.mhlw.go.jp/37/index.php?action_kouhyou_detail_004_kani=true&JigyosyoCd=3770110546-00&ServiceCd=150&Type=search", "url2": "https://www.ginganokai.jp" }, "geometry": { "type": "Point", "coordinates": [ 134.065399899999989, 34.2551872 ] } },
{ "type": "Feature", "properties": { "内容": "デイサービス　グレイス【通所介護】香川県高松市上林町７５５番地", "url": "https://www.kaigokensaku.mhlw.go.jp/37/index.php?action_kouhyou_detail_004_kani=true&JigyosyoCd=3770111189-00&ServiceCd=150&Type=search", "url2": "https://rainbow-megumi.jp" }, "geometry": { "type": "Point", "coordinates": [ 134.0630611, 34.2877031 ] } },
{ "type": "Feature", "properties": { "内容": "デイサービス　ライフサポートこくぶ【通所介護】香川県高松市国分寺町国分７３２番地１デイサービス　ライフサポートこくぶ", "url": "https://www.kaigokensaku.mhlw.go.jp/37/index.php?action_kouhyou_detail_004_kani=true&JigyosyoCd=3770108953-00&ServiceCd=150&Type=search", "url2": null }, "geometry": { "type": "Point", "coordinates": [ 133.945453600000064, 34.2971527 ] } },
{ "type": "Feature", "properties": { "内容": "デイサービス　La　mer【通所介護】香川県高松市茜町28-31", "url": "https://www.kaigokensaku.mhlw.go.jp/37/index.php?action_kouhyou_detail_004_kani=true&JigyosyoCd=3770110587-00&ServiceCd=150&Type=search", "url2": "http://akanecho-bellevie.com/" }, "geometry": { "type": "Point", "coordinates": [ 134.023891127396013, 34.350746131746639 ] } },
{ "type": "Feature", "properties": { "内容": "デイサービスセンター　ゆうの季節【通所介護】香川県高松市上林町705-1", "url": "https://www.kaigokensaku.mhlw.go.jp/37/index.php?action_kouhyou_detail_004_kani=true&JigyosyoCd=3770110082-00&ServiceCd=150&Type=search", "url2": "https://yuyusya.co.jp/" }, "geometry": { "type": "Point", "coordinates": [ 134.0618905, 34.2905609 ] } },
{ "type": "Feature", "properties": { "内容": "デイサービスセンター泰寿【通所介護】香川県高松市林町２４３番地２", "url": "https://www.kaigokensaku.mhlw.go.jp/37/index.php?action_kouhyou_detail_004_kani=true&JigyosyoCd=3770109571-00&ServiceCd=150&Type=search", "url2": "https://www.day-taiju.com/" }, "geometry": { "type": "Point", "coordinates": [ 134.071721840419173, 34.297826688401223 ] } },
{ "type": "Feature", "properties": { "内容": "デイサービスセンターこすもす【通所介護】香川県高松市太田下町1868-2", "url": "https://www.kaigokensaku.mhlw.go.jp/37/index.php?action_kouhyou_detail_004_kani=true&JigyosyoCd=3770102527-00&ServiceCd=150&Type=search", "url2": null }, "geometry": { "type": "Point", "coordinates": [ 134.043545499999937, 34.3070857 ] } },
{ "type": "Feature", "properties": { "内容": "デイサービスセンター　春いちばん【通所介護】香川県高松市円座町1300-2", "url": "https://www.kaigokensaku.mhlw.go.jp/37/index.php?action_kouhyou_detail_004_kani=true&JigyosyoCd=3770103053-00&ServiceCd=150&Type=search", "url2": "http://www.happylifeai.co.jp/" }, "geometry": { "type": "Point", "coordinates": [ 134.014537, 34.2843349 ] } },
{ "type": "Feature", "properties": { "内容": "デイサービス　悠悠元気風呂【通所介護】香川県高松市香南町西庄398番地1", "url": "https://www.kaigokensaku.mhlw.go.jp/37/index.php?action_kouhyou_detail_004_kani=true&JigyosyoCd=3770105074-00&ServiceCd=150&Type=search", "url2": "http:/yuyu.client.jp/" }, "geometry": { "type": "Point", "coordinates": [ 133.990433199999984, 34.245606 ] } },
{ "type": "Feature", "properties": { "内容": "デイサービス　きたえるーむ　高松中央【通所介護】香川県高松市楠上町1-7-20パルクピア101", "url": "https://www.kaigokensaku.mhlw.go.jp/37/index.php?action_kouhyou_detail_004_kani=true&JigyosyoCd=3770107252-00&ServiceCd=150&Type=search", "url2": null }, "geometry": { "type": "Point", "coordinates": [ 134.058118499999978, 34.3304337 ] } },
{ "type": "Feature", "properties": { "内容": "銀星の家【通所介護】香川県高松市屋島西町2366-11", "url": "https://www.kaigokensaku.mhlw.go.jp/37/index.php?action_kouhyou_detail_004_kani=true&JigyosyoCd=3770110314-00&ServiceCd=150&Type=search", "url2": "https://www.ginseinoie.com/" }, "geometry": { "type": "Point", "coordinates": [ 134.08662910000001, 34.3451648 ] } },
{ "type": "Feature", "properties": { "内容": "デイサービスみつわ【通所介護】香川県高松市十川東町510-1", "url": "https://www.kaigokensaku.mhlw.go.jp/37/index.php?action_kouhyou_detail_004_kani=true&JigyosyoCd=3770110561-00&ServiceCd=150&Type=search", "url2": "www.mitsuwa@juno.ocn.ne.jp" }, "geometry": { "type": "Point", "coordinates": [ 134.1079134, 34.2615116 ] } },
{ "type": "Feature", "properties": { "内容": "ベストケア・デイサービスセンター春日【通所介護】香川県高松市春日町１６４６番地１", "url": "https://www.kaigokensaku.mhlw.go.jp/37/index.php?action_kouhyou_detail_004_kani=true&JigyosyoCd=3770105702-00&ServiceCd=150&Type=search", "url2": null }, "geometry": { "type": "Point", "coordinates": [ 134.089948600000099, 34.3357332 ] } },
{ "type": "Feature", "properties": { "内容": "西春日デイサービス【通所介護】高松市西春日町1510-1", "url": "https://www.kaigokensaku.mhlw.go.jp/37/index.php?action_kouhyou_detail_004_kani=true&JigyosyoCd=3770101081-00&ServiceCd=150&Type=search", "url2": null }, "geometry": { "type": "Point", "coordinates": [ 134.02019580000001, 34.3155429 ] } },
{ "type": "Feature", "properties": { "内容": "あろはデイサービス香南【通所介護】香南町西庄1671-2あろは虹の丘1F", "url": "https://www.kaigokensaku.mhlw.go.jp/37/index.php?action_kouhyou_detail_004_kani=true&JigyosyoCd=3770111445-00&ServiceCd=150&Type=search", "url2": null }, "geometry": { "type": "Point", "coordinates": [ 133.9942807, 34.2358967 ] } },
{ "type": "Feature", "properties": { "内容": "デイサービスにぎわい【通所介護】高松市西の丸町12-10", "url": "https://www.kaigokensaku.mhlw.go.jp/37/index.php?action_kouhyou_detail_004_kani=true&JigyosyoCd=3770103517-00&ServiceCd=150&Type=search", "url2": "http://www.yamamoto-a.co.jp" }, "geometry": { "type": "Point", "coordinates": [ 134.046257200000014, 34.3492623 ] } },
{ "type": "Feature", "properties": { "内容": "デイサービスあじわい【通所介護】高松市花園町１丁目６番２号", "url": "https://www.kaigokensaku.mhlw.go.jp/37/index.php?action_kouhyou_detail_004_kani=true&JigyosyoCd=3770104515-00&ServiceCd=150&Type=search", "url2": "http://www.yamamoto-a.co.jp" }, "geometry": { "type": "Point", "coordinates": [ 134.055926699999986, 34.3354693 ] } },
{ "type": "Feature", "properties": { "内容": "デイサービスセンター　うたい鳥【通所介護】香川県高松市六条町511番地", "url": "https://www.kaigokensaku.mhlw.go.jp/37/index.php?action_kouhyou_detail_004_kani=true&JigyosyoCd=3770111056-00&ServiceCd=150&Type=search", "url2": "https://www.junshinkai.com/facility/kagawa_takamatsu/entry-166.html" }, "geometry": { "type": "Point", "coordinates": [ 134.078190299999989, 34.2909531 ] } },
{ "type": "Feature", "properties": { "内容": "デイサービス　夕凪【通所介護】香川県高松市林町1986番地7", "url": "https://www.kaigokensaku.mhlw.go.jp/37/index.php?action_kouhyou_detail_004_kani=true&JigyosyoCd=3770103186-00&ServiceCd=150&Type=search", "url2": null }, "geometry": { "type": "Point", "coordinates": [ 134.0711803, 34.307189 ] } },
{ "type": "Feature", "properties": { "内容": "デイサービス　うちんく【通所介護】香川県高松市川島本町切戸276-1", "url": "https://www.kaigokensaku.mhlw.go.jp/37/index.php?action_kouhyou_detail_004_kani=true&JigyosyoCd=3770101974-00&ServiceCd=150&Type=search", "url2": null }, "geometry": { "type": "Point", "coordinates": [ 134.086016702516162, 34.279578395426192 ] } },
{ "type": "Feature", "properties": { "内容": "デイサービスセンター玉藻荘【通所介護】高松市北浜町7番10号", "url": "https://www.kaigokensaku.mhlw.go.jp/37/index.php?action_kouhyou_detail_004_kani=true&JigyosyoCd=3770104101-00&ServiceCd=150&Type=search", "url2": "http://www.sanuki-sha.or.jp/" }, "geometry": { "type": "Point", "coordinates": [ 134.0560901, 34.3502513 ] } },
{ "type": "Feature", "properties": { "内容": "デイサービスセンター　アイムの杜【通所介護】香川県高松市国分寺町新居1339-3", "url": "https://www.kaigokensaku.mhlw.go.jp/37/index.php?action_kouhyou_detail_004_kani=true&JigyosyoCd=3770108888-00&ServiceCd=150&Type=search", "url2": "http://www.hiiragikai.com" }, "geometry": { "type": "Point", "coordinates": [ 133.959943899999985, 34.2983801 ] } },
{ "type": "Feature", "properties": { "内容": "デイサービスセンターこすもす【通所介護】香川県高松市太田下町1868番地2", "url": "https://www.kaigokensaku.mhlw.go.jp/37/index.php?action_kouhyou_detail_004_kani=true&JigyosyoCd=3770111833-00&ServiceCd=150&Type=search", "url2": "https://kaigo-cosmos.com/" }, "geometry": { "type": "Point", "coordinates": [ 134.0435285, 34.3070314 ] } },
{ "type": "Feature", "properties": { "内容": "おりいぶ荘デイサービスセンター【通所介護】香川県高松市太田下町2020番地1", "url": "https://www.kaigokensaku.mhlw.go.jp/37/index.php?action_kouhyou_detail_004_kani=true&JigyosyoCd=3770101529-00&ServiceCd=150&Type=search", "url2": "https://hatsukikai.or.jp/" }, "geometry": { "type": "Point", "coordinates": [ 134.0389735, 34.3043471 ] } },
{ "type": "Feature", "properties": { "内容": "一宮の里デイサービスセンター【通所介護】香川県高松市一宮町８７５番地", "url": "https://www.kaigokensaku.mhlw.go.jp/37/index.php?action_kouhyou_detail_004_kani=true&JigyosyoCd=3770102949-00&ServiceCd=150&Type=search", "url2": "http://www.kishokai.com/" }, "geometry": { "type": "Point", "coordinates": [ 134.0293772, 34.2915428 ] } },
{ "type": "Feature", "properties": { "内容": "デイサービス紬【通所介護】香川県高松市十川西町686-12", "url": "https://www.kaigokensaku.mhlw.go.jp/37/index.php?action_kouhyou_detail_004_kani=true&JigyosyoCd=3770106056-00&ServiceCd=150&Type=search", "url2": null }, "geometry": { "type": "Point", "coordinates": [ 134.1080885, 34.2697611 ] } },
{ "type": "Feature", "properties": { "内容": "創心会リハビリ倶楽部髙松中央【通所介護】香川県高松市六条町168-3", "url": "https://www.kaigokensaku.mhlw.go.jp/37/index.php?action_kouhyou_detail_004_kani=true&JigyosyoCd=3770107757-00&ServiceCd=150&Type=search", "url2": "http://www.soushinkai.com/" }, "geometry": { "type": "Point", "coordinates": [ 134.089245339073869, 34.299207396950322 ] } },
{ "type": "Feature", "properties": { "内容": "デイサービスセンター吉祥【通所介護】高松市高松町897番地9", "url": "https://www.kaigokensaku.mhlw.go.jp/37/index.php?action_kouhyou_detail_004_kani=true&JigyosyoCd=3770102444-00&ServiceCd=150&Type=search", "url2": "http//kisshoh.jp/" }, "geometry": { "type": "Point", "coordinates": [ 134.118467399999986, 34.3221459 ] } },
{ "type": "Feature", "properties": { "内容": "デイサービス　てと手【通所介護】高松市東山崎町971番地2", "url": "https://www.kaigokensaku.mhlw.go.jp/37/index.php?action_kouhyou_detail_004_kani=true&JigyosyoCd=3770108573-00&ServiceCd=150&Type=search", "url2": null }, "geometry": { "type": "Point", "coordinates": [ 134.092849510450748, 34.31602267343925 ] } },
{ "type": "Feature", "properties": { "内容": "ケアスタジオココロココ【通所介護】香川県高松市太田下町3032-2　メゾンブランシュ太田1階メゾンブランシュ太田1階", "url": "https://www.kaigokensaku.mhlw.go.jp/37/index.php?action_kouhyou_detail_004_kani=true&JigyosyoCd=3770108136-00&ServiceCd=150&Type=search", "url2": "https://cocolococo.co.jp/" }, "geometry": { "type": "Point", "coordinates": [ 134.053779535022358, 34.303429937086314 ] } },
{ "type": "Feature", "properties": { "内容": "デイサービスセンター　竜雲舜虹苑【通所介護】香川県高松市仏生山町甲3100番地2", "url": "https://www.kaigokensaku.mhlw.go.jp/37/index.php?action_kouhyou_detail_004_kani=true&JigyosyoCd=3770100489-00&ServiceCd=150&Type=search", "url2": "https://www.ryuungakuen.or.jp" }, "geometry": { "type": "Point", "coordinates": [ 134.04741, 34.2650823 ] } },
{ "type": "Feature", "properties": { "内容": "光華デイサービスセンター【通所介護】香川県高松市伏石町2103-21ＫＯＨＫＡビル", "url": "https://www.kaigokensaku.mhlw.go.jp/37/index.php?action_kouhyou_detail_004_kani=true&JigyosyoCd=3770101586-00&ServiceCd=150&Type=search", "url2": "http://www.s-kohka.jp" }, "geometry": { "type": "Point", "coordinates": [ 134.059831803488123, 34.309887994055558 ] } },
{ "type": "Feature", "properties": { "内容": "デイサービス　悠悠　すりーる【通所介護】香川県高松市香南町西庄692番地1", "url": "https://www.kaigokensaku.mhlw.go.jp/37/index.php?action_kouhyou_detail_004_kani=true&JigyosyoCd=3771400425-00&ServiceCd=150&Type=search", "url2": "http:/yuyu.client.jp/" }, "geometry": { "type": "Point", "coordinates": [ 133.989702800000032, 34.2446449 ] } },
{ "type": "Feature", "properties": { "内容": "デイサービス屋島西【通所介護】香川県高松市屋島西町２４７２番地１", "url": "https://www.kaigokensaku.mhlw.go.jp/37/index.php?action_kouhyou_detail_004_kani=true&JigyosyoCd=3770107179-00&ServiceCd=150&Type=search", "url2": null }, "geometry": { "type": "Point", "coordinates": [ 134.0926517, 34.351821972807763 ] } },
{ "type": "Feature", "properties": { "内容": "ヨハネの里デイサービスセンター【通所介護】高松市鶴市町241番地", "url": "https://www.kaigokensaku.mhlw.go.jp/37/index.php?action_kouhyou_detail_004_kani=true&JigyosyoCd=3770108425-00&ServiceCd=150&Type=search", "url2": "http://www.bokuyoukai.or.jp/qhm/" }, "geometry": { "type": "Point", "coordinates": [ 134.007596859285712, 34.328015397571001 ] } },
{ "type": "Feature", "properties": { "内容": "デイサービス　木太【通所介護】香川県高松市木太町３７４９番地３ケアセンター木太", "url": "https://www.kaigokensaku.mhlw.go.jp/37/index.php?action_kouhyou_detail_004_kani=true&JigyosyoCd=3770103640-00&ServiceCd=150&Type=search", "url2": null }, "geometry": { "type": "Point", "coordinates": [ 134.078816700000061, 34.3236009 ] } },
{ "type": "Feature", "properties": { "内容": "デイサービス高松【通所介護】高松市高松町2183番地20ケアセンター高松", "url": "https://www.kaigokensaku.mhlw.go.jp/37/index.php?action_kouhyou_detail_004_kani=true&JigyosyoCd=3770111577-00&ServiceCd=150&Type=search", "url2": "http://m-koujyukai.or.jp/publics/index/20/" }, "geometry": { "type": "Point", "coordinates": [ 134.120702, 34.3439754 ] } },
{ "type": "Feature", "properties": { "内容": "さくら荘デイサ－ビスセンタ－【通所介護】高松市林町76番地14", "url": "https://www.kaigokensaku.mhlw.go.jp/37/index.php?action_kouhyou_detail_004_kani=true&JigyosyoCd=3770100323-00&ServiceCd=150&Type=search", "url2": "https://hatsukikai.or.jp" }, "geometry": { "type": "Point", "coordinates": [ 134.0662774, 34.2942428 ] } },
{ "type": "Feature", "properties": { "内容": "弘恩苑デイサービスセンター【通所介護】高松市前田西町６８３番地７", "url": "https://www.kaigokensaku.mhlw.go.jp/37/index.php?action_kouhyou_detail_004_kani=true&JigyosyoCd=3770100844-00&ServiceCd=150&Type=search", "url2": "https://www.kouzenkai.jp/" }, "geometry": { "type": "Point", "coordinates": [ 134.108777199999963, 34.3069363 ] } },
{ "type": "Feature", "properties": { "内容": "デイサービスセンターさぬき【通所介護】高松市中野町26-29", "url": "https://www.kaigokensaku.mhlw.go.jp/37/index.php?action_kouhyou_detail_004_kani=true&JigyosyoCd=3770100935-00&ServiceCd=150&Type=search", "url2": "http://www.sanuki-sha.or.jp" }, "geometry": { "type": "Point", "coordinates": [ 134.044505771827573, 34.33351842886286 ] } },
{ "type": "Feature", "properties": { "内容": "デイサービスなでしこ香川【通所介護】高松市多肥上町1423-1", "url": "https://www.kaigokensaku.mhlw.go.jp/37/index.php?action_kouhyou_detail_004_kani=true&JigyosyoCd=3770103855-00&ServiceCd=150&Type=search", "url2": "http//www.saiseikai.or.jp" }, "geometry": { "type": "Point", "coordinates": [ 134.058122799999978, 34.2945788 ] } },
{ "type": "Feature", "properties": { "内容": "社会福祉法人　高松市社会福祉協議会香川【通所介護】香川県高松市香川町大野450番地香川社会福祉センター", "url": "https://www.kaigokensaku.mhlw.go.jp/37/index.php?action_kouhyou_detail_004_kani=true&JigyosyoCd=3770104010-00&ServiceCd=150&Type=search", "url2": null }, "geometry": { "type": "Point", "coordinates": [ 134.0291456, 34.2561056 ] } },
{ "type": "Feature", "properties": { "内容": "デイサービスセンター　恵【通所介護】香川県高松市多肥上町１４１１番地１", "url": "https://www.kaigokensaku.mhlw.go.jp/37/index.php?action_kouhyou_detail_004_kani=true&JigyosyoCd=3770107104-00&ServiceCd=150&Type=search", "url2": null }, "geometry": { "type": "Point", "coordinates": [ 134.058947699999976, 34.2944927 ] } },
{ "type": "Feature", "properties": { "内容": "社会福祉法人　高松市社会福祉協議会【通所介護】香川県高松市社会福祉協議会福祉コミュニティセンター・高松東館", "url": "https://www.kaigokensaku.mhlw.go.jp/37/index.php?action_kouhyou_detail_004_kani=true&JigyosyoCd=3770110041-00&ServiceCd=150&Type=search", "url2": "https://takamatsushi-shakyo.or.jp/" }, "geometry": { "type": "Point", "coordinates": [ 134.064245, 34.344377 ] } },
{ "type": "Feature", "properties": { "内容": "きたまち苑デイサービスセンター【通所介護】香川県高松市木太町5113-15", "url": "https://www.kaigokensaku.mhlw.go.jp/37/index.php?action_kouhyou_detail_004_kani=true&JigyosyoCd=3770110389-00&ServiceCd=150&Type=search", "url2": "https://hatsukikai.or.jp" }, "geometry": { "type": "Point", "coordinates": [ 134.067288400000052, 34.3085301 ] } },
{ "type": "Feature", "properties": { "内容": "はなぞの園老人デイサービスセンター【通所介護】香川県高松市上福岡町2004番地1", "url": "https://www.kaigokensaku.mhlw.go.jp/37/index.php?action_kouhyou_detail_004_kani=true&JigyosyoCd=3770100679-00&ServiceCd=150&Type=search", "url2": "http://www.hanazono.or.jp" }, "geometry": { "type": "Point", "coordinates": [ 134.060776499999946, 34.3309392 ] } },
{ "type": "Feature", "properties": { "内容": "岡本荘デイサービスセンター【通所介護】香川県高松市岡本町527番地１", "url": "https://www.kaigokensaku.mhlw.go.jp/37/index.php?action_kouhyou_detail_004_kani=true&JigyosyoCd=3770100828-00&ServiceCd=150&Type=search", "url2": "http://www.koutouen.com/okamotosou/" }, "geometry": { "type": "Point", "coordinates": [ 133.994914900000026, 34.266109 ] } },
{ "type": "Feature", "properties": { "内容": "屋島デイサービスセンター【通所介護】香川県高松市屋島西町２２７７番地１", "url": "https://www.kaigokensaku.mhlw.go.jp/37/index.php?action_kouhyou_detail_004_kani=true&JigyosyoCd=3770101404-00&ServiceCd=150&Type=search", "url2": "http://www.lucksay.com" }, "geometry": { "type": "Point", "coordinates": [ 134.088798, 34.3586332 ] } },
{ "type": "Feature", "properties": { "内容": "法寿苑デイサービスセンター【通所介護】香川県高松市木太町3308番地", "url": "https://www.kaigokensaku.mhlw.go.jp/37/index.php?action_kouhyou_detail_004_kani=true&JigyosyoCd=3770103632-00&ServiceCd=150&Type=search", "url2": "https://www.kouzenkai.jp/" }, "geometry": { "type": "Point", "coordinates": [ 134.075244699999985, 34.3278117 ] } },
{ "type": "Feature", "properties": { "内容": "ニチイケアセンター　福岡町【通所介護】香川県高松市福岡町2-14-16", "url": "https://www.kaigokensaku.mhlw.go.jp/37/index.php?action_kouhyou_detail_004_kani=true&JigyosyoCd=3770103806-00&ServiceCd=150&Type=search", "url2": "ｈｔｔｐ//www.nichiigakkan.co.jp" }, "geometry": { "type": "Point", "coordinates": [ 134.067911399999957, 34.3448295 ] } },
{ "type": "Feature", "properties": { "内容": "社会福祉法人　高松市社会福祉協議会香南【通所介護】香川県高松市香南町横井1028番地", "url": "https://www.kaigokensaku.mhlw.go.jp/37/index.php?action_kouhyou_detail_004_kani=true&JigyosyoCd=3770103988-00&ServiceCd=150&Type=search", "url2": "http://www.takamatsushi-shakyo.or.jp/" }, "geometry": { "type": "Point", "coordinates": [ 134.007728729499831, 34.238898592120968 ] } },
{ "type": "Feature", "properties": { "内容": "さんさん荘老人デイサービスセンター【通所介護】香川県高松市香川町川内原1003番地1", "url": "https://www.kaigokensaku.mhlw.go.jp/37/index.php?action_kouhyou_detail_004_kani=true&JigyosyoCd=3771400151-00&ServiceCd=150&Type=search", "url2": "https://www.sansan-kai.com/" }, "geometry": { "type": "Point", "coordinates": [ 134.0504075, 34.2317736 ] } },
{ "type": "Feature", "properties": { "内容": "社会福祉法人　高松市社会福祉協議会国分寺【通所介護】香川県高松市国分寺町新居1150番地1国分寺社会福祉センター", "url": "https://www.kaigokensaku.mhlw.go.jp/37/index.php?action_kouhyou_detail_004_kani=true&JigyosyoCd=3770109118-00&ServiceCd=150&Type=search", "url2": "http://www.takamatsushi-shakyo.or.jp/" }, "geometry": { "type": "Point", "coordinates": [ 133.965315700000019, 34.297733 ] } },
{ "type": "Feature", "properties": { "内容": "デイサービスセンターローズマリー【通所介護】香川県高松市新田町甲478番地", "url": "https://www.kaigokensaku.mhlw.go.jp/37/index.php?action_kouhyou_detail_004_kani=true&JigyosyoCd=3770111734-00&ServiceCd=150&Type=search", "url2": "http://www.herbs-kaigo.jp" }, "geometry": { "type": "Point", "coordinates": [ 134.1079134, 34.3197981 ] } },
{ "type": "Feature", "properties": { "内容": "よんでんライフケア昭和町デイサービスセンター【通所介護】香川県高松市昭和町一丁目7番23号", "url": "https://www.kaigokensaku.mhlw.go.jp/37/index.php?action_kouhyou_detail_004_kani=true&JigyosyoCd=3770112062-00&ServiceCd=150&Type=search", "url2": "https://yondenls.jp/" }, "geometry": { "type": "Point", "coordinates": [ 134.034878700000036, 34.342901 ] } },
{ "type": "Feature", "properties": { "内容": "すみれ荘デイサービスセンター【通所介護】高松市十川西町1234番地1", "url": "https://www.kaigokensaku.mhlw.go.jp/37/index.php?action_kouhyou_detail_004_kani=true&JigyosyoCd=3770100265-00&ServiceCd=150&Type=search", "url2": "https://hatsukikai.or.jp/" }, "geometry": { "type": "Point", "coordinates": [ 134.099728899999945, 34.2599762 ] } },
{ "type": "Feature", "properties": { "内容": "香色苑デイサービスセンター【通所介護】高松市高松町1350番地22", "url": "https://www.kaigokensaku.mhlw.go.jp/37/index.php?action_kouhyou_detail_004_kani=true&JigyosyoCd=3770100851-00&ServiceCd=150&Type=search", "url2": "https://www.kouzenkai.jp/" }, "geometry": { "type": "Point", "coordinates": [ 134.1200172, 34.3326058 ] } },
{ "type": "Feature", "properties": { "内容": "高松さんさん荘老人デイサービスセンター【通所介護】高松市西植田町４２１２－１", "url": "https://www.kaigokensaku.mhlw.go.jp/37/index.php?action_kouhyou_detail_004_kani=true&JigyosyoCd=3770103152-00&ServiceCd=150&Type=search", "url2": "http://www.sansan-kai.com/" }, "geometry": { "type": "Point", "coordinates": [ 134.070722, 34.2316879 ] } },
{ "type": "Feature", "properties": { "内容": "シオンの丘デイサービスセンター【通所介護】高松市香西西町358番地1", "url": "https://www.kaigokensaku.mhlw.go.jp/37/index.php?action_kouhyou_detail_004_kani=true&JigyosyoCd=3770100794-00&ServiceCd=150&Type=search", "url2": "http://www.bokuyoukai.or.jp/qhm/" }, "geometry": { "type": "Point", "coordinates": [ 133.988259, 34.3509498 ] } },
{ "type": "Feature", "properties": { "内容": "大寿苑デイサービスセンター【通所介護】高松市鬼無町鬼無882番地2", "url": "https://www.kaigokensaku.mhlw.go.jp/37/index.php?action_kouhyou_detail_004_kani=true&JigyosyoCd=3770100836-00&ServiceCd=150&Type=search", "url2": "http://www.daijyuan.com/" }, "geometry": { "type": "Point", "coordinates": [ 133.991642599999977, 34.319142 ] } },
{ "type": "Feature", "properties": { "内容": "エデンの丘デイサービスセンターえんがわ【通所介護】香川県高松市鶴市町1770-4", "url": "https://www.kaigokensaku.mhlw.go.jp/37/index.php?action_kouhyou_detail_004_kani=true&JigyosyoCd=3770101172-00&ServiceCd=150&Type=search", "url2": "http://www.bokuyoukai.or.jp/qhm/" }, "geometry": { "type": "Point", "coordinates": [ 134.016272699999945, 34.3372237 ] } },
{ "type": "Feature", "properties": { "内容": "ロイヤルケア高松デイサービスセンターテルメ【通所介護】香川県高松市松島町二丁目7番6号", "url": "https://www.kaigokensaku.mhlw.go.jp/37/index.php?action_kouhyou_detail_004_kani=true&JigyosyoCd=3770103442-00&ServiceCd=150&Type=search", "url2": "http://www.royalcare.jp" }, "geometry": { "type": "Point", "coordinates": [ 134.067304476582308, 34.339309007431218 ] } },
{ "type": "Feature", "properties": { "内容": "デイサービス　ほっと【通所介護】高松市西山崎町４４４－１", "url": "https://www.kaigokensaku.mhlw.go.jp/37/index.php?action_kouhyou_detail_004_kani=true&JigyosyoCd=3770104556-00&ServiceCd=150&Type=search", "url2": null }, "geometry": { "type": "Point", "coordinates": [ 133.9976929, 34.2811525 ] } },
{ "type": "Feature", "properties": { "内容": "デイサービスセンター　あかね【通所介護】香川県高松市西町4番1号", "url": "https://www.kaigokensaku.mhlw.go.jp/37/index.php?action_kouhyou_detail_004_kani=true&JigyosyoCd=3770104861-00&ServiceCd=150&Type=search", "url2": "http://www.sw-akane.jp" }, "geometry": { "type": "Point", "coordinates": [ 134.027888599999983, 34.3466316 ] } },
{ "type": "Feature", "properties": { "内容": "峰山デイホームサービス　灯り【通所介護】高松市松並町８８０番地１", "url": "https://www.kaigokensaku.mhlw.go.jp/37/index.php?action_kouhyou_detail_004_kani=true&JigyosyoCd=3770105157-00&ServiceCd=150&Type=search", "url2": null }, "geometry": { "type": "Point", "coordinates": [ 134.0278813, 34.3193704 ] } },
{ "type": "Feature", "properties": { "内容": "デイサービスセンター　サン・ウィング【通所介護】香川県高松市国分寺町高松市国分寺町福家甲２８２番地１", "url": "https://www.kaigokensaku.mhlw.go.jp/37/index.php?action_kouhyou_detail_004_kani=true&JigyosyoCd=3770105918-00&ServiceCd=150&Type=search", "url2": "http://www.sunwing-k.com" }, "geometry": { "type": "Point", "coordinates": [ 133.980500463127129, 34.267970638842314 ] } },
{ "type": "Feature", "properties": { "内容": "デイサービスあいか【通所介護】川部町１３０３番地", "url": "https://www.kaigokensaku.mhlw.go.jp/37/index.php?action_kouhyou_detail_004_kani=true&JigyosyoCd=3770106445-00&ServiceCd=150&Type=search", "url2": "https://www.ai-corp.site/" }, "geometry": { "type": "Point", "coordinates": [ 134.014724600000022, 34.2605629 ] } },
{ "type": "Feature", "properties": { "内容": "あじの里デイサービスセンター【通所介護】香川県高松市庵治町４１５１番地７", "url": "https://www.kaigokensaku.mhlw.go.jp/37/index.php?action_kouhyou_detail_004_kani=true&JigyosyoCd=3771300286-00&ServiceCd=150&Type=search", "url2": "https://yoyokai.or.jp/" }, "geometry": { "type": "Point", "coordinates": [ 134.143857300000036, 34.3795414 ] } },
{ "type": "Feature", "properties": { "内容": "健祥会デイサービスセンター塩江【通所介護】香川県高松市塩江町安原上東１１８番地１", "url": "https://www.kaigokensaku.mhlw.go.jp/37/index.php?action_kouhyou_detail_004_kani=true&JigyosyoCd=3771400201-00&ServiceCd=150&Type=search", "url2": "https://www.kenshokai.group/" }, "geometry": { "type": "Point", "coordinates": [ 134.079351299999985, 34.1713382 ] } },
{ "type": "Feature", "properties": { "内容": "アルファデイサービスセンター伏石【通所介護】高松市伏石町2111番2アルファリビング高松伏石サンフラワー通り", "url": "https://www.kaigokensaku.mhlw.go.jp/37/index.php?action_kouhyou_detail_004_kani=true&JigyosyoCd=3770107112-00&ServiceCd=150&Type=search", "url2": "http://www.a-living.jp/fuseishi/" }, "geometry": { "type": "Point", "coordinates": [ 134.053713900000048, 34.3107846 ] } },
{ "type": "Feature", "properties": { "内容": "学び舎こくぶんじ【通所介護】香川県高松市国分寺町新居956-8", "url": "https://www.kaigokensaku.mhlw.go.jp/37/index.php?action_kouhyou_detail_004_kani=true&JigyosyoCd=3770107617-00&ServiceCd=150&Type=search", "url2": "https://i-groups.co.jp/" }, "geometry": { "type": "Point", "coordinates": [ 133.96634610000001, 34.2975997 ] } },
{ "type": "Feature", "properties": { "内容": "両備ヘルシーケア高松デイサービス【通所介護】香川県高松市浜ノ町53番38号", "url": "https://www.kaigokensaku.mhlw.go.jp/37/index.php?action_kouhyou_detail_004_kani=true&JigyosyoCd=3770109233-00&ServiceCd=150&Type=search", "url2": "http://ryobi-hc.jp" }, "geometry": { "type": "Point", "coordinates": [ 134.037665456344598, 34.352586928893814 ] } },
{ "type": "Feature", "properties": { "内容": "高松木太ケアセンターそよ風【通所介護】香川県高松市木太町4150番4", "url": "https://www.kaigokensaku.mhlw.go.jp/37/index.php?action_kouhyou_detail_004_kani=true&JigyosyoCd=3770110694-00&ServiceCd=150&Type=search", "url2": "https://www.sykz.co.jp/shisetsu-zaitaku/374121" }, "geometry": { "type": "Point", "coordinates": [ 134.0799058, 34.3153656 ] } },
{ "type": "Feature", "properties": { "内容": "デイサービスあおい【通所介護】香川県高松市飯田町1005番地", "url": "https://www.kaigokensaku.mhlw.go.jp/37/index.php?action_kouhyou_detail_004_kani=true&JigyosyoCd=3770107732-00&ServiceCd=150&Type=search", "url2": null }, "geometry": { "type": "Point", "coordinates": [ 134.006315382339494, 34.317431397180137 ] } },
{ "type": "Feature", "properties": { "内容": "デイサービスセンターだんし【通所介護】高松市檀紙町66番地1", "url": "https://www.kaigokensaku.mhlw.go.jp/37/index.php?action_kouhyou_detail_004_kani=true&JigyosyoCd=3770106494-00&ServiceCd=150&Type=search", "url2": "kaigodanshi.com/" }, "geometry": { "type": "Point", "coordinates": [ 133.996554599999968, 34.2971999 ] } },
{ "type": "Feature", "properties": { "内容": "あん樹苑デイサービスセンター【通所介護】香川県高松市香川町浅野1414番地", "url": "https://www.kaigokensaku.mhlw.go.jp/37/index.php?action_kouhyou_detail_004_kani=true&JigyosyoCd=3770110538-00&ServiceCd=150&Type=search", "url2": "https://hatsukikai.or.jp" }, "geometry": { "type": "Point", "coordinates": [ 134.03735729999994, 34.2529677 ] } },
{ "type": "Feature", "properties": { "内容": "ＮＰデイサービスせと【通所介護】高松市木太町3222番地", "url": "https://www.kaigokensaku.mhlw.go.jp/37/index.php?action_kouhyou_detail_004_kani=true&JigyosyoCd=3770112070-00&ServiceCd=150&Type=search", "url2": null }, "geometry": { "type": "Point", "coordinates": [ 134.076720200000011, 34.3333384 ] } },
{ "type": "Feature", "properties": { "内容": "デイサービスたんぽぽのわたげ【通所介護】香川県高松市東山崎町960番地1", "url": "https://www.kaigokensaku.mhlw.go.jp/37/index.php?action_kouhyou_detail_004_kani=true&JigyosyoCd=3770111262-00&ServiceCd=150&Type=search", "url2": "https://tanpopo-w.com/" }, "geometry": { "type": "Point", "coordinates": [ 134.0936543, 34.3038171 ] } },
{ "type": "Feature", "properties": { "内容": "高松ケアセンターそよ風【通所介護】香川県高松市屋島西町2289-1", "url": "https://www.kaigokensaku.mhlw.go.jp/37/index.php?action_kouhyou_detail_004_kani=true&JigyosyoCd=3770104812-00&ServiceCd=150&Type=search", "url2": "http://www.medcajapan.co.jp" }, "geometry": { "type": "Point", "coordinates": [ 134.0890528, 34.3565444 ] } },
{ "type": "Feature", "properties": { "内容": "デイサービス木かげ【通所介護】香川県高松市屋島西町１９２９－２", "url": "https://www.kaigokensaku.mhlw.go.jp/37/index.php?action_kouhyou_detail_004_kani=true&JigyosyoCd=3770106916-00&ServiceCd=150&Type=search", "url2": "centrapis.web.fc2.com" }, "geometry": { "type": "Point", "coordinates": [ 134.104326220237652, 34.339359482166365 ] } },
{ "type": "Feature", "properties": { "内容": "ザグスタ松縄【通所介護】松縄町1087－3", "url": "https://www.kaigokensaku.mhlw.go.jp/37/index.php?action_kouhyou_detail_004_kani=true&JigyosyoCd=3770107807-00&ServiceCd=150&Type=search", "url2": "http://www.zagzag.co.jp/zagsut/" }, "geometry": { "type": "Point", "coordinates": [ 134.065121299999987, 34.3166543 ] } },
{ "type": "Feature", "properties": { "内容": "学び舎こうなん【通所介護】香川県高松市香南町横井952-1", "url": "https://www.kaigokensaku.mhlw.go.jp/37/index.php?action_kouhyou_detail_004_kani=true&JigyosyoCd=3770112088-00&ServiceCd=150&Type=search", "url2": "https://i-groups.co.jp/" }, "geometry": { "type": "Point", "coordinates": [ 134.0056672, 34.2408169 ] } },
{ "type": "Feature", "properties": { "内容": "ネムの木　デイサービス　円座【通所介護】円座町西村94-1", "url": "https://www.kaigokensaku.mhlw.go.jp/37/index.php?action_kouhyou_detail_004_kani=true&JigyosyoCd=3770109985-00&ServiceCd=150&Type=search", "url2": "http://www.koushi-f.or.jp/" }, "geometry": { "type": "Point", "coordinates": [ 134.003732718246482, 34.288619629706538 ] } },
{ "type": "Feature", "properties": { "内容": "デイサービスセンター　わかば【通所介護】香川県高松市牟礼町牟礼2120番地1", "url": "https://www.kaigokensaku.mhlw.go.jp/37/index.php?action_kouhyou_detail_004_kani=true&JigyosyoCd=3770108870-00&ServiceCd=150&Type=search", "url2": "http://care-net.biz/37/wakaba" }, "geometry": { "type": "Point", "coordinates": [ 134.126957964418011, 34.343163233923015 ] } },
{ "type": "Feature", "properties": { "内容": "デイサービス　星のテラス【通所介護】香川県高松市由良町１１５１－１", "url": "https://www.kaigokensaku.mhlw.go.jp/37/index.php?action_kouhyou_detail_004_kani=true&JigyosyoCd=3770109993-00&ServiceCd=150&Type=search", "url2": null }, "geometry": { "type": "Point", "coordinates": [ 134.083686400000033, 34.2828752 ] } },
{ "type": "Feature", "properties": { "内容": "デイサービスらく楽多肥【通所介護】香川県高松市多肥上町1713番地", "url": "https://www.kaigokensaku.mhlw.go.jp/37/index.php?action_kouhyou_detail_004_kani=true&JigyosyoCd=3770104499-00&ServiceCd=150&Type=search", "url2": "http://www.rakuraku-group.jp" }, "geometry": { "type": "Point", "coordinates": [ 134.059747600000037, 34.2880658 ] } },
{ "type": "Feature", "properties": { "内容": "ケアパートナー高松【通所介護】香川県高松市上天神町793-1", "url": "https://www.kaigokensaku.mhlw.go.jp/37/index.php?action_kouhyou_detail_004_kani=true&JigyosyoCd=3770105140-00&ServiceCd=150&Type=search", "url2": "http://www.care-partner.com" }, "geometry": { "type": "Point", "coordinates": [ 134.038109399999939, 34.3095216 ] } },
{ "type": "Feature", "properties": { "内容": "デイサービスらく楽国分寺【通所介護】高松市国分寺町柏原1059-2", "url": "https://www.kaigokensaku.mhlw.go.jp/37/index.php?action_kouhyou_detail_004_kani=true&JigyosyoCd=3770105397-00&ServiceCd=150&Type=search", "url2": null }, "geometry": { "type": "Point", "coordinates": [ 133.948295199999961, 34.2931226 ] } },
{ "type": "Feature", "properties": { "内容": "デイサービスらく楽花園【通所介護】香川県高松市花園町一丁目1番5号", "url": "https://www.kaigokensaku.mhlw.go.jp/37/index.php?action_kouhyou_detail_004_kani=true&JigyosyoCd=3770108227-00&ServiceCd=150&Type=search", "url2": "http://www.rakuraku-group.jp/" }, "geometry": { "type": "Point", "coordinates": [ 134.055146199999967, 34.3356498 ] } },
{ "type": "Feature", "properties": { "内容": "クレール藤デイサービスセンター【通所介護】香川県高松市上林町688番地", "url": "https://www.kaigokensaku.mhlw.go.jp/37/index.php?action_kouhyou_detail_004_kani=true&JigyosyoCd=3770112187-00&ServiceCd=150&Type=search", "url2": "https://www.keishoukai.jp/institution/fuji/" }, "geometry": { "type": "Point", "coordinates": [ 134.0610979, 34.2914389 ] } },
{ "type": "Feature", "properties": { "内容": "デイサービスセンター上福岡町【通所介護】香川県高松市上福岡町2047-6", "url": "https://www.kaigokensaku.mhlw.go.jp/37/index.php?action_kouhyou_detail_004_kani=true&JigyosyoCd=3770112104-00&ServiceCd=150&Type=search", "url2": "https://kaigostation.co.jp" }, "geometry": { "type": "Point", "coordinates": [ 134.0595534, 34.3274763 ] } },
{ "type": "Feature", "properties": { "内容": "デイサービス結【通所介護】香川県高松市木太町２７６８番地３", "url": "https://www.kaigokensaku.mhlw.go.jp/37/index.php?action_kouhyou_detail_004_kani=true&JigyosyoCd=3770103590-00&ServiceCd=150&Type=search", "url2": "https://care-net.biz/37/care-yui/" }, "geometry": { "type": "Point", "coordinates": [ 134.082177, 34.3369164 ] } },
{ "type": "Feature", "properties": { "内容": "桜町デイサービスセンター【通所介護】香川県高松市桜町1丁目10番7号", "url": "https://www.kaigokensaku.mhlw.go.jp/37/index.php?action_kouhyou_detail_004_kani=true&JigyosyoCd=3770107724-00&ServiceCd=150&Type=search", "url2": "http://kaigostation.co.jp" }, "geometry": { "type": "Point", "coordinates": [ 134.052832699999954, 34.3306252 ] } },
{ "type": "Feature", "properties": { "内容": "デイサービス　あざみ【通所介護】香川県高松市屋島西町2302番地12", "url": "https://www.kaigokensaku.mhlw.go.jp/37/index.php?action_kouhyou_detail_004_kani=true&JigyosyoCd=3770106460-00&ServiceCd=150&Type=search", "url2": null }, "geometry": { "type": "Point", "coordinates": [ 134.091052390728947, 34.354978536030501 ] } },
{ "type": "Feature", "properties": { "内容": "太田下町デイサービスセンター【通所介護】香川県高松市太田下町2645-1ケアステーション太田下町", "url": "https://www.kaigokensaku.mhlw.go.jp/37/index.php?action_kouhyou_detail_004_kani=true&JigyosyoCd=3770107872-00&ServiceCd=150&Type=search", "url2": "http://kaigostation.co.jp" }, "geometry": { "type": "Point", "coordinates": [ 134.049989655078093, 34.308550303038409 ] } },
{ "type": "Feature", "properties": { "内容": "デイサービスセンター栗林公園【通所介護】香川県高松市藤塚町1-11-27かがやきの季節", "url": "https://www.kaigokensaku.mhlw.go.jp/37/index.php?action_kouhyou_detail_004_kani=true&JigyosyoCd=3770109001-00&ServiceCd=150&Type=search", "url2": "http://kaigostation.co.jp/" }, "geometry": { "type": "Point", "coordinates": [ 134.04676893558198, 34.333296030408832 ] } },
{ "type": "Feature", "properties": { "内容": "ツクイ高松林町【通所介護】香川県高松市林町256番地11", "url": "https://www.kaigokensaku.mhlw.go.jp/37/index.php?action_kouhyou_detail_004_kani=true&JigyosyoCd=3770110827-00&ServiceCd=150&Type=search", "url2": "https://www.tsukui.net/home-care/2308/" }, "geometry": { "type": "Point", "coordinates": [ 134.069879899999989, 34.3010831 ] } },
{ "type": "Feature", "properties": { "内容": "ツクイ高松西【通所介護】香川県高松市田村町490番地", "url": "https://www.kaigokensaku.mhlw.go.jp/37/index.php?action_kouhyou_detail_004_kani=true&JigyosyoCd=3770110835-00&ServiceCd=150&Type=search", "url2": "https://www.tsukui.net/home-care/2408/" }, "geometry": { "type": "Point", "coordinates": [ 134.028042504893506, 34.309669572333 ] } },
{ "type": "Feature", "properties": { "内容": "リハサービスかえる【通所介護】香川県高松市牟礼町原609番地7", "url": "https://www.kaigokensaku.mhlw.go.jp/37/index.php?action_kouhyou_detail_004_kani=true&JigyosyoCd=3770109696-00&ServiceCd=150&Type=search", "url2": null }, "geometry": { "type": "Point", "coordinates": [ 134.158894036983469, 34.331487779666801 ] } },
{ "type": "Feature", "properties": { "内容": "真珠の湯デイサービスセンター【通所介護】香川県高松市新田町甲２７１２－１", "url": "https://www.kaigokensaku.mhlw.go.jp/37/index.php?action_kouhyou_detail_004_kani=true&JigyosyoCd=3770102584-00&ServiceCd=150&Type=search", "url2": null }, "geometry": { "type": "Point", "coordinates": [ 134.099928099999943, 34.3282339 ] } },
{ "type": "Feature", "properties": { "内容": "障害者支援施設サン未来【通所介護】新田町甲2717番地1", "url": "https://www.kaigokensaku.mhlw.go.jp/37/index.php?action_kouhyou_detail_004_kani=true&JigyosyoCd=3770111650-00&ServiceCd=150&Type=search", "url2": "http://www.zuishou.net" }, "geometry": { "type": "Point", "coordinates": [ 134.1079134, 34.3197981 ] } },
{ "type": "Feature", "properties": { "内容": "体感型デイ春の風【通所介護】香川県高松市円座町1300-2", "url": "https://www.kaigokensaku.mhlw.go.jp/37/index.php?action_kouhyou_detail_004_kani=true&JigyosyoCd=3770110454-00&ServiceCd=150&Type=search", "url2": "ｈｔｔｐ//www.happylifeai.co.jp/" }, "geometry": { "type": "Point", "coordinates": [ 134.0145215, 34.2843274 ] } },
{ "type": "Feature", "properties": { "内容": "デイサービスよしの【通所介護】香川町大野463-3さくらガーデン喜楽1階", "url": "https://www.kaigokensaku.mhlw.go.jp/37/index.php?action_kouhyou_detail_004_kani=true&JigyosyoCd=3770111361-00&ServiceCd=150&Type=search", "url2": "https://www.akiyama-clinic.com" }, "geometry": { "type": "Point", "coordinates": [ 134.027607, 34.256767 ] } },
{ "type": "Feature", "properties": { "内容": "ココロンデイサービス【通所介護】高松市出作町422-1", "url": "https://www.kaigokensaku.mhlw.go.jp/37/index.php?action_kouhyou_detail_004_kani=true&JigyosyoCd=3770112286-00&ServiceCd=150&Type=search", "url2": "https://www.jikeikai-ise.or.jp/" }, "geometry": { "type": "Point", "coordinates": [ 134.0479186, 34.2868247 ] } },
{ "type": "Feature", "properties": { "内容": "愛コンシェルココロン【通所介護】香川県高松市小村町２５８番地1", "url": "https://www.kaigokensaku.mhlw.go.jp/37/index.php?action_kouhyou_detail_004_kani=true&JigyosyoCd=3770112294-00&ServiceCd=150&Type=search", "url2": "http://www.jikeikai-ise.or.jp" }, "geometry": { "type": "Point", "coordinates": [ 134.098387, 34.2844054 ] } },
{ "type": "Feature", "properties": { "内容": "デイサービスセンターヌーベル木太【通所介護】香川県高松市木太町２９２４番地７", "url": "https://www.kaigokensaku.mhlw.go.jp/37/index.php?action_kouhyou_detail_004_kani=true&JigyosyoCd=3770105439-00&ServiceCd=150&Type=search", "url2": "http://www.yu-sho.or.jp" }, "geometry": { "type": "Point", "coordinates": [ 134.084979800000042, 34.3288782 ] } },
{ "type": "Feature", "properties": { "内容": "デイサービス　てぃーだ【通所介護】香川県高松市伏石町2008-5", "url": "https://www.kaigokensaku.mhlw.go.jp/37/index.php?action_kouhyou_detail_004_kani=true&JigyosyoCd=3770112336-00&ServiceCd=150&Type=search", "url2": null }, "geometry": { "type": "Point", "coordinates": [ 134.054372699999988, 34.3208142 ] } },
{ "type": "Feature", "properties": { "内容": "デイサービスセンター丸亀【通所介護】香川県丸亀市今津町219-2", "url": "https://www.kaigokensaku.mhlw.go.jp/37/index.php?action_kouhyou_detail_004_kani=true&JigyosyoCd=3770200198-00&ServiceCd=150&Type=search", "url2": "http://www.utazuhukushikai.or.jp" }, "geometry": { "type": "Point", "coordinates": [ 133.783793599999967, 34.2757105 ] } },
{ "type": "Feature", "properties": { "内容": "デイサービスセンターきらめき郡家【通所介護】丸亀市郡家町字大林下3648-1", "url": "https://www.kaigokensaku.mhlw.go.jp/37/index.php?action_kouhyou_detail_004_kani=true&JigyosyoCd=3770201428-00&ServiceCd=150&Type=search", "url2": "http://junshinkai.com/" }, "geometry": { "type": "Point", "coordinates": [ 133.812998900000053, 34.2650675 ] } },
{ "type": "Feature", "properties": { "内容": "特別養護老人ホーム　華デイサービス【通所介護】香川県丸亀市綾歌町栗熊西224番地2", "url": "https://www.kaigokensaku.mhlw.go.jp/37/index.php?action_kouhyou_detail_004_kani=true&JigyosyoCd=3770201063-00&ServiceCd=150&Type=search", "url2": "http://www.tokuyou-hana.org/" }, "geometry": { "type": "Point", "coordinates": [ 133.883056200000027, 34.2206311 ] } },
{ "type": "Feature", "properties": { "内容": "どきデイサービスセンター【通所介護】香川県丸亀市土器町西4丁目244番地どき介護ステーション2Ｆ", "url": "https://www.kaigokensaku.mhlw.go.jp/37/index.php?action_kouhyou_detail_004_kani=true&JigyosyoCd=3770200586-00&ServiceCd=150&Type=search", "url2": "http://kaigostation.co.jp" }, "geometry": { "type": "Point", "coordinates": [ 133.815231499999953, 34.282626500000021 ] } },
{ "type": "Feature", "properties": { "内容": "デイサービスセンターよもぎ【通所介護】香川県丸亀市飯山町下法軍寺536番地1", "url": "https://www.kaigokensaku.mhlw.go.jp/37/index.php?action_kouhyou_detail_004_kani=true&JigyosyoCd=3770202053-00&ServiceCd=150&Type=search", "url2": "https://yomogiweb.jimdofree.com/" }, "geometry": { "type": "Point", "coordinates": [ 133.8541863, 34.250803 ] } },
{ "type": "Feature", "properties": { "内容": "紅山ケアセンター【通所介護】香川県丸亀市飯山町上法軍寺2600番地", "url": "https://www.kaigokensaku.mhlw.go.jp/37/index.php?action_kouhyou_detail_004_kani=true&JigyosyoCd=3771500141-00&ServiceCd=150&Type=search", "url2": "http://www.beniyama.jp/" }, "geometry": { "type": "Point", "coordinates": [ 133.866651199999978, 34.2386595 ] } },
{ "type": "Feature", "properties": { "内容": "珠光園デイサービスセンター【通所介護】香川県丸亀市飯野町東二甲911番地1", "url": "https://www.kaigokensaku.mhlw.go.jp/37/index.php?action_kouhyou_detail_004_kani=true&JigyosyoCd=3770200123-00&ServiceCd=150&Type=search", "url2": "https://jukoen.jp" }, "geometry": { "type": "Point", "coordinates": [ 133.834464828419556, 34.269892370209782 ] } },
{ "type": "Feature", "properties": { "内容": "セントケア丸亀デイサービス【通所介護】香川県丸亀市今津町342番地1", "url": "https://www.kaigokensaku.mhlw.go.jp/37/index.php?action_kouhyou_detail_004_kani=true&JigyosyoCd=3770202061-00&ServiceCd=150&Type=search", "url2": "https://www.care-net.biz/37/saintcare-shikoku/" }, "geometry": { "type": "Point", "coordinates": [ 133.8065949, 34.2846596 ] } },
{ "type": "Feature", "properties": { "内容": "綾歌老人デイサービスセンター【通所介護】香川県丸亀市綾歌町岡田下５０３番地１", "url": "https://www.kaigokensaku.mhlw.go.jp/37/index.php?action_kouhyou_detail_004_kani=true&JigyosyoCd=3771500679-00&ServiceCd=150&Type=search", "url2": "www.carehouse-ayauta.jp/" }, "geometry": { "type": "Point", "coordinates": [ 133.860860499999944, 34.2237474 ] } },
{ "type": "Feature", "properties": { "内容": "ニチイケアセンター飯山【通所介護】丸亀市飯山町上法軍寺922-1", "url": "https://www.kaigokensaku.mhlw.go.jp/37/index.php?action_kouhyou_detail_004_kani=true&JigyosyoCd=3770201410-00&ServiceCd=150&Type=search", "url2": "なし" }, "geometry": { "type": "Point", "coordinates": [ 133.859315400000014, 34.2479973 ] } },
{ "type": "Feature", "properties": { "内容": "たるみ荘デイサービスセンター【通所介護】香川県丸亀市垂水町１３５３番地", "url": "https://www.kaigokensaku.mhlw.go.jp/37/index.php?action_kouhyou_detail_004_kani=true&JigyosyoCd=3770200073-00&ServiceCd=150&Type=search", "url2": "http://www.tarumisou.com/" }, "geometry": { "type": "Point", "coordinates": [ 133.829373300000043, 34.2339017 ] } },
{ "type": "Feature", "properties": { "内容": "デイサービスセンター　ネムの木【通所介護】香川県丸亀市川西町南258-1", "url": "https://www.kaigokensaku.mhlw.go.jp/37/index.php?action_kouhyou_detail_004_kani=true&JigyosyoCd=3770201543-00&ServiceCd=150&Type=search", "url2": "http://www.koushi-f.or.jp" }, "geometry": { "type": "Point", "coordinates": [ 133.833397399999967, 34.2552686 ] } },
{ "type": "Feature", "properties": { "内容": "ニチイケアセンター　丸亀【通所介護】香川県丸亀市中津町７５－１", "url": "https://www.kaigokensaku.mhlw.go.jp/37/index.php?action_kouhyou_detail_004_kani=true&JigyosyoCd=3770200230-00&ServiceCd=150&Type=search", "url2": null }, "geometry": { "type": "Point", "coordinates": [ 133.767644799999971, 34.2838482 ] } },
{ "type": "Feature", "properties": { "内容": "青の山荘デイサービスセンター【通所介護】香川県丸亀市土器町東四丁目７７番地", "url": "https://www.kaigokensaku.mhlw.go.jp/37/index.php?action_kouhyou_detail_004_kani=true&JigyosyoCd=3770200172-00&ServiceCd=150&Type=search", "url2": "https://houjyuen.web.fc2.com/index.html" }, "geometry": { "type": "Point", "coordinates": [ 133.820386099999951, 34.2925419 ] } },
{ "type": "Feature", "properties": { "内容": "インクルージョンホーム丸亀通所介護事業所【通所介護】丸亀市中津町1467-1", "url": "https://www.kaigokensaku.mhlw.go.jp/37/index.php?action_kouhyou_detail_004_kani=true&JigyosyoCd=3770201253-00&ServiceCd=150&Type=search", "url2": "https://www.humanlife-p.com" }, "geometry": { "type": "Point", "coordinates": [ 133.7741153, 34.2809239 ] } },
{ "type": "Feature", "properties": { "内容": "水の恵マリアデイセンター【通所介護】香川県丸亀市垂水町19-2", "url": "https://www.kaigokensaku.mhlw.go.jp/37/index.php?action_kouhyou_detail_004_kani=true&JigyosyoCd=3770201865-00&ServiceCd=150&Type=search", "url2": null }, "geometry": { "type": "Point", "coordinates": [ 133.8355434, 34.2239377 ] } },
{ "type": "Feature", "properties": { "内容": "デイサービス　らく楽丸亀市役所前【通所介護】香川県丸亀市通町91番地2", "url": "https://www.kaigokensaku.mhlw.go.jp/37/index.php?action_kouhyou_detail_004_kani=true&JigyosyoCd=3770201212-00&ServiceCd=150&Type=search", "url2": "http://www.rakuraku-group.jp" }, "geometry": { "type": "Point", "coordinates": [ 133.7979583, 34.2905616 ] } },
{ "type": "Feature", "properties": { "内容": "デイサービスどき二号館【通所介護】丸亀市土器町西4丁目251番地", "url": "https://www.kaigokensaku.mhlw.go.jp/37/index.php?action_kouhyou_detail_004_kani=true&JigyosyoCd=3770201188-00&ServiceCd=150&Type=search", "url2": "http://kaigostation.co.jp" }, "geometry": { "type": "Point", "coordinates": [ 133.814975900000036, 34.2830514 ] } },
{ "type": "Feature", "properties": { "内容": "ツクイ丸亀【通所介護】香川県丸亀市土器町東7-432-1", "url": "https://www.kaigokensaku.mhlw.go.jp/37/index.php?action_kouhyou_detail_004_kani=true&JigyosyoCd=3770201881-00&ServiceCd=150&Type=search", "url2": "https://www.tsukui.net" }, "geometry": { "type": "Point", "coordinates": [ 133.8103307, 34.2966256 ] } },
{ "type": "Feature", "properties": { "内容": "デイサービス　といろ【通所介護】香川県丸亀市飯山町東坂元2788番地1", "url": "https://www.kaigokensaku.mhlw.go.jp/37/index.php?action_kouhyou_detail_004_kani=true&JigyosyoCd=3770202020-00&ServiceCd=150&Type=search", "url2": "https://sites.google.com/view/toiro-dayservice/" }, "geometry": { "type": "Point", "coordinates": [ 133.871443869800032, 34.269834876381545 ] } },
{ "type": "Feature", "properties": { "内容": "デイサービスセンターだん垂水【通所介護】香川県丸亀市垂水町2897-1", "url": "https://www.kaigokensaku.mhlw.go.jp/37/index.php?action_kouhyou_detail_004_kani=true&JigyosyoCd=3770201816-00&ServiceCd=150&Type=search", "url2": "https://www.hide-dan.com/" }, "geometry": { "type": "Point", "coordinates": [ 133.831222957772098, 34.241611860118688 ] } },
{ "type": "Feature", "properties": { "内容": "ほねつぎデイサービス坂出【通所介護】香川県坂出市久米町1丁目15-2ヴェール・クレール久米町", "url": "https://www.kaigokensaku.mhlw.go.jp/37/index.php?action_kouhyou_detail_004_kani=true&JigyosyoCd=3770301251-00&ServiceCd=150&Type=search", "url2": "https://www.honetsugi-kaigo.com/service/" }, "geometry": { "type": "Point", "coordinates": [ 133.859329130688508, 34.319351254521166 ] } },
{ "type": "Feature", "properties": { "内容": "城山デイサービスセンター【通所介護】香川県坂出市川津町１９８６番地２２ケアハウス　ハイツ城山", "url": "https://www.kaigokensaku.mhlw.go.jp/37/index.php?action_kouhyou_detail_004_kani=true&JigyosyoCd=3770300121-00&ServiceCd=150&Type=search", "url2": "http://www.kbn.ne.jp/home/kym0007" }, "geometry": { "type": "Point", "coordinates": [ 133.870307799999978, 34.2930363 ] } },
{ "type": "Feature", "properties": { "内容": "デイサービスセンター　コスモス【通所介護】香川県坂出市寿町一丁目3番1号さくらの花会館　1階南", "url": "https://www.kaigokensaku.mhlw.go.jp/37/index.php?action_kouhyou_detail_004_kani=true&JigyosyoCd=3770300402-00&ServiceCd=150&Type=search", "url2": "https://nagai-group.com/" }, "geometry": { "type": "Point", "coordinates": [ 133.850288140722711, 34.313819322894986 ] } },
{ "type": "Feature", "properties": { "内容": "愛生苑通所介護事業所【通所介護】香川県坂出市西庄町79番地1", "url": "https://www.kaigokensaku.mhlw.go.jp/37/index.php?action_kouhyou_detail_004_kani=true&JigyosyoCd=3770300139-00&ServiceCd=150&Type=search", "url2": "http://ryokusei.byoinnavi.jp" }, "geometry": { "type": "Point", "coordinates": [ 133.880992099999958, 34.3200524 ] } },
{ "type": "Feature", "properties": { "内容": "フィットネスデイサービス　ファンデイズ【通所介護】香川県坂出市西大浜北一丁目１番５号", "url": "https://www.kaigokensaku.mhlw.go.jp/37/index.php?action_kouhyou_detail_004_kani=true&JigyosyoCd=3770301194-00&ServiceCd=150&Type=search", "url2": "fundays358@ark.ocn.ne.jp" }, "geometry": { "type": "Point", "coordinates": [ 133.84699420000004, 34.3218962 ] } },
{ "type": "Feature", "properties": { "内容": "デイセンター緑生【通所介護】香川県坂出市江尻町836番地5", "url": "https://www.kaigokensaku.mhlw.go.jp/37/index.php?action_kouhyou_detail_004_kani=true&JigyosyoCd=3770301061-00&ServiceCd=150&Type=search", "url2": "http://ryokusei.byoinnavi.jp/prepc/index.html" }, "geometry": { "type": "Point", "coordinates": [ 133.881240651589906, 34.319375916920023 ] } },
{ "type": "Feature", "properties": { "内容": "松ケ浦荘デイサービスセンター【通所介護】香川県坂出市大屋冨町３１００番地１３", "url": "https://www.kaigokensaku.mhlw.go.jp/37/index.php?action_kouhyou_detail_004_kani=true&JigyosyoCd=3770300154-00&ServiceCd=150&Type=search", "url2": "https://shouju.or.jp/" }, "geometry": { "type": "Point", "coordinates": [ 133.894061500000021, 34.3556199 ] } },
{ "type": "Feature", "properties": { "内容": "NPデイサービスつくし【通所介護】香川県坂出市駒止町１－３－５ライフスクエア坂出1F", "url": "https://www.kaigokensaku.mhlw.go.jp/37/index.php?action_kouhyou_detail_004_kani=true&JigyosyoCd=3770300683-00&ServiceCd=150&Type=search", "url2": null }, "geometry": { "type": "Point", "coordinates": [ 133.856416299999978, 34.3113478 ] } },
{ "type": "Feature", "properties": { "内容": "機能訓練型デイサービス　ことりの【通所介護】香川県坂出市元町1丁目9番7号", "url": "https://www.kaigokensaku.mhlw.go.jp/37/index.php?action_kouhyou_detail_004_kani=true&JigyosyoCd=3770301285-00&ServiceCd=150&Type=search", "url2": "http://kotorino.life" }, "geometry": { "type": "Point", "coordinates": [ 133.8550353, 34.3144474 ] } },
{ "type": "Feature", "properties": { "内容": "特別養護老人ホーム　聖マルチンの園　指定通所介護事業所【通所介護】香川県坂出市沖の浜1番５号", "url": "https://www.kaigokensaku.mhlw.go.jp/37/index.php?action_kouhyou_detail_004_kani=true&JigyosyoCd=3770300048-00&ServiceCd=150&Type=search", "url2": "https://seimartinnoie.or.jp/" }, "geometry": { "type": "Point", "coordinates": [ 133.843536069975187, 34.325329475313445 ] } },
{ "type": "Feature", "properties": { "内容": "デイサービス　府中の郷　雅【通所介護】香川県坂出市府中町147番地６", "url": "https://www.kaigokensaku.mhlw.go.jp/37/index.php?action_kouhyou_detail_004_kani=true&JigyosyoCd=3770301152-00&ServiceCd=150&Type=search", "url2": "https://akazawa-hp.com" }, "geometry": { "type": "Point", "coordinates": [ 138.252924, 36.204824 ] } },
{ "type": "Feature", "properties": { "内容": "デイサービスカーネーション【通所介護】香川県坂出市京町6番56号", "url": "https://www.kaigokensaku.mhlw.go.jp/37/index.php?action_kouhyou_detail_004_kani=true&JigyosyoCd=3770300717-00&ServiceCd=150&Type=search", "url2": "http://www.maedaseikei.net/kyou/" }, "geometry": { "type": "Point", "coordinates": [ 133.857955700000048, 34.3173631 ] } },
{ "type": "Feature", "properties": { "内容": "指定通所介護ひまわりさん【通所介護】香川県善通寺市弘田町９０６番地1", "url": "https://www.kaigokensaku.mhlw.go.jp/37/index.php?action_kouhyou_detail_004_kani=true&JigyosyoCd=3770400509-00&ServiceCd=150&Type=search", "url2": null }, "geometry": { "type": "Point", "coordinates": [ 133.7584683, 34.240089 ] } },
{ "type": "Feature", "properties": { "内容": "医療法人高樹会ふじた医院　デイサービスセンター【通所介護】香川県善通寺市上吉田町４丁目５番１号", "url": "https://www.kaigokensaku.mhlw.go.jp/37/index.php?action_kouhyou_detail_004_kani=true&JigyosyoCd=3770400350-00&ServiceCd=150&Type=search", "url2": "https://dayservice.fujitaiin.or.jp/" }, "geometry": { "type": "Point", "coordinates": [ 133.78092479999998, 34.228688 ] } },
{ "type": "Feature", "properties": { "内容": "仙遊荘デイサービスセンター【通所介護】香川県善通寺市仙遊町２丁目３番４３号", "url": "https://www.kaigokensaku.mhlw.go.jp/37/index.php?action_kouhyou_detail_004_kani=true&JigyosyoCd=3770400418-00&ServiceCd=150&Type=search", "url2": "http://zen-fukushikai.jp/" }, "geometry": { "type": "Point", "coordinates": [ 133.7702008, 34.2279322 ] } },
{ "type": "Feature", "properties": { "内容": "デイサービスセンター　かがや木【通所介護】香川県善通寺市中村町４８５－１", "url": "https://www.kaigokensaku.mhlw.go.jp/37/index.php?action_kouhyou_detail_004_kani=true&JigyosyoCd=3770400426-00&ServiceCd=150&Type=search", "url2": "http://www.junshinkai.com/facilitie/kagayaki.htm" }, "geometry": { "type": "Point", "coordinates": [ 133.765926, 34.2456608 ] } },
{ "type": "Feature", "properties": { "内容": "デイサービス　ほほえみ【通所介護】香川県善通寺市中村町２０８２－４", "url": "https://www.kaigokensaku.mhlw.go.jp/37/index.php?action_kouhyou_detail_004_kani=true&JigyosyoCd=3770400541-00&ServiceCd=150&Type=search", "url2": "http://ogata.co.jp/hohoemi/" }, "geometry": { "type": "Point", "coordinates": [ 133.761184700000058, 34.2479492 ] } },
{ "type": "Feature", "properties": { "内容": "デイサービスセンターやしまⅡ【通所介護】高松市屋島西町1347番地1", "url": "https://www.kaigokensaku.mhlw.go.jp/37/index.php?action_kouhyou_detail_004_kani=true&JigyosyoCd=3770110496-00&ServiceCd=150&Type=search", "url2": "http://kaigostation.co.jp" }, "geometry": { "type": "Point", "coordinates": [ 134.0943972, 34.3456757 ] } },
{ "type": "Feature", "properties": { "内容": "あか門デイサービスセンター【通所介護】香川県善通寺市文京町4丁目8番25号ケアステーション善通寺", "url": "https://www.kaigokensaku.mhlw.go.jp/37/index.php?action_kouhyou_detail_004_kani=true&JigyosyoCd=3770400699-00&ServiceCd=150&Type=search", "url2": "http://kaigostation.co.jp/index.html" }, "geometry": { "type": "Point", "coordinates": [ 133.779461199999986, 34.2256994 ] } },
{ "type": "Feature", "properties": { "内容": "デイサービスセンターとよはま荘【通所介護】観音寺市豊浜町和田浜1575-1", "url": "https://www.kaigokensaku.mhlw.go.jp/37/index.php?action_kouhyou_detail_004_kani=true&JigyosyoCd=3771700451-00&ServiceCd=150&Type=search", "url2": null }, "geometry": { "type": "Point", "coordinates": [ 133.6367176, 34.0711231 ] } },
{ "type": "Feature", "properties": { "内容": "デイサービスセンター笑歩会豊浜【通所介護】香川県観音寺市豊浜町姫浜101-2", "url": "https://www.kaigokensaku.mhlw.go.jp/37/index.php?action_kouhyou_detail_004_kani=true&JigyosyoCd=3770500829-00&ServiceCd=150&Type=search", "url2": "http://shouhokai.jp/" }, "geometry": { "type": "Point", "coordinates": [ 133.639229451393106, 34.084547925636514 ] } },
{ "type": "Feature", "properties": { "内容": "デイサービス　おおとよ【通所介護】香川県観音寺市大野原町大野原7010番地", "url": "https://www.kaigokensaku.mhlw.go.jp/37/index.php?action_kouhyou_detail_004_kani=true&JigyosyoCd=3770500712-00&ServiceCd=150&Type=search", "url2": "http://www.ootoyo.jp/" }, "geometry": { "type": "Point", "coordinates": [ 133.665288425933824, 34.073516786968185 ] } },
{ "type": "Feature", "properties": { "内容": "デイサービスセンター大興和【通所介護】香川県観音寺市植田町1930番地", "url": "https://www.kaigokensaku.mhlw.go.jp/37/index.php?action_kouhyou_detail_004_kani=true&JigyosyoCd=3770500514-00&ServiceCd=150&Type=search", "url2": "http:/www.cl-ikeda/com/07stuff/index.html" }, "geometry": { "type": "Point", "coordinates": [ 133.668419399999948, 34.1256471 ] } },
{ "type": "Feature", "properties": { "内容": "デイサービスセンター結・大興和【通所介護】香川県観音寺市植田町1010番地", "url": "https://www.kaigokensaku.mhlw.go.jp/37/index.php?action_kouhyou_detail_004_kani=true&JigyosyoCd=3770500795-00&ServiceCd=150&Type=search", "url2": "http:/www.cl-ikeda/com/07stuff/index.html" }, "geometry": { "type": "Point", "coordinates": [ 133.67969370000003, 34.118909 ] } },
{ "type": "Feature", "properties": { "内容": "冨士クリニックデイサービスセンター【通所介護】香川県観音寺市観音寺町甲2899-3", "url": "https://www.kaigokensaku.mhlw.go.jp/37/index.php?action_kouhyou_detail_004_kani=true&JigyosyoCd=3770500407-00&ServiceCd=150&Type=search", "url2": null }, "geometry": { "type": "Point", "coordinates": [ 133.6498014, 34.1276968 ] } },
{ "type": "Feature", "properties": { "内容": "ほねつぎデイサービス観音寺【通所介護】香川県観音寺市栄町三丁目3番10101号", "url": "https://www.kaigokensaku.mhlw.go.jp/37/index.php?action_kouhyou_detail_004_kani=true&JigyosyoCd=3770500910-00&ServiceCd=150&Type=search", "url2": "ー" }, "geometry": { "type": "Point", "coordinates": [ 133.6542111, 34.1245781 ] } },
{ "type": "Feature", "properties": { "内容": "はがみ苑　デイサービスセンター【通所介護】香川県観音寺市原町1273番地３", "url": "https://www.kaigokensaku.mhlw.go.jp/37/index.php?action_kouhyou_detail_004_kani=true&JigyosyoCd=3770500076-00&ServiceCd=150&Type=search", "url2": "http://care-net.biz/37/hagami" }, "geometry": { "type": "Point", "coordinates": [ 133.692743, 34.1063827 ] } },
{ "type": "Feature", "properties": { "内容": "デイサービスセンターはあとおん・かがやき【通所介護】香川県観音寺市植田町１４６３番地", "url": "https://www.kaigokensaku.mhlw.go.jp/37/index.php?action_kouhyou_detail_004_kani=true&JigyosyoCd=3770500886-00&ServiceCd=150&Type=search", "url2": "http://mig-hearton.com/" }, "geometry": { "type": "Point", "coordinates": [ 133.671402016424508, 34.124148903501215 ] } },
{ "type": "Feature", "properties": { "内容": "楽陽荘デイサービスセンター【通所介護】香川県観音寺市柞田町甲１９３６番地", "url": "https://www.kaigokensaku.mhlw.go.jp/37/index.php?action_kouhyou_detail_004_kani=true&JigyosyoCd=3770500217-00&ServiceCd=150&Type=search", "url2": "http://www.rakuyousou.com" }, "geometry": { "type": "Point", "coordinates": [ 133.675133, 34.1136735 ] } },
{ "type": "Feature", "properties": { "内容": "リハビリステーション晃誠【通所介護】香川県観音寺市池之尻町1017番地1", "url": "https://www.kaigokensaku.mhlw.go.jp/37/index.php?action_kouhyou_detail_004_kani=true&JigyosyoCd=3770500837-00&ServiceCd=150&Type=search", "url2": "http://activevision.co.jp/" }, "geometry": { "type": "Point", "coordinates": [ 133.691368, 34.1113571 ] } },
{ "type": "Feature", "properties": { "内容": "ネムの木デイサービス豊浜【通所介護】豊浜町姫浜41番地１", "url": "https://www.kaigokensaku.mhlw.go.jp/37/index.php?action_kouhyou_detail_004_kani=true&JigyosyoCd=3770500639-00&ServiceCd=150&Type=search", "url2": "www.koushi-f.or.jp" }, "geometry": { "type": "Point", "coordinates": [ 133.6381586, 34.0880405 ] } },
{ "type": "Feature", "properties": { "内容": "デイサービスあいりす【通所介護】香川県さぬき市造田是弘619-7", "url": "https://www.kaigokensaku.mhlw.go.jp/37/index.php?action_kouhyou_detail_004_kani=true&JigyosyoCd=3770600744-00&ServiceCd=150&Type=search", "url2": "https://kourakuen-iris.co.jp" }, "geometry": { "type": "Point", "coordinates": [ 134.179905, 34.280951100000024 ] } },
{ "type": "Feature", "properties": { "内容": "デイサービス杏（あん）【通所介護】香川県さぬき市寒川町石田西2280-5", "url": "https://www.kaigokensaku.mhlw.go.jp/37/index.php?action_kouhyou_detail_004_kani=true&JigyosyoCd=3770601221-00&ServiceCd=150&Type=search", "url2": "http://sun-care.sub.jp/index.html" }, "geometry": { "type": "Point", "coordinates": [ 134.192693, 34.2589244 ] } },
{ "type": "Feature", "properties": { "内容": "デイサービス志度の丘【通所介護】香川県さぬき市志度4626-8", "url": "https://www.kaigokensaku.mhlw.go.jp/37/index.php?action_kouhyou_detail_004_kani=true&JigyosyoCd=3770601205-00&ServiceCd=150&Type=search", "url2": "http://www.tomohiro-sk.jp/aozora.html" }, "geometry": { "type": "Point", "coordinates": [ 134.1878355, 34.3112212 ] } },
{ "type": "Feature", "properties": { "内容": "デイサービスライムライト【通所介護】志度2325-1", "url": "https://www.kaigokensaku.mhlw.go.jp/37/index.php?action_kouhyou_detail_004_kani=true&JigyosyoCd=3770601098-00&ServiceCd=150&Type=search", "url2": "http://www.zuishou.net/" }, "geometry": { "type": "Point", "coordinates": [ 134.174463, 34.316091 ] } },
{ "type": "Feature", "properties": { "内容": "讃鶴【通所介護】香川県さぬき市津田町鶴羽2193番地1", "url": "https://www.kaigokensaku.mhlw.go.jp/37/index.php?action_kouhyou_detail_004_kani=true&JigyosyoCd=3770600926-00&ServiceCd=150&Type=search", "url2": "http://www.okawaso.com" }, "geometry": { "type": "Point", "coordinates": [ 134.278455195861852, 34.277729194661731 ] } },
{ "type": "Feature", "properties": { "内容": "デイサービスセンター憩【通所介護】香川県さぬき市長尾西204番地5", "url": "https://www.kaigokensaku.mhlw.go.jp/37/index.php?action_kouhyou_detail_004_kani=true&JigyosyoCd=3770600538-00&ServiceCd=150&Type=search", "url2": "http://sanuki-hyunet.com/service/index.html" }, "geometry": { "type": "Point", "coordinates": [ 134.175638700000036, 34.2759788 ] } },
{ "type": "Feature", "properties": { "内容": "鴨部の家【通所介護】香川県さぬき市鴨部4781-1", "url": "https://www.kaigokensaku.mhlw.go.jp/37/index.php?action_kouhyou_detail_004_kani=true&JigyosyoCd=3770600751-00&ServiceCd=150&Type=search", "url2": null }, "geometry": { "type": "Point", "coordinates": [ 134.225980700000036, 34.3133643 ] } },
{ "type": "Feature", "properties": { "内容": "機能訓練型デイサービス鴨部の家【通所介護】香川県さぬき市鴨部４７８０番地１", "url": "https://www.kaigokensaku.mhlw.go.jp/37/index.php?action_kouhyou_detail_004_kani=true&JigyosyoCd=3770601189-00&ServiceCd=150&Type=search", "url2": null }, "geometry": { "type": "Point", "coordinates": [ 134.225940472445245, 34.313558121370043 ] } },
{ "type": "Feature", "properties": { "内容": "デイサービスゆかり【通所介護】長尾東1029-3", "url": "https://www.kaigokensaku.mhlw.go.jp/37/index.php?action_kouhyou_detail_004_kani=true&JigyosyoCd=3770600868-00&ServiceCd=150&Type=search", "url2": "https://mg-sansou.com/" }, "geometry": { "type": "Point", "coordinates": [ 134.180714336801202, 34.26142634975033 ] } },
{ "type": "Feature", "properties": { "内容": "さわやか荘デイサービスセンター【通所介護】香川県さぬき市津田町津田２２０７番地", "url": "https://www.kaigokensaku.mhlw.go.jp/37/index.php?action_kouhyou_detail_004_kani=true&JigyosyoCd=3771100199-00&ServiceCd=150&Type=search", "url2": "https://sawayakakaigo.or.jp/" }, "geometry": { "type": "Point", "coordinates": [ 134.2389743, 34.2944693 ] } },
{ "type": "Feature", "properties": { "内容": "デイサービス　ぷちとまと【通所介護】香川県さぬき市造田是弘４１２番地１ケアセンターぷちとまと", "url": "https://www.kaigokensaku.mhlw.go.jp/37/index.php?action_kouhyou_detail_004_kani=true&JigyosyoCd=3770600579-00&ServiceCd=150&Type=search", "url2": "http://puchi-tomato.net" }, "geometry": { "type": "Point", "coordinates": [ 134.181951659124138, 34.278573025927045 ] } },
{ "type": "Feature", "properties": { "内容": "香東園デイサービスセンター【通所介護】香川県さぬき市寒川町石田西680番地1", "url": "https://www.kaigokensaku.mhlw.go.jp/37/index.php?action_kouhyou_detail_004_kani=true&JigyosyoCd=3771100355-00&ServiceCd=150&Type=search", "url2": "http://www.koutouen.com/" }, "geometry": { "type": "Point", "coordinates": [ 134.19525785211485, 34.275907637548926 ] } },
{ "type": "Feature", "properties": { "内容": "さぬき市社会福祉協議会福祉の里通所介護事業所【通所介護】さぬき市昭和１０５０－１", "url": "https://www.kaigokensaku.mhlw.go.jp/37/index.php?action_kouhyou_detail_004_kani=true&JigyosyoCd=3770600058-00&ServiceCd=150&Type=search", "url2": "http://sanuki-syakyo.jp" }, "geometry": { "type": "Point", "coordinates": [ 134.166915300000028, 34.2474632 ] } },
{ "type": "Feature", "properties": { "内容": "デイサービスセンター　ゆたか【通所介護】香川県さぬき市昭和560－2", "url": "https://www.kaigokensaku.mhlw.go.jp/37/index.php?action_kouhyou_detail_004_kani=true&JigyosyoCd=3770600298-00&ServiceCd=150&Type=search", "url2": "http://care-net.biz/37/nagaofukushikai/" }, "geometry": { "type": "Point", "coordinates": [ 134.167626400000017, 34.2462551 ] } },
{ "type": "Feature", "properties": { "内容": "ハーティヴィラ亀鶴デイサービスセンター【通所介護】香川県さぬき市長尾西1602-1ハーティヴィラ亀鶴", "url": "https://www.kaigokensaku.mhlw.go.jp/37/index.php?action_kouhyou_detail_004_kani=true&JigyosyoCd=3770600827-00&ServiceCd=150&Type=search", "url2": "http://care-net.biz/37/nagaofukushikai/" }, "geometry": { "type": "Point", "coordinates": [ 134.173778399999946, 34.2546429 ] } },
{ "type": "Feature", "properties": { "内容": "デイサービスセンター志度玉浦園【通所介護】香川県さぬき市志度1610番地1", "url": "https://www.kaigokensaku.mhlw.go.jp/37/index.php?action_kouhyou_detail_004_kani=true&JigyosyoCd=3770601197-00&ServiceCd=150&Type=search", "url2": "http://www.tamauraen.or.jp/" }, "geometry": { "type": "Point", "coordinates": [ 134.1943422, 34.3192994 ] } },
{ "type": "Feature", "properties": { "内容": "サンパール白鳥デイサービスセンター【通所介護】香川県東かがわ市白鳥４３６－１", "url": "https://www.kaigokensaku.mhlw.go.jp/37/index.php?action_kouhyou_detail_004_kani=true&JigyosyoCd=3771100470-00&ServiceCd=150&Type=search", "url2": "http://www.zuishou.net/" }, "geometry": { "type": "Point", "coordinates": [ 134.3520572, 34.2398117 ] } },
{ "type": "Feature", "properties": { "内容": "デイサービス　ふれあいの里【通所介護】三本松１２０４番地", "url": "https://www.kaigokensaku.mhlw.go.jp/37/index.php?action_kouhyou_detail_004_kani=true&JigyosyoCd=3770700387-00&ServiceCd=150&Type=search", "url2": "https://idm-hcg.co.jp" }, "geometry": { "type": "Point", "coordinates": [ 134.3331283, 34.2490934 ] } },
{ "type": "Feature", "properties": { "内容": "デイサービスセンターたんぽぽの家【通所介護】香川県東かがわ市湊263-1", "url": "https://www.kaigokensaku.mhlw.go.jp/37/index.php?action_kouhyou_detail_004_kani=true&JigyosyoCd=3770700262-00&ServiceCd=150&Type=search", "url2": "https://www.tanpoponoie.jp" }, "geometry": { "type": "Point", "coordinates": [ 134.350721, 34.2500605 ] } },
{ "type": "Feature", "properties": { "内容": "絹島荘デイサービスセンター【通所介護】香川県東かがわ市馬篠1227番地20", "url": "https://www.kaigokensaku.mhlw.go.jp/37/index.php?action_kouhyou_detail_004_kani=true&JigyosyoCd=3771100363-00&ServiceCd=150&Type=search", "url2": "http://www.koutouen.com/" }, "geometry": { "type": "Point", "coordinates": [ 134.299378700000034, 34.2739173 ] } },
{ "type": "Feature", "properties": { "内容": "湊荘デイサービスセンター【通所介護】東かがわ市湊1183-5", "url": "https://www.kaigokensaku.mhlw.go.jp/37/index.php?action_kouhyou_detail_004_kani=true&JigyosyoCd=3770700510-00&ServiceCd=150&Type=search", "url2": "http://www.zuishou.net/" }, "geometry": { "type": "Point", "coordinates": [ 134.34311963338186, 34.241643503954961 ] } },
{ "type": "Feature", "properties": { "内容": "デイサービス　愛華の里【通所介護】香川県東かがわ市落合100-1", "url": "https://www.kaigokensaku.mhlw.go.jp/37/index.php?action_kouhyou_detail_004_kani=true&JigyosyoCd=3770700551-00&ServiceCd=150&Type=search", "url2": "www.aikano-sato.com" }, "geometry": { "type": "Point", "coordinates": [ 134.309901488330098, 34.252417193232539 ] } },
{ "type": "Feature", "properties": { "内容": "引田荘デイサービスセンター【通所介護】香川県東かがわ市引田922番地18", "url": "https://www.kaigokensaku.mhlw.go.jp/37/index.php?action_kouhyou_detail_004_kani=true&JigyosyoCd=3771100504-00&ServiceCd=150&Type=search", "url2": "http://www.shikoku.ne.jp/zuishou/" }, "geometry": { "type": "Point", "coordinates": [ 134.397764700000039, 34.2143374 ] } },
{ "type": "Feature", "properties": { "内容": "デイサービス　はまち【通所介護】東かがわ市引田４２６８-１", "url": "https://www.kaigokensaku.mhlw.go.jp/37/index.php?action_kouhyou_detail_004_kani=true&JigyosyoCd=3770700452-00&ServiceCd=150&Type=search", "url2": "http://www.adoike.net" }, "geometry": { "type": "Point", "coordinates": [ 134.406157900000039, 34.223867 ] } },
{ "type": "Feature", "properties": { "内容": "デイサービスみなみ【通所介護】香川県東かがわ市横内304-8", "url": "https://www.kaigokensaku.mhlw.go.jp/37/index.php?action_kouhyou_detail_004_kani=true&JigyosyoCd=3770700155-00&ServiceCd=150&Type=search", "url2": null }, "geometry": { "type": "Point", "coordinates": [ 134.326212299999952, 34.2586448 ] } },
{ "type": "Feature", "properties": { "内容": "クレール高瀬　デイサービスセンター【通所介護】香川県三豊市高瀬町新名2035番地", "url": "https://www.kaigokensaku.mhlw.go.jp/37/index.php?action_kouhyou_detail_004_kani=true&JigyosyoCd=3770800328-00&ServiceCd=150&Type=search", "url2": "http://keishoukai-group.net/" }, "geometry": { "type": "Point", "coordinates": [ 133.726262099999985, 34.1991976 ] } },
{ "type": "Feature", "properties": { "内容": "デイサービス　禅進【通所介護】香川県三豊市山本町大野88－1", "url": "https://www.kaigokensaku.mhlw.go.jp/37/index.php?action_kouhyou_detail_004_kani=true&JigyosyoCd=3770800799-00&ServiceCd=150&Type=search", "url2": null }, "geometry": { "type": "Point", "coordinates": [ 133.7333078, 34.1214585 ] } },
{ "type": "Feature", "properties": { "内容": "老人デイサービスセンターにお荘【通所介護】香川県三豊市仁尾町仁尾辛42番地19", "url": "https://www.kaigokensaku.mhlw.go.jp/37/index.php?action_kouhyou_detail_004_kani=true&JigyosyoCd=3771700972-00&ServiceCd=150&Type=search", "url2": "http://care-net.biz/37/niosou/" }, "geometry": { "type": "Point", "coordinates": [ 133.644447899999989, 34.1932687 ] } },
{ "type": "Feature", "properties": { "内容": "三豊市財田町デイサービスセンター【通所介護】香川県三豊市財田町財田上２１４１番地", "url": "https://www.kaigokensaku.mhlw.go.jp/37/index.php?action_kouhyou_detail_004_kani=true&JigyosyoCd=3770800021-00&ServiceCd=150&Type=search", "url2": "https://www.mitoyoshakyo.or.jp" }, "geometry": { "type": "Point", "coordinates": [ 133.778198800000041, 34.1189541 ] } },
{ "type": "Feature", "properties": { "内容": "デイサービス　オレンジホーム【通所介護】香川県三豊市豊中町下高野1091", "url": "https://www.kaigokensaku.mhlw.go.jp/37/index.php?action_kouhyou_detail_004_kani=true&JigyosyoCd=3770800385-00&ServiceCd=150&Type=search", "url2": "http://healthy-aging.co.jp/" }, "geometry": { "type": "Point", "coordinates": [ 133.685034, 34.1533738 ] } },
{ "type": "Feature", "properties": { "内容": "デイサービスセンターしのはら【通所介護】三豊市山本町財田西276番地", "url": "https://www.kaigokensaku.mhlw.go.jp/37/index.php?action_kouhyou_detail_004_kani=true&JigyosyoCd=3770800088-00&ServiceCd=150&Type=search", "url2": "shino.@forest.ocn.ne.jp" }, "geometry": { "type": "Point", "coordinates": [ 133.723981399999957, 34.1203672 ] } },
{ "type": "Feature", "properties": { "内容": "せとうち福祉サービス　デイサービス三豊【通所介護】三豊市三野町吉津甲605-2", "url": "https://www.kaigokensaku.mhlw.go.jp/37/index.php?action_kouhyou_detail_004_kani=true&JigyosyoCd=3770800120-00&ServiceCd=150&Type=search", "url2": "http//setouchi-fukusi.com" }, "geometry": { "type": "Point", "coordinates": [ 133.697506400000066, 34.2000175 ] } },
{ "type": "Feature", "properties": { "内容": "ヴィラしのはら【通所介護】三豊市山本町財田西272", "url": "https://www.kaigokensaku.mhlw.go.jp/37/index.php?action_kouhyou_detail_004_kani=true&JigyosyoCd=3770800419-00&ServiceCd=150&Type=search", "url2": "shino.to@forest.ocn.ne.jp" }, "geometry": { "type": "Point", "coordinates": [ 133.724431399999958, 34.1203699 ] } },
{ "type": "Feature", "properties": { "内容": "デイサービスセンターみの【通所介護】香川県三豊市三野町大見乙91-12", "url": "https://www.kaigokensaku.mhlw.go.jp/37/index.php?action_kouhyou_detail_004_kani=true&JigyosyoCd=3771700535-00&ServiceCd=150&Type=search", "url2": "http://minofukushikai.sun-age.or.jp" }, "geometry": { "type": "Point", "coordinates": [ 133.7206251, 34.2266288 ] } },
{ "type": "Feature", "properties": { "内容": "指定通所介護事業所　たくま荘デイサービスセンター【通所介護】香川県三豊市詫間町詫間7732番地60", "url": "https://www.kaigokensaku.mhlw.go.jp/37/index.php?action_kouhyou_detail_004_kani=true&JigyosyoCd=3771700238-00&ServiceCd=150&Type=search", "url2": "http://takumaso.com" }, "geometry": { "type": "Point", "coordinates": [ 133.669557576784882, 34.214499773141995 ] } },
{ "type": "Feature", "properties": { "内容": "デイサービスセンター湯ったり【通所介護】高瀬町上高瀬字原４２９－５", "url": "https://www.kaigokensaku.mhlw.go.jp/37/index.php?action_kouhyou_detail_004_kani=true&JigyosyoCd=3770800427-00&ServiceCd=150&Type=search", "url2": "http://junshinkai.com/" }, "geometry": { "type": "Point", "coordinates": [ 133.72048970000003, 34.1948812 ] } },
{ "type": "Feature", "properties": { "内容": "とよなか荘老人デイサービスセンター【通所介護】香川県三豊市豊中町笠田竹田697番地1", "url": "https://www.kaigokensaku.mhlw.go.jp/37/index.php?action_kouhyou_detail_004_kani=true&JigyosyoCd=3771700592-00&ServiceCd=150&Type=search", "url2": "http://www.toyonakasou.jp/" }, "geometry": { "type": "Point", "coordinates": [ 133.695546799999988, 34.1554374 ] } },
{ "type": "Feature", "properties": { "内容": "デイサービスセンター　フクシア【通所介護】香川県三豊市仁尾町仁尾辛39-1サービス高齢者向け住宅フクシア内", "url": "https://www.kaigokensaku.mhlw.go.jp/37/index.php?action_kouhyou_detail_004_kani=true&JigyosyoCd=3770800690-00&ServiceCd=150&Type=search", "url2": "https://www.24.u.jp/0886998377/" }, "geometry": { "type": "Point", "coordinates": [ 133.646803800000043, 34.194652 ] } },
{ "type": "Feature", "properties": { "内容": "デイサービス　こはく【通所介護】香川県三豊市高瀬町比地514-2", "url": "https://www.kaigokensaku.mhlw.go.jp/37/index.php?action_kouhyou_detail_004_kani=true&JigyosyoCd=3770800823-00&ServiceCd=150&Type=search", "url2": "https://hot-kagawa.com/Cft6nhY3/" }, "geometry": { "type": "Point", "coordinates": [ 133.6877594, 34.1733952 ] } },
{ "type": "Feature", "properties": { "内容": "デイサービスセンター　くにち【通所介護】香川県三豊市高瀬町下勝間2015番地2", "url": "https://www.kaigokensaku.mhlw.go.jp/37/index.php?action_kouhyou_detail_004_kani=true&JigyosyoCd=3770800245-00&ServiceCd=150&Type=search", "url2": null }, "geometry": { "type": "Point", "coordinates": [ 133.7133313, 34.174576800000025 ] } },
{ "type": "Feature", "properties": { "内容": "老人デイサービスセンター　あづき【通所介護】香川県小豆郡土庄町字半の池甲１３６０番地１４３", "url": "https://www.kaigokensaku.mhlw.go.jp/37/index.php?action_kouhyou_detail_004_kani=true&JigyosyoCd=3771200312-00&ServiceCd=150&Type=search", "url2": null }, "geometry": { "type": "Point", "coordinates": [ 134.185806899999989, 34.4860217 ] } },
{ "type": "Feature", "properties": { "内容": "小豆島老人ホームデイサービスセンターふれあいとのしょう【通所介護】香川県小豆郡土庄町渕崎甲518番地", "url": "https://www.kaigokensaku.mhlw.go.jp/37/index.php?action_kouhyou_detail_004_kani=true&JigyosyoCd=3771200163-00&ServiceCd=150&Type=search", "url2": null }, "geometry": { "type": "Point", "coordinates": [ 134.178715900000043, 34.4900074 ] } },
{ "type": "Feature", "properties": { "内容": "デイサービスセンター北のおひさま【通所介護】香川県小豆群土庄町屋形崎甲９６９", "url": "https://www.kaigokensaku.mhlw.go.jp/37/index.php?action_kouhyou_detail_004_kani=true&JigyosyoCd=3771200288-00&ServiceCd=150&Type=search", "url2": "http./www.sunshine-kai.com/" }, "geometry": { "type": "Point", "coordinates": [ 134.223127, 34.5254159 ] } },
{ "type": "Feature", "properties": { "内容": "デイサービスはまひるがお【通所介護】香川県小豆郡土庄町甲1354-1", "url": "https://www.kaigokensaku.mhlw.go.jp/37/index.php?action_kouhyou_detail_004_kani=true&JigyosyoCd=3771200544-00&ServiceCd=150&Type=search", "url2": "https://hamahirugao.jp" }, "geometry": { "type": "Point", "coordinates": [ 134.180188100633245, 34.478980046691618 ] } },
{ "type": "Feature", "properties": { "内容": "デイサービスはまひるがお内海【通所介護】香川県小豆郡小豆島町安田乙158-2", "url": "https://www.kaigokensaku.mhlw.go.jp/37/index.php?action_kouhyou_detail_004_kani=true&JigyosyoCd=3771200551-00&ServiceCd=150&Type=search", "url2": "hamahirugao.jp" }, "geometry": { "type": "Point", "coordinates": [ 134.334092300000066, 34.4814096 ] } },
{ "type": "Feature", "properties": { "内容": "デイサービス青空【通所介護】小豆郡小豆島町西村甲2122-1", "url": "https://www.kaigokensaku.mhlw.go.jp/37/index.php?action_kouhyou_detail_004_kani=true&JigyosyoCd=3771200411-00&ServiceCd=150&Type=search", "url2": "http://www.ogenki-aozora.jp/" }, "geometry": { "type": "Point", "coordinates": [ 134.270350600000029, 34.4696123 ] } },
{ "type": "Feature", "properties": { "内容": "デイサービスセンターサンシャイン【通所介護】香川県小豆郡小豆島町蒲生甲350", "url": "https://www.kaigokensaku.mhlw.go.jp/37/index.php?action_kouhyou_detail_004_kani=true&JigyosyoCd=3771200056-00&ServiceCd=150&Type=search", "url2": "http://www.sunshine-kai.com" }, "geometry": { "type": "Point", "coordinates": [ 134.216368554631032, 34.477132176919326 ] } },
{ "type": "Feature", "properties": { "内容": "デイサービスセンターサンライズ西村【通所介護】香川県小豆郡小豆島町西村甲１１０１－１", "url": "https://www.kaigokensaku.mhlw.go.jp/37/index.php?action_kouhyou_detail_004_kani=true&JigyosyoCd=3771200361-00&ServiceCd=150&Type=search", "url2": "http://www.sunshine-kai.com" }, "geometry": { "type": "Point", "coordinates": [ 134.26783690000002, 34.4684512 ] } },
{ "type": "Feature", "properties": { "内容": "特別養護老人ホーム　マリアの園【通所介護】香川県小豆郡小豆島町草壁本町字上蔵田1-13", "url": "https://www.kaigokensaku.mhlw.go.jp/37/index.php?action_kouhyou_detail_004_kani=true&JigyosyoCd=3771200031-00&ServiceCd=150&Type=search", "url2": null }, "geometry": { "type": "Point", "coordinates": [ 134.306816588714923, 34.486600584135367 ] } },
{ "type": "Feature", "properties": { "内容": "デイサービスこぶしの花【通所介護】香川県木田郡三木町鹿伏205番地3", "url": "https://www.kaigokensaku.mhlw.go.jp/37/index.php?action_kouhyou_detail_004_kani=true&JigyosyoCd=3771300914-00&ServiceCd=150&Type=search", "url2": null }, "geometry": { "type": "Point", "coordinates": [ 134.137791600000014, 34.2706932 ] } },
{ "type": "Feature", "properties": { "内容": "三木指定通所介護事業所【通所介護】香川県木田郡三木町大字井上1966番地5三木町老人福祉会館　あけぼの荘", "url": "https://www.kaigokensaku.mhlw.go.jp/37/index.php?action_kouhyou_detail_004_kani=true&JigyosyoCd=3771300062-00&ServiceCd=150&Type=search", "url2": "http://ww8.tiki.ne.jp/~mikishakyo/" }, "geometry": { "type": "Point", "coordinates": [ 134.138281600000028, 34.2923281 ] } },
{ "type": "Feature", "properties": { "内容": "デイラウンジくすの木【通所介護】香川県木田郡三木町池戸2058番地7複合施設くすの木", "url": "https://www.kaigokensaku.mhlw.go.jp/37/index.php?action_kouhyou_detail_004_kani=true&JigyosyoCd=3771300831-00&ServiceCd=150&Type=search", "url2": null }, "geometry": { "type": "Point", "coordinates": [ 134.121461400000044, 34.2772993 ] } },
{ "type": "Feature", "properties": { "内容": "学園通りデイトレセンター【通所介護】木田郡三木町大字鹿伏３２７番地１ロイヤル白山　１F", "url": "https://www.kaigokensaku.mhlw.go.jp/37/index.php?action_kouhyou_detail_004_kani=true&JigyosyoCd=3771300690-00&ServiceCd=150&Type=search", "url2": "https://www.amplanning.biz" }, "geometry": { "type": "Point", "coordinates": [ 134.134548699999982, 34.2702896 ] } },
{ "type": "Feature", "properties": { "内容": "デイサービスセンター　くすの木【通所介護】香川県木田郡三木町池戸2362番地", "url": "https://www.kaigokensaku.mhlw.go.jp/37/index.php?action_kouhyou_detail_004_kani=true&JigyosyoCd=3771300518-00&ServiceCd=150&Type=search", "url2": null }, "geometry": { "type": "Point", "coordinates": [ 134.123208400000067, 34.2763773 ] } },
{ "type": "Feature", "properties": { "内容": "老人デイサービスセンターヌーベル三木【通所介護】香川県木田郡三木町大字上高岡1033番地１", "url": "https://www.kaigokensaku.mhlw.go.jp/37/index.php?action_kouhyou_detail_004_kani=true&JigyosyoCd=3771300773-00&ServiceCd=150&Type=search", "url2": "http://www.yu-sho.or.jp" }, "geometry": { "type": "Point", "coordinates": [ 134.140354099999968, 34.2529838 ] } },
{ "type": "Feature", "properties": { "内容": "白山デイサービスセンター【通所介護】香川県木田郡三木町大字下高岡２８８２番地１", "url": "https://www.kaigokensaku.mhlw.go.jp/37/index.php?action_kouhyou_detail_004_kani=true&JigyosyoCd=3771300203-00&ServiceCd=150&Type=search", "url2": "http://www.kitafuku.jp/" }, "geometry": { "type": "Point", "coordinates": [ 134.14462530000003, 34.27387 ] } },
{ "type": "Feature", "properties": { "内容": "すまいるケアセンター【通所介護】香川県綾歌郡宇多津町浜六番丁86-4", "url": "https://www.kaigokensaku.mhlw.go.jp/37/index.php?action_kouhyou_detail_004_kani=true&JigyosyoCd=3771501149-00&ServiceCd=150&Type=search", "url2": "http://vice-utz.com/" }, "geometry": { "type": "Point", "coordinates": [ 133.816305599999964, 34.3075901 ] } },
{ "type": "Feature", "properties": { "内容": "デイサービスセンター歩・いっぽ【通所介護】香川県綾歌郡宇多津町浜五番丁66番地3", "url": "https://www.kaigokensaku.mhlw.go.jp/37/index.php?action_kouhyou_detail_004_kani=true&JigyosyoCd=3771501032-00&ServiceCd=150&Type=search", "url2": "vice-utz.com/hoippo/" }, "geometry": { "type": "Point", "coordinates": [ 133.811320199999955, 34.303971100000034 ] } },
{ "type": "Feature", "properties": { "内容": "倶楽部　一合一笑　ことわ【通所介護】香川県綾歌郡綾川町滝宮1564", "url": "https://www.kaigokensaku.mhlw.go.jp/37/index.php?action_kouhyou_detail_004_kani=true&JigyosyoCd=3771501289-00&ServiceCd=150&Type=search", "url2": null }, "geometry": { "type": "Point", "coordinates": [ 133.916382500000026, 34.2486323 ] } },
{ "type": "Feature", "properties": { "内容": "綾川町社会福祉協議会通所介護事業所【通所介護】香川県綾歌郡綾川町滝宮276番地", "url": "https://www.kaigokensaku.mhlw.go.jp/37/index.php?action_kouhyou_detail_004_kani=true&JigyosyoCd=3771500943-00&ServiceCd=150&Type=search", "url2": "http://www.ayagawa-shakyo.or.jp/" }, "geometry": { "type": "Point", "coordinates": [ 133.9210243, 34.2499604 ] } },
{ "type": "Feature", "properties": { "内容": "松林荘デイサービスセンター【通所介護】香川県綾歌郡綾川町山田下山王424番地", "url": "https://www.kaigokensaku.mhlw.go.jp/37/index.php?action_kouhyou_detail_004_kani=true&JigyosyoCd=3771500364-00&ServiceCd=150&Type=search", "url2": "https://syourinsou.com" }, "geometry": { "type": "Point", "coordinates": [ 133.959859395584118, 34.229859588899608 ] } },
{ "type": "Feature", "properties": { "内容": "ひな菊ディサービス【通所介護】綾歌郡綾川町小野甲２４７－５", "url": "https://www.kaigokensaku.mhlw.go.jp/37/index.php?action_kouhyou_detail_004_kani=true&JigyosyoCd=3770300485-00&ServiceCd=150&Type=search", "url2": "http//www.itecservice.co.jp./tnthp/hina/" }, "geometry": { "type": "Point", "coordinates": [ 133.907425500000045, 34.2446584 ] } },
{ "type": "Feature", "properties": { "内容": "デイサービスセンター綾川【通所介護】香川県綾歌郡綾川町陶２６９１番地１デイサービスセンター綾川", "url": "https://www.kaigokensaku.mhlw.go.jp/37/index.php?action_kouhyou_detail_004_kani=true&JigyosyoCd=3771501131-00&ServiceCd=150&Type=search", "url2": "https://www.the-fuji.com/company/companies/happylifeai/" }, "geometry": { "type": "Point", "coordinates": [ 133.958254500000066, 34.2561519 ] } },
{ "type": "Feature", "properties": { "内容": "デイサービス　なごみの家【通所介護】香川県仲多度郡琴平町榎井780番地1", "url": "https://www.kaigokensaku.mhlw.go.jp/37/index.php?action_kouhyou_detail_004_kani=true&JigyosyoCd=3771600834-00&ServiceCd=150&Type=search", "url2": "http://www.iwasa.or.jp/nagomi.html" }, "geometry": { "type": "Point", "coordinates": [ 133.824386, 34.1906532 ] } },
{ "type": "Feature", "properties": { "内容": "デイサービスいけだ【通所介護】香川県仲多度郡琴平町736-1", "url": "https://www.kaigokensaku.mhlw.go.jp/37/index.php?action_kouhyou_detail_004_kani=true&JigyosyoCd=3771601170-00&ServiceCd=150&Type=search", "url2": null }, "geometry": { "type": "Point", "coordinates": [ 133.820580298117108, 34.18664230468265 ] } },
{ "type": "Feature", "properties": { "内容": "クレールみどりデイサービスセンター【通所介護】香川県仲多度郡琴平町苗田字中森４０２番地１", "url": "https://www.kaigokensaku.mhlw.go.jp/37/index.php?action_kouhyou_detail_004_kani=true&JigyosyoCd=3771600545-00&ServiceCd=150&Type=search", "url2": "http://www.keishoukai.jp/" }, "geometry": { "type": "Point", "coordinates": [ 133.814033800000061, 34.2007408 ] } },
{ "type": "Feature", "properties": { "内容": "デイサービスセンター途中迎舎【通所介護】仲多度郡多度津町西白方443番地1ギャラリー白方敷地内", "url": "https://www.kaigokensaku.mhlw.go.jp/37/index.php?action_kouhyou_detail_004_kani=true&JigyosyoCd=3771601105-00&ServiceCd=150&Type=search", "url2": null }, "geometry": { "type": "Point", "coordinates": [ 133.729903909647192, 34.256509906823432 ] } },
{ "type": "Feature", "properties": { "内容": "多度津デイサービスセンター【通所介護】香川県仲多度郡多度津町西港町127番地1", "url": "https://www.kaigokensaku.mhlw.go.jp/37/index.php?action_kouhyou_detail_004_kani=true&JigyosyoCd=3771600040-00&ServiceCd=150&Type=search", "url2": "http://toryoen.jp/" }, "geometry": { "type": "Point", "coordinates": [ 133.737697121426464, 34.265286101002701 ] } },
{ "type": "Feature", "properties": { "内容": "デイサービスセンターかざみ鳥【通所介護】香川県仲多度郡多度津町北鴨二丁目１１０番地１", "url": "https://www.kaigokensaku.mhlw.go.jp/37/index.php?action_kouhyou_detail_004_kani=true&JigyosyoCd=3771600982-00&ServiceCd=150&Type=search", "url2": null }, "geometry": { "type": "Point", "coordinates": [ 133.766595100000018, 34.2778599 ] } },
{ "type": "Feature", "properties": { "内容": "デイサービスセンターかりん【通所介護】香川県仲多度郡多度津町大字青木123番地1", "url": "https://www.kaigokensaku.mhlw.go.jp/37/index.php?action_kouhyou_detail_004_kani=true&JigyosyoCd=3771601196-00&ServiceCd=150&Type=search", "url2": null }, "geometry": { "type": "Point", "coordinates": [ 133.75256399803925, 34.253354993398233 ] } },
{ "type": "Feature", "properties": { "内容": "髙木産業　デイサービス未来【通所介護】香川県仲多度郡多度津町大字葛原1716デイサービス未来", "url": "https://www.kaigokensaku.mhlw.go.jp/37/index.php?action_kouhyou_detail_004_kani=true&JigyosyoCd=3771601097-00&ServiceCd=150&Type=search", "url2": null }, "geometry": { "type": "Point", "coordinates": [ 133.7688038, 34.2577646 ] } },
{ "type": "Feature", "properties": { "内容": "仲南荘老人デイサービスセンター【通所介護】香川県仲多度郡まんのう町帆山505", "url": "https://www.kaigokensaku.mhlw.go.jp/37/index.php?action_kouhyou_detail_004_kani=true&JigyosyoCd=3771600354-00&ServiceCd=150&Type=search", "url2": "https://www.seiyuukai.jp/" }, "geometry": { "type": "Point", "coordinates": [ 133.844285600000035, 34.1543836 ] } },
{ "type": "Feature", "properties": { "内容": "デイサービスセンターだん路【通所介護】香川県仲多度郡まんのう町四條１７９番地", "url": "https://www.kaigokensaku.mhlw.go.jp/37/index.php?action_kouhyou_detail_004_kani=true&JigyosyoCd=3771600925-00&ServiceCd=150&Type=search", "url2": "http://wwwa.pikara.ne.jp/danro/" }, "geometry": { "type": "Point", "coordinates": [ 133.838298411656751, 34.185976504184154 ] } },
{ "type": "Feature", "properties": { "内容": "医療法人　圭良会　通所介護　いこいの家【通所介護】香川県仲多度郡まんのう町買田221-3", "url": "https://www.kaigokensaku.mhlw.go.jp/37/index.php?action_kouhyou_detail_004_kani=true&JigyosyoCd=3771600156-00&ServiceCd=150&Type=search", "url2": "http://www.eisei-hp.or.jp/" }, "geometry": { "type": "Point", "coordinates": [ 133.8274669, 34.1722555 ] } },
{ "type": "Feature", "properties": { "内容": "満濃荘老人デイサービスセンター【通所介護】香川県仲多度郡まんのう町長尾1102番地", "url": "https://www.kaigokensaku.mhlw.go.jp/37/index.php?action_kouhyou_detail_004_kani=true&JigyosyoCd=3771600347-00&ServiceCd=150&Type=search", "url2": "https://www.seiyuukai.jp/" }, "geometry": { "type": "Point", "coordinates": [ 133.8555007, 34.1950398 ] } },
{ "type": "Feature", "properties": { "内容": "やすらぎ荘老人デイサービスセンター【通所介護】香川県仲多度郡まんのう町川東１５１２", "url": "https://www.kaigokensaku.mhlw.go.jp/37/index.php?action_kouhyou_detail_004_kani=true&JigyosyoCd=3771600743-00&ServiceCd=150&Type=search", "url2": "http://www.seiyuukai.jp" }, "geometry": { "type": "Point", "coordinates": [ 133.977185599999984, 34.112069 ] } }
]
}
