{
"type": "FeatureCollection",
"name": "geo_37_福祉用具貸与",
"crs": { "type": "name", "properties": { "name": "urn:ogc:def:crs:OGC:1.3:CRS84" } },
"features": [
{ "type": "Feature", "properties": { "内容": "株式会社　サンケイ【福祉用具貸与】香川県高松市下田井町４３７", "url": "https://www.kaigokensaku.mhlw.go.jp/37/index.php?action_kouhyou_detail_004_kani=true&JigyosyoCd=3770100364-00&ServiceCd=170&Type=search", "url2": null }, "geometry": { "type": "Point", "coordinates": [ 134.097084499999937, 34.2916103 ] } },
{ "type": "Feature", "properties": { "内容": "有限会社堀川住器【福祉用具貸与】楠上町一丁目6番9号", "url": "https://www.kaigokensaku.mhlw.go.jp/37/index.php?action_kouhyou_detail_004_kani=true&JigyosyoCd=3770104572-00&ServiceCd=170&Type=search", "url2": "http://www.horikawa-juki.com/" }, "geometry": { "type": "Point", "coordinates": [ 134.0586184, 34.3304448 ] } },
{ "type": "Feature", "properties": { "内容": "有限会社　ゴトー商事高松【福祉用具貸与】香川県高松市東植田町812番地3", "url": "https://www.kaigokensaku.mhlw.go.jp/37/index.php?action_kouhyou_detail_004_kani=true&JigyosyoCd=3770100588-00&ServiceCd=170&Type=search", "url2": null }, "geometry": { "type": "Point", "coordinates": [ 134.100281900000027, 34.2487638 ] } },
{ "type": "Feature", "properties": { "内容": "ケアネット榊原【福祉用具貸与】香川県高松市仏生山町甲58", "url": "https://www.kaigokensaku.mhlw.go.jp/37/index.php?action_kouhyou_detail_004_kani=true&JigyosyoCd=3770104358-00&ServiceCd=170&Type=search", "url2": "e-kagu@nifty.com" }, "geometry": { "type": "Point", "coordinates": [ 134.039976799999977, 34.2860213 ] } },
{ "type": "Feature", "properties": { "内容": "湊商事株式会社【福祉用具貸与】香川県髙松市城東町１丁目2-22", "url": "https://www.kaigokensaku.mhlw.go.jp/37/index.php?action_kouhyou_detail_004_kani=true&JigyosyoCd=3770108961-00&ServiceCd=170&Type=search", "url2": "http://www.minatogroup.co.jp/" }, "geometry": { "type": "Point", "coordinates": [ 134.056092700000022, 34.3464989 ] } },
{ "type": "Feature", "properties": { "内容": "介護ショップ　和楽【福祉用具貸与】香川県高松市三条町72-5", "url": "https://www.kaigokensaku.mhlw.go.jp/37/index.php?action_kouhyou_detail_004_kani=true&JigyosyoCd=3770111171-00&ServiceCd=170&Type=search", "url2": null }, "geometry": { "type": "Point", "coordinates": [ 134.045826600000026, 34.3154079 ] } },
{ "type": "Feature", "properties": { "内容": "福祉プラザ高松【福祉用具貸与】香川県高松市鶴市町977-3", "url": "https://www.kaigokensaku.mhlw.go.jp/37/index.php?action_kouhyou_detail_004_kani=true&JigyosyoCd=3770109084-00&ServiceCd=170&Type=search", "url2": "http://fukushiplaza.co.jp/" }, "geometry": { "type": "Point", "coordinates": [ 134.011539800000037, 34.3349795 ] } },
{ "type": "Feature", "properties": { "内容": "有限会社　ひまわり【福祉用具貸与】香川県高松市檀紙町2067-6", "url": "https://www.kaigokensaku.mhlw.go.jp/37/index.php?action_kouhyou_detail_004_kani=true&JigyosyoCd=3771500471-00&ServiceCd=170&Type=search", "url2": "http://www.himawari-web.jp" }, "geometry": { "type": "Point", "coordinates": [ 133.998892299999966, 34.312129 ] } },
{ "type": "Feature", "properties": { "内容": "有限会社　絆　きずな【福祉用具貸与】香川県高松市桜町１-６-１８共栄桜町ビル２階北", "url": "https://www.kaigokensaku.mhlw.go.jp/37/index.php?action_kouhyou_detail_004_kani=true&JigyosyoCd=3770103905-00&ServiceCd=170&Type=search", "url2": null }, "geometry": { "type": "Point", "coordinates": [ 134.051981923368885, 34.331186378328439 ] } },
{ "type": "Feature", "properties": { "内容": "有限会社西村寝装店【福祉用具貸与】香川県高松市松縄町41-11", "url": "https://www.kaigokensaku.mhlw.go.jp/37/index.php?action_kouhyou_detail_004_kani=true&JigyosyoCd=3770100612-00&ServiceCd=170&Type=search", "url2": null }, "geometry": { "type": "Point", "coordinates": [ 134.06371, 34.3217122 ] } },
{ "type": "Feature", "properties": { "内容": "有限会社　BBケアサービス【福祉用具貸与】高松市新田町乙23番地50", "url": "https://www.kaigokensaku.mhlw.go.jp/37/index.php?action_kouhyou_detail_004_kani=true&JigyosyoCd=3770102840-00&ServiceCd=170&Type=search", "url2": null }, "geometry": { "type": "Point", "coordinates": [ 134.1092271, 34.3129968 ] } },
{ "type": "Feature", "properties": { "内容": "高松中央医療器株式会社　介護ショップ　源内【福祉用具貸与】香川県高松市林町2032-2源内ビル　1階南", "url": "https://www.kaigokensaku.mhlw.go.jp/37/index.php?action_kouhyou_detail_004_kani=true&JigyosyoCd=3770101115-00&ServiceCd=170&Type=search", "url2": "http://www.gennai-tcm.jp/" }, "geometry": { "type": "Point", "coordinates": [ 134.07356249999998, 34.3054526 ] } },
{ "type": "Feature", "properties": { "内容": "（株）ケアサービス長谷川【福祉用具貸与】高松市築地町8-17", "url": "https://www.kaigokensaku.mhlw.go.jp/37/index.php?action_kouhyou_detail_004_kani=true&JigyosyoCd=3770100018-00&ServiceCd=170&Type=search", "url2": "http://www.careservice-hasegawa.com" }, "geometry": { "type": "Point", "coordinates": [ 134.058027387731499, 34.34191299325191 ] } },
{ "type": "Feature", "properties": { "内容": "株式会社　翼　　香川営業所【福祉用具貸与】香川県高松市木太町490番地1", "url": "https://www.kaigokensaku.mhlw.go.jp/37/index.php?action_kouhyou_detail_004_kani=true&JigyosyoCd=3770104028-00&ServiceCd=170&Type=search", "url2": "https://www.kk-tsubasa.co.jp/" }, "geometry": { "type": "Point", "coordinates": [ 134.071020832540881, 34.311820189844923 ] } },
{ "type": "Feature", "properties": { "内容": "高徳電化　株式会社【福祉用具貸与】香川県高松市円座町1015-1", "url": "https://www.kaigokensaku.mhlw.go.jp/37/index.php?action_kouhyou_detail_004_kani=true&JigyosyoCd=3770101412-00&ServiceCd=170&Type=search", "url2": null }, "geometry": { "type": "Point", "coordinates": [ 134.0117692, 34.2898218 ] } },
{ "type": "Feature", "properties": { "内容": "株式会社日協堂医療器　高松営業所【福祉用具貸与】香川県高松市円座町字西村95-2", "url": "https://www.kaigokensaku.mhlw.go.jp/37/index.php?action_kouhyou_detail_004_kani=true&JigyosyoCd=3770108912-00&ServiceCd=170&Type=search", "url2": "http://www.nikkyoudo.co.jp/" }, "geometry": { "type": "Point", "coordinates": [ 134.003959530488601, 34.288511304608633 ] } },
{ "type": "Feature", "properties": { "内容": "株式会社　ヤエス　福祉用具事業所【福祉用具貸与】香川県高松市国分寺町福家甲　６０５番地１", "url": "https://www.kaigokensaku.mhlw.go.jp/37/index.php?action_kouhyou_detail_004_kani=true&JigyosyoCd=3771500646-00&ServiceCd=170&Type=search", "url2": "http.www.yaesu.org" }, "geometry": { "type": "Point", "coordinates": [ 133.977541100000053, 34.2725443 ] } },
{ "type": "Feature", "properties": { "内容": "ケアテラスギャラリー福祉用具貸与【福祉用具貸与】香川県高松市田町1-2", "url": "https://www.kaigokensaku.mhlw.go.jp/37/index.php?action_kouhyou_detail_004_kani=true&JigyosyoCd=3770105645-00&ServiceCd=170&Type=search", "url2": null }, "geometry": { "type": "Point", "coordinates": [ 134.0489268, 34.3384689 ] } },
{ "type": "Feature", "properties": { "内容": "フランスベッド株式会社　メディカル高松営業所【福祉用具貸与】香川県高松市郷東町796番地164", "url": "https://www.kaigokensaku.mhlw.go.jp/37/index.php?action_kouhyou_detail_004_kani=true&JigyosyoCd=3770105470-00&ServiceCd=170&Type=search", "url2": "http://www.francebed.jp/" }, "geometry": { "type": "Point", "coordinates": [ 134.01341327863463, 34.351452772818845 ] } },
{ "type": "Feature", "properties": { "内容": "ダスキンヘルスレント高松ステーション【福祉用具貸与】香川県高松市伏石町９８８－５", "url": "https://www.kaigokensaku.mhlw.go.jp/37/index.php?action_kouhyou_detail_004_kani=true&JigyosyoCd=3770109464-00&ServiceCd=170&Type=search", "url2": "http://www.duskin.co.jp" }, "geometry": { "type": "Point", "coordinates": [ 134.05083639999998, 34.3151072 ] } },
{ "type": "Feature", "properties": { "内容": "株式会社　ひまわりプラス【福祉用具貸与】香川県高松市勅使町149番地1", "url": "https://www.kaigokensaku.mhlw.go.jp/37/index.php?action_kouhyou_detail_004_kani=true&JigyosyoCd=3770111916-00&ServiceCd=170&Type=search", "url2": null }, "geometry": { "type": "Point", "coordinates": [ 134.0098564, 34.3067752 ] } },
{ "type": "Feature", "properties": { "内容": "株式会社ヤマシタ　高松営業所【福祉用具貸与】香川県高松市木太町2180番地", "url": "https://www.kaigokensaku.mhlw.go.jp/37/index.php?action_kouhyou_detail_004_kani=true&JigyosyoCd=3770105520-00&ServiceCd=170&Type=search", "url2": "http://www.yco.co.jp" }, "geometry": { "type": "Point", "coordinates": [ 134.0717836, 34.3344305 ] } },
{ "type": "Feature", "properties": { "内容": "株式会社ティーブイシー【福祉用具貸与】香川県高松市屋島西町２４９１番地１８", "url": "https://www.kaigokensaku.mhlw.go.jp/37/index.php?action_kouhyou_detail_004_kani=true&JigyosyoCd=3770102121-00&ServiceCd=170&Type=search", "url2": null }, "geometry": { "type": "Point", "coordinates": [ 134.0891283, 34.3492837 ] } },
{ "type": "Feature", "properties": { "内容": "四国医療サービス株式会社　高松営業所【福祉用具貸与】香川県高松市林町1971－13", "url": "https://www.kaigokensaku.mhlw.go.jp/37/index.php?action_kouhyou_detail_004_kani=true&JigyosyoCd=3770106528-00&ServiceCd=170&Type=search", "url2": "http://www.shikoku-ms.jp/" }, "geometry": { "type": "Point", "coordinates": [ 134.070778757672088, 34.306205398812786 ] } },
{ "type": "Feature", "properties": { "内容": "福祉用具貸与・販売事業所ココロココ【福祉用具貸与】高松市伏石町２０６３－２ココロココ伏石１階", "url": "https://www.kaigokensaku.mhlw.go.jp/37/index.php?action_kouhyou_detail_004_kani=true&JigyosyoCd=3770107138-00&ServiceCd=170&Type=search", "url2": null }, "geometry": { "type": "Point", "coordinates": [ 134.05283929999996, 34.3125436 ] } },
{ "type": "Feature", "properties": { "内容": "松熊工業株式会社【福祉用具貸与】香川県高松市一宮町1127番地5", "url": "https://www.kaigokensaku.mhlw.go.jp/37/index.php?action_kouhyou_detail_004_kani=true&JigyosyoCd=3770111163-00&ServiceCd=170&Type=search", "url2": "https://matsukuma.net" }, "geometry": { "type": "Point", "coordinates": [ 134.0274126, 34.2899241 ] } },
{ "type": "Feature", "properties": { "内容": "株式会社いぶき【福祉用具貸与】香川県高松市木太町2351番地2", "url": "https://www.kaigokensaku.mhlw.go.jp/37/index.php?action_kouhyou_detail_004_kani=true&JigyosyoCd=3770105306-00&ServiceCd=170&Type=search", "url2": null }, "geometry": { "type": "Point", "coordinates": [ 134.074336200000062, 34.333925 ] } },
{ "type": "Feature", "properties": { "内容": "有限会社寒川設備【福祉用具貸与】香川県高松市下田井町206-20", "url": "https://www.kaigokensaku.mhlw.go.jp/37/index.php?action_kouhyou_detail_004_kani=true&JigyosyoCd=3770106346-00&ServiceCd=170&Type=search", "url2": null }, "geometry": { "type": "Point", "coordinates": [ 134.095162524992361, 34.294828401087294 ] } },
{ "type": "Feature", "properties": { "内容": "大東産業株式会社【福祉用具貸与】香川県高松市庵治町１７２５番地２", "url": "https://www.kaigokensaku.mhlw.go.jp/37/index.php?action_kouhyou_detail_004_kani=true&JigyosyoCd=3771300195-00&ServiceCd=170&Type=search", "url2": null }, "geometry": { "type": "Point", "coordinates": [ 134.13528, 34.3831134 ] } },
{ "type": "Feature", "properties": { "内容": "インクルージョンオフィス高松福祉用具事業所【福祉用具貸与】香川県高松市宮脇町1丁目7-25スカールITO", "url": "https://www.kaigokensaku.mhlw.go.jp/37/index.php?action_kouhyou_detail_004_kani=true&JigyosyoCd=3770111304-00&ServiceCd=170&Type=search", "url2": null }, "geometry": { "type": "Point", "coordinates": [ 134.0343076, 34.3398482 ] } },
{ "type": "Feature", "properties": { "内容": "ライフケアサポートアップル【福祉用具貸与】香川県高松市松縄4-1", "url": "https://www.kaigokensaku.mhlw.go.jp/37/index.php?action_kouhyou_detail_004_kani=true&JigyosyoCd=3770700643-00&ServiceCd=170&Type=search", "url2": "lifecare-apple.com" }, "geometry": { "type": "Point", "coordinates": [ 134.066608651630929, 34.325703394482247 ] } },
{ "type": "Feature", "properties": { "内容": "ロハス/ジャパン【福祉用具貸与】香川県高松市香川町浅野2601-54", "url": "https://www.kaigokensaku.mhlw.go.jp/37/index.php?action_kouhyou_detail_004_kani=true&JigyosyoCd=3770109167-00&ServiceCd=170&Type=search", "url2": null }, "geometry": { "type": "Point", "coordinates": [ 134.050634800000012, 34.2510484 ] } },
{ "type": "Feature", "properties": { "内容": "株式会社三奏　福祉用具事業所【福祉用具貸与】香川県高松市上福岡町721番地2マキノ上福岡ビル3階", "url": "https://www.kaigokensaku.mhlw.go.jp/37/index.php?action_kouhyou_detail_004_kani=true&JigyosyoCd=3770111957-00&ServiceCd=170&Type=search", "url2": null }, "geometry": { "type": "Point", "coordinates": [ 134.0679029, 34.3339963 ] } },
{ "type": "Feature", "properties": { "内容": "株式会社ケアサポート幸樹【福祉用具貸与】香川県高松市国分寺町新居378-2", "url": "https://www.kaigokensaku.mhlw.go.jp/37/index.php?action_kouhyou_detail_004_kani=true&JigyosyoCd=3770109019-00&ServiceCd=170&Type=search", "url2": null }, "geometry": { "type": "Point", "coordinates": [ 133.970297777648994, 34.30304009542818 ] } },
{ "type": "Feature", "properties": { "内容": "福祉用具　ささえ【福祉用具貸与】香川県高松市室町１９０３番地４", "url": "https://www.kaigokensaku.mhlw.go.jp/37/index.php?action_kouhyou_detail_004_kani=true&JigyosyoCd=3770109886-00&ServiceCd=170&Type=search", "url2": null }, "geometry": { "type": "Point", "coordinates": [ 134.043536, 34.3255255 ] } },
{ "type": "Feature", "properties": { "内容": "有限会社　マルイ【福祉用具貸与】香川県丸亀市綾歌町岡田下565-1", "url": "https://www.kaigokensaku.mhlw.go.jp/37/index.php?action_kouhyou_detail_004_kani=true&JigyosyoCd=3771500489-00&ServiceCd=170&Type=search", "url2": null }, "geometry": { "type": "Point", "coordinates": [ 133.860371799999939, 34.2200312 ] } },
{ "type": "Feature", "properties": { "内容": "有)スマイル【福祉用具貸与】香川県丸亀市飯野町東分2628-1", "url": "https://www.kaigokensaku.mhlw.go.jp/37/index.php?action_kouhyou_detail_004_kani=true&JigyosyoCd=3770200214-00&ServiceCd=170&Type=search", "url2": "http://smile-netshop.com" }, "geometry": { "type": "Point", "coordinates": [ 133.831877399999939, 34.2778909 ] } },
{ "type": "Feature", "properties": { "内容": "ダスキンヘルスレント香川西ステーション【福祉用具貸与】香川県丸亀市郡家町1822番地9", "url": "https://www.kaigokensaku.mhlw.go.jp/37/index.php?action_kouhyou_detail_004_kani=true&JigyosyoCd=3770201972-00&ServiceCd=170&Type=search", "url2": "https://healthrent.duskin.jp/" }, "geometry": { "type": "Point", "coordinates": [ 133.817017099999987, 34.258709 ] } },
{ "type": "Feature", "properties": { "内容": "四国医療サービス株式会社　福祉事業部　丸亀営業所【福祉用具貸与】香川県丸亀市田村町470番地1", "url": "https://www.kaigokensaku.mhlw.go.jp/37/index.php?action_kouhyou_detail_004_kani=true&JigyosyoCd=3770201030-00&ServiceCd=170&Type=search", "url2": "http://www.shikoku-ms.jp/indexhtml" }, "geometry": { "type": "Point", "coordinates": [ 133.792779203704868, 34.264405999052322 ] } },
{ "type": "Feature", "properties": { "内容": "真鍋商事株式会社【福祉用具貸与】香川県丸亀市綾歌町栗熊東97番地", "url": "https://www.kaigokensaku.mhlw.go.jp/37/index.php?action_kouhyou_detail_004_kani=true&JigyosyoCd=3771500307-00&ServiceCd=170&Type=search", "url2": "manabe-shoji.com/campany/" }, "geometry": { "type": "Point", "coordinates": [ 133.880002699999977, 34.2395011 ] } },
{ "type": "Feature", "properties": { "内容": "有限会社　大林モータース【福祉用具貸与】香川県丸亀市飯山町下法軍寺６３８番地２", "url": "https://www.kaigokensaku.mhlw.go.jp/37/index.php?action_kouhyou_detail_004_kani=true&JigyosyoCd=3771500331-00&ServiceCd=170&Type=search", "url2": null }, "geometry": { "type": "Point", "coordinates": [ 133.855547398741948, 34.258363209630964 ] } },
{ "type": "Feature", "properties": { "内容": "高橋産業株式会社【福祉用具貸与】香川県坂出市江尻町1534-1", "url": "https://www.kaigokensaku.mhlw.go.jp/37/index.php?action_kouhyou_detail_004_kani=true&JigyosyoCd=3770300725-00&ServiceCd=170&Type=search", "url2": "http://takahasi-sangyo.com" }, "geometry": { "type": "Point", "coordinates": [ 133.876853799999907, 34.3150697 ] } },
{ "type": "Feature", "properties": { "内容": "OneLife株式会社【福祉用具貸与】香川県坂出市川津町3570番地", "url": "https://www.kaigokensaku.mhlw.go.jp/37/index.php?action_kouhyou_detail_004_kani=true&JigyosyoCd=3770301319-00&ServiceCd=170&Type=search", "url2": null }, "geometry": { "type": "Point", "coordinates": [ 133.847932399999962, 34.298282200000024 ] } },
{ "type": "Feature", "properties": { "内容": "株式会社　山斗【福祉用具貸与】香川県坂出市江尻町新開1158-2", "url": "https://www.kaigokensaku.mhlw.go.jp/37/index.php?action_kouhyou_detail_004_kani=true&JigyosyoCd=3770300907-00&ServiceCd=170&Type=search", "url2": null }, "geometry": { "type": "Point", "coordinates": [ 133.868151200000057, 34.3209632 ] } },
{ "type": "Feature", "properties": { "内容": "福祉プラザ【福祉用具貸与】香川県坂出市林田町655-1", "url": "https://www.kaigokensaku.mhlw.go.jp/37/index.php?action_kouhyou_detail_004_kani=true&JigyosyoCd=3770300105-00&ServiceCd=170&Type=search", "url2": "http://www.fukushiplaza.co.jp" }, "geometry": { "type": "Point", "coordinates": [ 133.891132406230014, 34.326852341298682 ] } },
{ "type": "Feature", "properties": { "内容": "株式会社トリイ・ケンコー【福祉用具貸与】香川県坂出市林田町3314番地3", "url": "https://www.kaigokensaku.mhlw.go.jp/37/index.php?action_kouhyou_detail_004_kani=true&JigyosyoCd=3770300881-00&ServiceCd=170&Type=search", "url2": "http://www.torii-kenko.co.jp/" }, "geometry": { "type": "Point", "coordinates": [ 133.88729079999996, 34.3351812 ] } },
{ "type": "Feature", "properties": { "内容": "介護ショップ　ほほえみ【福祉用具貸与】香川県善通寺市中村町2082-4", "url": "https://www.kaigokensaku.mhlw.go.jp/37/index.php?action_kouhyou_detail_004_kani=true&JigyosyoCd=3770400384-00&ServiceCd=170&Type=search", "url2": "http://ogata.co.jp/hohoemi" }, "geometry": { "type": "Point", "coordinates": [ 133.761184700000058, 34.2479492 ] } },
{ "type": "Feature", "properties": { "内容": "株式会社トーカイ　西讃営業所【福祉用具貸与】香川県善通寺市上吉田町字中筋567番地1", "url": "https://www.kaigokensaku.mhlw.go.jp/37/index.php?action_kouhyou_detail_004_kani=true&JigyosyoCd=3770400616-00&ServiceCd=170&Type=search", "url2": "http://www.tokai-corp.com" }, "geometry": { "type": "Point", "coordinates": [ 133.791681332849095, 34.230125514470792 ] } },
{ "type": "Feature", "properties": { "内容": "株式会社　日協堂医療器【福祉用具貸与】香川県観音寺市柞田町甲43-1", "url": "https://www.kaigokensaku.mhlw.go.jp/37/index.php?action_kouhyou_detail_004_kani=true&JigyosyoCd=3770500126-00&ServiceCd=170&Type=search", "url2": "http://www.nikkyoudo.co.jp/" }, "geometry": { "type": "Point", "coordinates": [ 133.67697817051382, 34.112470478812824 ] } },
{ "type": "Feature", "properties": { "内容": "有限会社ワイ・ケイ介護【福祉用具貸与】香川県さぬき市昭和3424番地1昭和ハイツ102号室", "url": "https://www.kaigokensaku.mhlw.go.jp/37/index.php?action_kouhyou_detail_004_kani=true&JigyosyoCd=3771100314-00&ServiceCd=170&Type=search", "url2": null }, "geometry": { "type": "Point", "coordinates": [ 134.166312, 34.2664245 ] } },
{ "type": "Feature", "properties": { "内容": "有限会社タムラ家具店福祉用具貸与事業所【福祉用具貸与】香川県東かがわ市三本松1903-2", "url": "https://www.kaigokensaku.mhlw.go.jp/37/index.php?action_kouhyou_detail_004_kani=true&JigyosyoCd=3771100769-00&ServiceCd=170&Type=search", "url2": null }, "geometry": { "type": "Point", "coordinates": [ 134.341919100000041, 34.2477938 ] } },
{ "type": "Feature", "properties": { "内容": "介護ショップかりん【福祉用具貸与】香川県東かがわ市町田727番地1ジョイテルユーⅡ棟204号", "url": "https://www.kaigokensaku.mhlw.go.jp/37/index.php?action_kouhyou_detail_004_kani=true&JigyosyoCd=3770700668-00&ServiceCd=170&Type=search", "url2": "https://karin-create.com" }, "geometry": { "type": "Point", "coordinates": [ 134.305550787171939, 34.253332292048562 ] } },
{ "type": "Feature", "properties": { "内容": "有限会社家具のたかぎ　介護事業部【福祉用具貸与】香川県三豊市高瀬町比地中１３２０番地３", "url": "https://www.kaigokensaku.mhlw.go.jp/37/index.php?action_kouhyou_detail_004_kani=true&JigyosyoCd=3770800377-00&ServiceCd=170&Type=search", "url2": "http://www.kagu-monogatari.co.jp" }, "geometry": { "type": "Point", "coordinates": [ 133.71066129999997, 34.1824474 ] } },
{ "type": "Feature", "properties": { "内容": "有限会社　坂手屋ラジオ店【福祉用具貸与】香川県小豆郡土庄町渕崎甲２０２７番地７", "url": "https://www.kaigokensaku.mhlw.go.jp/37/index.php?action_kouhyou_detail_004_kani=true&JigyosyoCd=3771200197-00&ServiceCd=170&Type=search", "url2": null }, "geometry": { "type": "Point", "coordinates": [ 134.187328852132197, 34.486314492968923 ] } },
{ "type": "Feature", "properties": { "内容": "福祉の鶴亀【福祉用具貸与】香川県小豆郡土庄町淵崎甲2217", "url": "https://www.kaigokensaku.mhlw.go.jp/37/index.php?action_kouhyou_detail_004_kani=true&JigyosyoCd=3771200262-00&ServiceCd=170&Type=search", "url2": null }, "geometry": { "type": "Point", "coordinates": [ 134.196736099999953, 34.4887466 ] } },
{ "type": "Feature", "properties": { "内容": "株式会社　合田金物店【福祉用具貸与】香川県小豆郡土庄町甲１１１", "url": "https://www.kaigokensaku.mhlw.go.jp/37/index.php?action_kouhyou_detail_004_kani=true&JigyosyoCd=3771200155-00&ServiceCd=170&Type=search", "url2": null }, "geometry": { "type": "Point", "coordinates": [ 134.185292644232106, 34.483158188187048 ] } },
{ "type": "Feature", "properties": { "内容": "有限会社　岩本家具【福祉用具貸与】小豆郡小豆島町片城甲２４－６", "url": "https://www.kaigokensaku.mhlw.go.jp/37/index.php?action_kouhyou_detail_004_kani=true&JigyosyoCd=3771200338-00&ServiceCd=170&Type=search", "url2": null }, "geometry": { "type": "Point", "coordinates": [ 134.310335799999962, 34.4822674 ] } },
{ "type": "Feature", "properties": { "内容": "有限会社　お元気ですかショップ山下【福祉用具貸与】香川県小豆郡小豆島町片城甲44-192", "url": "https://www.kaigokensaku.mhlw.go.jp/37/index.php?action_kouhyou_detail_004_kani=true&JigyosyoCd=3771200130-00&ServiceCd=170&Type=search", "url2": "http://www.ogenki-aozora.jp/" }, "geometry": { "type": "Point", "coordinates": [ 134.309988699999963, 34.4802759 ] } },
{ "type": "Feature", "properties": { "内容": "ケアサポートこんどう【福祉用具貸与】香川県小豆郡小豆島町安田甲６番地", "url": "https://www.kaigokensaku.mhlw.go.jp/37/index.php?action_kouhyou_detail_004_kani=true&JigyosyoCd=3771200270-00&ServiceCd=170&Type=search", "url2": null }, "geometry": { "type": "Point", "coordinates": [ 134.316063471163915, 34.478167200976394 ] } },
{ "type": "Feature", "properties": { "内容": "ライフサポート【福祉用具貸与】香川県小豆郡小豆島町池田２１３８番地３", "url": "https://www.kaigokensaku.mhlw.go.jp/37/index.php?action_kouhyou_detail_004_kani=true&JigyosyoCd=3771200601-00&ServiceCd=170&Type=search", "url2": null }, "geometry": { "type": "Point", "coordinates": [ 134.235712327612674, 34.484115689100257 ] } },
{ "type": "Feature", "properties": { "内容": "有限会社　明日香【福祉用具貸与】香川県綾歌郡綾川町山田下３０３９－５", "url": "https://www.kaigokensaku.mhlw.go.jp/37/index.php?action_kouhyou_detail_004_kani=true&JigyosyoCd=3771500380-00&ServiceCd=170&Type=search", "url2": null }, "geometry": { "type": "Point", "coordinates": [ 133.954522499999939, 34.2219948 ] } },
{ "type": "Feature", "properties": { "内容": "ハウスリフォーム　福祉事業部【福祉用具貸与】滝宮297-42", "url": "https://www.kaigokensaku.mhlw.go.jp/37/index.php?action_kouhyou_detail_004_kani=true&JigyosyoCd=3771500711-00&ServiceCd=170&Type=search", "url2": "https://house2400.jimdo.com/" }, "geometry": { "type": "Point", "coordinates": [ 133.921507499999962, 34.2506575 ] } },
{ "type": "Feature", "properties": { "内容": "有限会社　元気【福祉用具貸与】綾歌郡綾川町山田下３６２０―１", "url": "https://www.kaigokensaku.mhlw.go.jp/37/index.php?action_kouhyou_detail_004_kani=true&JigyosyoCd=3771501123-00&ServiceCd=170&Type=search", "url2": "www.genki-job.com" }, "geometry": { "type": "Point", "coordinates": [ 133.946570599999973, 34.217437 ] } },
{ "type": "Feature", "properties": { "内容": "株式会社トーカイ　高松営業所【福祉用具貸与】香川県綾歌郡綾川町陶4343-6", "url": "https://www.kaigokensaku.mhlw.go.jp/37/index.php?action_kouhyou_detail_004_kani=true&JigyosyoCd=3771501073-00&ServiceCd=170&Type=search", "url2": "https://www.tokai-corp.com" }, "geometry": { "type": "Point", "coordinates": [ 133.941397599999959, 34.2527826 ] } },
{ "type": "Feature", "properties": { "内容": "株式会社イシカワ【福祉用具貸与】香川県仲多度郡琴平町榎井34番地の1", "url": "https://www.kaigokensaku.mhlw.go.jp/37/index.php?action_kouhyou_detail_004_kani=true&JigyosyoCd=3771600446-00&ServiceCd=170&Type=search", "url2": "http://www.ishikawa-care.net/" }, "geometry": { "type": "Point", "coordinates": [ 133.831385599999976, 34.191645 ] } },
{ "type": "Feature", "properties": { "内容": "高木産業株式会社【福祉用具貸与】香川県仲多度郡多度津町大字葛原1813番地2", "url": "https://www.kaigokensaku.mhlw.go.jp/37/index.php?action_kouhyou_detail_004_kani=true&JigyosyoCd=3771600941-00&ServiceCd=170&Type=search", "url2": null }, "geometry": { "type": "Point", "coordinates": [ 133.7683591, 34.2580121 ] } }
]
}
