{
"type": "FeatureCollection",
"name": "geo_37_通所リハビリテーション",
"crs": { "type": "name", "properties": { "name": "urn:ogc:def:crs:OGC:1.3:CRS84" } },
"features": [
{ "type": "Feature", "properties": { "内容": "デイケアかつが【通所リハビリテーション】香川県高松市香西本町114-10", "url": "https://www.kaigokensaku.mhlw.go.jp/37/index.php?action_kouhyou_detail_004_kani=true&JigyosyoCd=3710119557-00&ServiceCd=160&Type=search", "url2": "http://www.katsuga.com/index.html" }, "geometry": { "type": "Point", "coordinates": [ 134.001425499999982, 34.3490419 ] } },
{ "type": "Feature", "properties": { "内容": "医療法人かしむら内科医院通所リハビリテーション施設【通所リハビリテーション】高松市多肥上町718-1", "url": "https://www.kaigokensaku.mhlw.go.jp/37/index.php?action_kouhyou_detail_004_kani=true&JigyosyoCd=3770104523-00&ServiceCd=160&Type=search", "url2": "http://www.pikara.ne.jp/kashimura-iin" }, "geometry": { "type": "Point", "coordinates": [ 134.051784399999974, 34.2897182 ] } },
{ "type": "Feature", "properties": { "内容": "介護老人保健施設サンライズ屋島指定通所リハビリテーション事業所【通所リハビリテーション】香川県高松市新田町甲2721番地6", "url": "https://www.kaigokensaku.mhlw.go.jp/37/index.php?action_kouhyou_detail_004_kani=true&JigyosyoCd=3750180055-00&ServiceCd=160&Type=search", "url2": "http://www.netwave.or.jp/~rise/" }, "geometry": { "type": "Point", "coordinates": [ 134.099908599999907, 34.3294755 ] } },
{ "type": "Feature", "properties": { "内容": "介護老人保健施設　まゆみの里【通所リハビリテーション】香川県高松市木太町２６９１番１", "url": "https://www.kaigokensaku.mhlw.go.jp/37/index.php?action_kouhyou_detail_004_kani=true&JigyosyoCd=3750180139-00&ServiceCd=160&Type=search", "url2": "http://satokikai.jp/sato/" }, "geometry": { "type": "Point", "coordinates": [ 134.08149370000001, 34.3401188 ] } },
{ "type": "Feature", "properties": { "内容": "介護老人保健施設　ハートフルこくぶんじ荘【通所リハビリテーション】香川県高松市国分寺町新名2081-1", "url": "https://www.kaigokensaku.mhlw.go.jp/37/index.php?action_kouhyou_detail_004_kani=true&JigyosyoCd=3750180154-00&ServiceCd=160&Type=search", "url2": null }, "geometry": { "type": "Point", "coordinates": [ 133.960622599999965, 34.2811683 ] } },
{ "type": "Feature", "properties": { "内容": "三宅リハビリテーション病院　天神前みやけ通所リハビリテーションセンター【通所リハビリテーション】香川県高松市天神前5番6号高松メディカルモール3階", "url": "https://www.kaigokensaku.mhlw.go.jp/37/index.php?action_kouhyou_detail_004_kani=true&JigyosyoCd=3710118419-00&ServiceCd=160&Type=search", "url2": "http://www.miyake.or.jp" }, "geometry": { "type": "Point", "coordinates": [ 134.044985200000042, 34.3403658 ] } },
{ "type": "Feature", "properties": { "内容": "医療法人社団　修美会　綾田内科消化器科クリニック【通所リハビリテーション】香川県高松市太田下町1872-2綾田内科消化器科クリニック", "url": "https://www.kaigokensaku.mhlw.go.jp/37/index.php?action_kouhyou_detail_004_kani=true&JigyosyoCd=3710118021-00&ServiceCd=160&Type=search", "url2": null }, "geometry": { "type": "Point", "coordinates": [ 134.043206599999962, 34.3061358 ] } },
{ "type": "Feature", "properties": { "内容": "セントラルパーククリニック通所リハビリテーションセンター【通所リハビリテーション】香川県高松市番町1丁目10番16号", "url": "https://www.kaigokensaku.mhlw.go.jp/37/index.php?action_kouhyou_detail_004_kani=true&JigyosyoCd=3710117023-00&ServiceCd=160&Type=search", "url2": "http://www.miyake.or.jp/" }, "geometry": { "type": "Point", "coordinates": [ 134.045229699999936, 34.340938 ] } },
{ "type": "Feature", "properties": { "内容": "介護老人保健施設　ヴィヴァン【通所リハビリテーション】香川県高松市木太町4443-1", "url": "https://www.kaigokensaku.mhlw.go.jp/37/index.php?action_kouhyou_detail_004_kani=true&JigyosyoCd=3750180063-00&ServiceCd=160&Type=search", "url2": "http://vivant.jp.net/" }, "geometry": { "type": "Point", "coordinates": [ 134.079200600000036, 34.3099799 ] } },
{ "type": "Feature", "properties": { "内容": "医療法人社団おか整形・リハビリクリニック通所リハビリテーション【通所リハビリテーション】香川県高松市西ハゼ町8番地1", "url": "https://www.kaigokensaku.mhlw.go.jp/37/index.php?action_kouhyou_detail_004_kani=true&JigyosyoCd=3710119409-00&ServiceCd=160&Type=search", "url2": null }, "geometry": { "type": "Point", "coordinates": [ 134.037598300000013, 34.3215994 ] } },
{ "type": "Feature", "properties": { "内容": "こくぶ脳外科・内科クリニック【通所リハビリテーション】香川県高松市国分寺町福家3812-1イオンタウン国分寺メディカルモール", "url": "https://www.kaigokensaku.mhlw.go.jp/37/index.php?action_kouhyou_detail_004_kani=true&JigyosyoCd=3710120522-00&ServiceCd=160&Type=search", "url2": "http://www.kokubu-clinic.jp/" }, "geometry": { "type": "Point", "coordinates": [ 133.961905099999967, 34.2933391 ] } },
{ "type": "Feature", "properties": { "内容": "リハビリセンター　プラザ【通所リハビリテーション】香川県高松市松縄町35-3広瀬病院リハビリ棟1階", "url": "https://www.kaigokensaku.mhlw.go.jp/37/index.php?action_kouhyou_detail_004_kani=true&JigyosyoCd=3710116470-00&ServiceCd=160&Type=search", "url2": "http://www.hirose-hosp.or.jp" }, "geometry": { "type": "Point", "coordinates": [ 134.0644155, 34.3223955 ] } },
{ "type": "Feature", "properties": { "内容": "デイケア西高松【通所リハビリテーション】香川県高松市郷東町148-3第2メディカルビル2F", "url": "https://www.kaigokensaku.mhlw.go.jp/37/index.php?action_kouhyou_detail_004_kani=true&JigyosyoCd=3710119912-00&ServiceCd=160&Type=search", "url2": "https://brain.nishitakamatsu.jp/" }, "geometry": { "type": "Point", "coordinates": [ 134.016952105310139, 34.345140760188414 ] } },
{ "type": "Feature", "properties": { "内容": "デイケアセンター希望の輪【通所リハビリテーション】香川県高松市香西東町433番地1", "url": "https://www.kaigokensaku.mhlw.go.jp/37/index.php?action_kouhyou_detail_004_kani=true&JigyosyoCd=3710121702-00&ServiceCd=160&Type=search", "url2": "https://machikuri.or.jp/" }, "geometry": { "type": "Point", "coordinates": [ 134.008346, 34.3448067 ] } },
{ "type": "Feature", "properties": { "内容": "デイケア内視鏡【通所リハビリテーション】香川県高松市福岡町4丁目28番30号小竹ビル2階", "url": "https://www.kaigokensaku.mhlw.go.jp/37/index.php?action_kouhyou_detail_004_kani=true&JigyosyoCd=3710121306-00&ServiceCd=160&Type=search", "url2": "https://www.nishitakamatsu.jp/" }, "geometry": { "type": "Point", "coordinates": [ 134.066985360713204, 34.339865728684799 ] } },
{ "type": "Feature", "properties": { "内容": "医療法人社団有史会　高畠病院【通所リハビリテーション】香川県高松市国分寺町新名481番地9", "url": "https://www.kaigokensaku.mhlw.go.jp/37/index.php?action_kouhyou_detail_004_kani=true&JigyosyoCd=3710119128-00&ServiceCd=160&Type=search", "url2": "http://www.takabatakehospital.com" }, "geometry": { "type": "Point", "coordinates": [ 133.958278879762247, 34.292241182354644 ] } },
{ "type": "Feature", "properties": { "内容": "介護老人保健施設ロイヤル三好【通所リハビリテーション】香川県高松市下田井町６２８－１", "url": "https://www.kaigokensaku.mhlw.go.jp/37/index.php?action_kouhyou_detail_004_kani=true&JigyosyoCd=3750180097-00&ServiceCd=160&Type=search", "url2": null }, "geometry": { "type": "Point", "coordinates": [ 134.089196799999968, 34.2902047 ] } },
{ "type": "Feature", "properties": { "内容": "介護老人保健施設さつき荘【通所リハビリテーション】高松市三谷町1680番地", "url": "https://www.kaigokensaku.mhlw.go.jp/37/index.php?action_kouhyou_detail_004_kani=true&JigyosyoCd=3750180089-00&ServiceCd=160&Type=search", "url2": "https://seimeikai.jp/satsuki/" }, "geometry": { "type": "Point", "coordinates": [ 134.059942, 34.2798723 ] } },
{ "type": "Feature", "properties": { "内容": "介護老人保健施設　渡の里【通所リハビリテーション】高松市香川町浅野2061番地", "url": "https://www.kaigokensaku.mhlw.go.jp/37/index.php?action_kouhyou_detail_004_kani=true&JigyosyoCd=3750180147-00&ServiceCd=160&Type=search", "url2": "http://www.jinsenkai.jp/watashi/" }, "geometry": { "type": "Point", "coordinates": [ 134.041880399999968, 34.2513122 ] } },
{ "type": "Feature", "properties": { "内容": "介護老人保健施設　鮎の里【通所リハビリテーション】高松市香川町川東上150番地1", "url": "https://www.kaigokensaku.mhlw.go.jp/37/index.php?action_kouhyou_detail_004_kani=true&JigyosyoCd=3751480033-00&ServiceCd=160&Type=search", "url2": "http://www.jinsenkai.jp/ayu/" }, "geometry": { "type": "Point", "coordinates": [ 134.034368500000028, 34.2137707 ] } },
{ "type": "Feature", "properties": { "内容": "三好内科医院デイケアセンター【通所リハビリテーション】香川県高松市川島本町431-5", "url": "https://www.kaigokensaku.mhlw.go.jp/37/index.php?action_kouhyou_detail_004_kani=true&JigyosyoCd=3770101370-00&ServiceCd=160&Type=search", "url2": null }, "geometry": { "type": "Point", "coordinates": [ 134.0823421, 34.2763761 ] } },
{ "type": "Feature", "properties": { "内容": "介護老人保健施設サンフラワー【通所リハビリテーション】香川県高松市一宮町1556－2", "url": "https://www.kaigokensaku.mhlw.go.jp/37/index.php?action_kouhyou_detail_004_kani=true&JigyosyoCd=3750180113-00&ServiceCd=160&Type=search", "url2": "http://k-rouken.com/facilities/index.php?facility_id=46" }, "geometry": { "type": "Point", "coordinates": [ 134.020080600000028, 34.2901289 ] } },
{ "type": "Feature", "properties": { "内容": "通所リハビリテーション　和【通所リハビリテーション】藤塚町1丁目11番1号", "url": "https://www.kaigokensaku.mhlw.go.jp/37/index.php?action_kouhyou_detail_004_kani=true&JigyosyoCd=3710120449-00&ServiceCd=160&Type=search", "url2": null }, "geometry": { "type": "Point", "coordinates": [ 134.0467188, 34.3335804 ] } },
{ "type": "Feature", "properties": { "内容": "介護老人保健施設　明けの星　通所リハビリテーション【通所リハビリテーション】香川県高松市番町3丁目3-1", "url": "https://www.kaigokensaku.mhlw.go.jp/37/index.php?action_kouhyou_detail_004_kani=true&JigyosyoCd=3750180030-00&ServiceCd=160&Type=search", "url2": "http://akenohoshi.main.jp/" }, "geometry": { "type": "Point", "coordinates": [ 134.0422992, 34.3427767 ] } },
{ "type": "Feature", "properties": { "内容": "通所リハセンターたきがわ【通所リハビリテーション】香川県高松市林町1583-1瀧川整形外科医院内　1階", "url": "https://www.kaigokensaku.mhlw.go.jp/37/index.php?action_kouhyou_detail_004_kani=true&JigyosyoCd=3710116330-00&ServiceCd=160&Type=search", "url2": "http://www.myclinic.ne.jp/t_seikei/pc/" }, "geometry": { "type": "Point", "coordinates": [ 134.071805080951009, 34.303439930780435 ] } },
{ "type": "Feature", "properties": { "内容": "医療法人社団　雙和会　クワヤ病院【通所リハビリテーション】香川県高松市塩屋町1-4", "url": "https://www.kaigokensaku.mhlw.go.jp/37/index.php?action_kouhyou_detail_004_kani=true&JigyosyoCd=3710116744-00&ServiceCd=160&Type=search", "url2": "http://www.kuwaya.or.jp/" }, "geometry": { "type": "Point", "coordinates": [ 134.0550571, 34.3440478 ] } },
{ "type": "Feature", "properties": { "内容": "医療法人社団新進会　通所リハビリテーションおさか【通所リハビリテーション】香川県高松市一宮町861-4", "url": "https://www.kaigokensaku.mhlw.go.jp/37/index.php?action_kouhyou_detail_004_kani=true&JigyosyoCd=3710114756-00&ServiceCd=160&Type=search", "url2": "http://www.osaka-nhp.jp/" }, "geometry": { "type": "Point", "coordinates": [ 134.032182599999942, 34.2917734 ] } },
{ "type": "Feature", "properties": { "内容": "医療法人社団仁泉会　西岡医院【通所リハビリテーション】香川県高松市寺井町1385番地10", "url": "https://www.kaigokensaku.mhlw.go.jp/37/index.php?action_kouhyou_detail_004_kani=true&JigyosyoCd=3710116272-00&ServiceCd=160&Type=search", "url2": "http://www.jinsenkai.jp" }, "geometry": { "type": "Point", "coordinates": [ 134.023519699999952, 34.2820158 ] } },
{ "type": "Feature", "properties": { "内容": "石川内科胃腸科医院【通所リハビリテーション】香川県高松市松縄町48-2", "url": "https://www.kaigokensaku.mhlw.go.jp/37/index.php?action_kouhyou_detail_004_kani=true&JigyosyoCd=3710119342-00&ServiceCd=160&Type=search", "url2": "http://www.ishikawa-naikaiin.com/daycare.html" }, "geometry": { "type": "Point", "coordinates": [ 134.0613075, 34.322726 ] } },
{ "type": "Feature", "properties": { "内容": "介護老人保健施設　香南苑【通所リハビリテーション】香川県高松市香南町池内７０１番地", "url": "https://www.kaigokensaku.mhlw.go.jp/37/index.php?action_kouhyou_detail_004_kani=true&JigyosyoCd=3751480017-00&ServiceCd=160&Type=search", "url2": "https://kounanen.com/" }, "geometry": { "type": "Point", "coordinates": [ 133.997588275532507, 34.250280729212129 ] } },
{ "type": "Feature", "properties": { "内容": "デイケアセンターますらを【通所リハビリテーション】香川町大野465-1", "url": "https://www.kaigokensaku.mhlw.go.jp/37/index.php?action_kouhyou_detail_004_kani=true&JigyosyoCd=3710118963-00&ServiceCd=160&Type=search", "url2": "http://kiraku.bz/" }, "geometry": { "type": "Point", "coordinates": [ 134.028348839286764, 34.256826711552016 ] } },
{ "type": "Feature", "properties": { "内容": "医療法人和光会　前田病院【通所リハビリテーション】東ハゼ町824番地", "url": "https://www.kaigokensaku.mhlw.go.jp/37/index.php?action_kouhyou_detail_004_kani=true&JigyosyoCd=3710112511-00&ServiceCd=160&Type=search", "url2": "https://www.maeda-hosp.com/" }, "geometry": { "type": "Point", "coordinates": [ 134.03891150000004, 34.3205204 ] } },
{ "type": "Feature", "properties": { "内容": "医療法人　和光会　高松老人保健施設フローラ【通所リハビリテーション】香川県高松市東ハゼ町８３０－１", "url": "https://www.kaigokensaku.mhlw.go.jp/37/index.php?action_kouhyou_detail_004_kani=true&JigyosyoCd=3750180014-00&ServiceCd=160&Type=search", "url2": "http://www.k-rouken.com/facilities/index.php?facility_id=2" }, "geometry": { "type": "Point", "coordinates": [ 134.03921420000006, 34.3204982 ] } },
{ "type": "Feature", "properties": { "内容": "介護老人保健施設ハピネスデイケアサービス【通所リハビリテーション】香川県高松市中山町741番地1", "url": "https://www.kaigokensaku.mhlw.go.jp/37/index.php?action_kouhyou_detail_004_kani=true&JigyosyoCd=3750180048-00&ServiceCd=160&Type=search", "url2": "http:/www.shinboukai.net/" }, "geometry": { "type": "Point", "coordinates": [ 133.972836, 34.3562904 ] } },
{ "type": "Feature", "properties": { "内容": "介護老人保健施設虹の里【通所リハビリテーション】高松市栗林町一丁目3番24号", "url": "https://www.kaigokensaku.mhlw.go.jp/37/index.php?action_kouhyou_detail_004_kani=true&JigyosyoCd=3750180071-00&ServiceCd=160&Type=search", "url2": "http://www.kagawa.coop/" }, "geometry": { "type": "Point", "coordinates": [ 134.04682170000001, 34.3318083 ] } },
{ "type": "Feature", "properties": { "内容": "老人保健施設　健祥会バーデン【通所リハビリテーション】香川県高松市塩江町安原上東137番地", "url": "https://www.kaigokensaku.mhlw.go.jp/37/index.php?action_kouhyou_detail_004_kani=true&JigyosyoCd=3751480025-00&ServiceCd=160&Type=search", "url2": "https://www.kenshokai.group" }, "geometry": { "type": "Point", "coordinates": [ 134.0818203, 34.1712382 ] } },
{ "type": "Feature", "properties": { "内容": "デイケア東高松【通所リハビリテーション】香川県高松市高松町2310番地2東高松クリニック２F", "url": "https://www.kaigokensaku.mhlw.go.jp/37/index.php?action_kouhyou_detail_004_kani=true&JigyosyoCd=3710116041-00&ServiceCd=160&Type=search", "url2": "https://east.nishitakamatsu.jp/daycare" }, "geometry": { "type": "Point", "coordinates": [ 134.118178, 34.3401097 ] } },
{ "type": "Feature", "properties": { "内容": "太田クリニック【通所リハビリテーション】香川県高松市福岡町二丁目２４番２６号", "url": "https://www.kaigokensaku.mhlw.go.jp/37/index.php?action_kouhyou_detail_004_kani=true&JigyosyoCd=3710120944-00&ServiceCd=160&Type=search", "url2": "http://www.rakuraku-group.jp/" }, "geometry": { "type": "Point", "coordinates": [ 134.0646117, 34.343974 ] } },
{ "type": "Feature", "properties": { "内容": "通所リハビリテーション　桃源郷【通所リハビリテーション】香川県高松市十川西町368番地1", "url": "https://www.kaigokensaku.mhlw.go.jp/37/index.php?action_kouhyou_detail_004_kani=true&JigyosyoCd=3770103772-00&ServiceCd=160&Type=search", "url2": null }, "geometry": { "type": "Point", "coordinates": [ 134.103292, 34.2759295 ] } },
{ "type": "Feature", "properties": { "内容": "西川クリニック　通所リハビリテーション　光のかけら【通所リハビリテーション】香川県高松市瓦町1-4-5", "url": "https://www.kaigokensaku.mhlw.go.jp/37/index.php?action_kouhyou_detail_004_kani=true&JigyosyoCd=3770105082-00&ServiceCd=160&Type=search", "url2": "http://nishic.com" }, "geometry": { "type": "Point", "coordinates": [ 134.052757199999974, 34.3417131 ] } },
{ "type": "Feature", "properties": { "内容": "渋谷整形外科医院通所リハビリテーション【通所リハビリテーション】牟礼町牟礼９８６－１", "url": "https://www.kaigokensaku.mhlw.go.jp/37/index.php?action_kouhyou_detail_004_kani=true&JigyosyoCd=3710118757-00&ServiceCd=160&Type=search", "url2": "shibuya-seikei.com" }, "geometry": { "type": "Point", "coordinates": [ 134.130788400000029, 34.342474 ] } },
{ "type": "Feature", "properties": { "内容": "高松協同病院【通所リハビリテーション】高松市木太町4664番地", "url": "https://www.kaigokensaku.mhlw.go.jp/37/index.php?action_kouhyou_detail_004_kani=true&JigyosyoCd=3710120027-00&ServiceCd=160&Type=search", "url2": "http://www.h7.dion.ne.jp/~kyodo" }, "geometry": { "type": "Point", "coordinates": [ 134.085785499999929, 34.3231871 ] } },
{ "type": "Feature", "properties": { "内容": "瀬戸内リハビリセンター【通所リハビリテーション】香川県丸亀市川西町北１８８－１", "url": "https://www.kaigokensaku.mhlw.go.jp/37/index.php?action_kouhyou_detail_004_kani=true&JigyosyoCd=3770200834-00&ServiceCd=160&Type=search", "url2": "http://www.setouchi-cl-care.com/m/" }, "geometry": { "type": "Point", "coordinates": [ 133.825739399999946, 34.2592432 ] } },
{ "type": "Feature", "properties": { "内容": "医療法人社団　田村クリニック　通所リハビリテーションセンターかもめくらぶ【通所リハビリテーション】丸亀市幸町一丁目５番５号", "url": "https://www.kaigokensaku.mhlw.go.jp/37/index.php?action_kouhyou_detail_004_kani=true&JigyosyoCd=3770200719-00&ServiceCd=160&Type=search", "url2": "http://www.tamura-clin.com/" }, "geometry": { "type": "Point", "coordinates": [ 133.7894344, 34.2877842 ] } },
{ "type": "Feature", "properties": { "内容": "医療法人社団良亜会　アイファミリークリニックデイケアセンター【通所リハビリテーション】香川県丸亀市川西町南８２６番地アイファミリークリニック", "url": "https://www.kaigokensaku.mhlw.go.jp/37/index.php?action_kouhyou_detail_004_kani=true&JigyosyoCd=3710212451-00&ServiceCd=160&Type=search", "url2": "http://aifamily-clinic.com/" }, "geometry": { "type": "Point", "coordinates": [ 133.832710370855239, 34.245644929958374 ] } },
{ "type": "Feature", "properties": { "内容": "医療法人仁寿会吉田病院【通所リハビリテーション】香川県丸亀市宗古町5番地", "url": "https://www.kaigokensaku.mhlw.go.jp/37/index.php?action_kouhyou_detail_004_kani=true&JigyosyoCd=3710211784-00&ServiceCd=160&Type=search", "url2": "http：//yoshida-hp・jimdo．com" }, "geometry": { "type": "Point", "coordinates": [ 133.796239, 34.2926058 ] } },
{ "type": "Feature", "properties": { "内容": "介護老人保健施設　桃源苑【通所リハビリテーション】香川県丸亀市飯山町下法軍寺８６５－１", "url": "https://www.kaigokensaku.mhlw.go.jp/37/index.php?action_kouhyou_detail_004_kani=true&JigyosyoCd=3751580048-00&ServiceCd=160&Type=search", "url2": "http://www.kensui-kai.or.jp/tougenen/" }, "geometry": { "type": "Point", "coordinates": [ 133.855387899999982, 34.252594 ] } },
{ "type": "Feature", "properties": { "内容": "介護老人保健施設すこやか苑【通所リハビリテーション】香川県丸亀市郡家町2472番", "url": "https://www.kaigokensaku.mhlw.go.jp/37/index.php?action_kouhyou_detail_004_kani=true&JigyosyoCd=3750280038-00&ServiceCd=160&Type=search", "url2": "http:/www.k-ih.com" }, "geometry": { "type": "Point", "coordinates": [ 133.809702199999947, 34.2558408 ] } },
{ "type": "Feature", "properties": { "内容": "通所リハビリテーションまるがめ【通所リハビリテーション】香川県丸亀市津森町字拾丁分162番4", "url": "https://www.kaigokensaku.mhlw.go.jp/37/index.php?action_kouhyou_detail_004_kani=true&JigyosyoCd=3710212469-00&ServiceCd=160&Type=search", "url2": "http://www.jyujin-asadahp.jp" }, "geometry": { "type": "Point", "coordinates": [ 133.790245499999969, 34.2844096 ] } },
{ "type": "Feature", "properties": { "内容": "介護老人保健施設　福寿荘【通所リハビリテーション】香川県丸亀市柞原町187番地1", "url": "https://www.kaigokensaku.mhlw.go.jp/37/index.php?action_kouhyou_detail_004_kani=true&JigyosyoCd=3750280012-00&ServiceCd=160&Type=search", "url2": "http://www.mifune-hp.jp" }, "geometry": { "type": "Point", "coordinates": [ 133.805935800000043, 34.2663979 ] } },
{ "type": "Feature", "properties": { "内容": "介護老人保健施設　あおのやま【通所リハビリテーション】香川県丸亀市土器町東四丁目78番地3", "url": "https://www.kaigokensaku.mhlw.go.jp/37/index.php?action_kouhyou_detail_004_kani=true&JigyosyoCd=3750280020-00&ServiceCd=160&Type=search", "url2": "https://houjyuen.web.fc2.com" }, "geometry": { "type": "Point", "coordinates": [ 133.820138899999961, 34.2919559 ] } },
{ "type": "Feature", "properties": { "内容": "ききょう通所リハビリテーション事業所【通所リハビリテーション】香川県丸亀市土器町東7丁目886", "url": "https://www.kaigokensaku.mhlw.go.jp/37/index.php?action_kouhyou_detail_004_kani=true&JigyosyoCd=3710212253-00&ServiceCd=160&Type=search", "url2": "https://miuraclinic-marugame.jp/" }, "geometry": { "type": "Point", "coordinates": [ 133.809793962565607, 34.297503140210964 ] } },
{ "type": "Feature", "properties": { "内容": "回生病院　通所リハビリテーション事業所【通所リハビリテーション】香川県坂出市室町3丁目5番28号", "url": "https://www.kaigokensaku.mhlw.go.jp/37/index.php?action_kouhyou_detail_004_kani=true&JigyosyoCd=3710310867-00&ServiceCd=160&Type=search", "url2": "http://www.kaisei.or.jp" }, "geometry": { "type": "Point", "coordinates": [ 133.861674, 34.3178691 ] } },
{ "type": "Feature", "properties": { "内容": "みのりん【通所リハビリテーション】香川県坂出市駒止町１丁目3-5ライフスクエア坂出２階", "url": "https://www.kaigokensaku.mhlw.go.jp/37/index.php?action_kouhyou_detail_004_kani=true&JigyosyoCd=3710311782-00&ServiceCd=160&Type=search", "url2": "https://www.minori-clinic.jp/minorin" }, "geometry": { "type": "Point", "coordinates": [ 133.8563533, 34.3114161 ] } },
{ "type": "Feature", "properties": { "内容": "ＭＩＲＡＩ病院　デイケアセンター【通所リハビリテーション】香川県坂出市加茂町５９１番地", "url": "https://www.kaigokensaku.mhlw.go.jp/37/index.php?action_kouhyou_detail_004_kani=true&JigyosyoCd=3770300261-00&ServiceCd=160&Type=search", "url2": "https://www.mirai-hospital.com/daycare/" }, "geometry": { "type": "Point", "coordinates": [ 133.910240760118882, 34.3068550207012 ] } },
{ "type": "Feature", "properties": { "内容": "介護老人保健施設　松寿荘　通所リハビリテーション【通所リハビリテーション】香川県坂出市大屋冨町３１００番地２６", "url": "https://www.kaigokensaku.mhlw.go.jp/37/index.php?action_kouhyou_detail_004_kani=true&JigyosyoCd=3750380044-00&ServiceCd=160&Type=search", "url2": "http:www.shouju.or.jp" }, "geometry": { "type": "Point", "coordinates": [ 133.893514200000027, 34.3559393 ] } },
{ "type": "Feature", "properties": { "内容": "医療法人社団　まえだ整形外科外科医院【通所リハビリテーション】香川県坂出市室町3丁目1-13", "url": "https://www.kaigokensaku.mhlw.go.jp/37/index.php?action_kouhyou_detail_004_kani=true&JigyosyoCd=3710311402-00&ServiceCd=160&Type=search", "url2": "http://www.maedaseikei.net" }, "geometry": { "type": "Point", "coordinates": [ 133.860304600000063, 34.3174191 ] } },
{ "type": "Feature", "properties": { "内容": "介護老人保健施設　小山荘　通所リハビリテーション【通所リハビリテーション】香川県坂出市小山町1番62号", "url": "https://www.kaigokensaku.mhlw.go.jp/37/index.php?action_kouhyou_detail_004_kani=true&JigyosyoCd=3750380028-00&ServiceCd=160&Type=search", "url2": "https://koyamasou.jimdofree.com" }, "geometry": { "type": "Point", "coordinates": [ 133.8525067, 34.2994335 ] } },
{ "type": "Feature", "properties": { "内容": "医療法人社団　秀和会　かじはらデイケアセンター【通所リハビリテーション】香川県坂出市川津町2785番地1", "url": "https://www.kaigokensaku.mhlw.go.jp/37/index.php?action_kouhyou_detail_004_kani=true&JigyosyoCd=3710311758-00&ServiceCd=160&Type=search", "url2": "https://kajihara-pain.com/daycare/" }, "geometry": { "type": "Point", "coordinates": [ 133.855617400000028, 34.2872481 ] } },
{ "type": "Feature", "properties": { "内容": "医療法人社団響会　林内科呼吸器科医院【通所リハビリテーション】香川県坂出市白金町３丁目６番１１号", "url": "https://www.kaigokensaku.mhlw.go.jp/37/index.php?action_kouhyou_detail_004_kani=true&JigyosyoCd=3710311394-00&ServiceCd=160&Type=search", "url2": "https://hayashinaika.wisite.com/hibikikai" }, "geometry": { "type": "Point", "coordinates": [ 133.845453550926209, 34.316558374637367 ] } },
{ "type": "Feature", "properties": { "内容": "永井デイケアセンター【通所リハビリテーション】坂出市川津町2730", "url": "https://www.kaigokensaku.mhlw.go.jp/37/index.php?action_kouhyou_detail_004_kani=true&JigyosyoCd=3770300808-00&ServiceCd=160&Type=search", "url2": "http://www.kbn.ne.jp/home/kym0007/nagai/daycare/index.html" }, "geometry": { "type": "Point", "coordinates": [ 133.855715217756227, 34.287620184068757 ] } },
{ "type": "Feature", "properties": { "内容": "介護老人保健施設五色台【通所リハビリテーション】香川県坂出市加茂町194番地1", "url": "https://www.kaigokensaku.mhlw.go.jp/37/index.php?action_kouhyou_detail_004_kani=true&JigyosyoCd=3750380036-00&ServiceCd=160&Type=search", "url2": "http://www.goshikidai.or.jp" }, "geometry": { "type": "Point", "coordinates": [ 133.922638600000028, 34.3025945 ] } },
{ "type": "Feature", "properties": { "内容": "介護老人保健施設　城山苑【通所リハビリテーション】坂出市川津町1493番地", "url": "https://www.kaigokensaku.mhlw.go.jp/37/index.php?action_kouhyou_detail_004_kani=true&JigyosyoCd=3750380051-00&ServiceCd=160&Type=search", "url2": "http://www.nagai-group.com/" }, "geometry": { "type": "Point", "coordinates": [ 133.869985700000029, 34.2917282 ] } },
{ "type": "Feature", "properties": { "内容": "介護老人保健施設　ハートフルねんりん荘【通所リハビリテーション】香川県善通寺市中村町851-1", "url": "https://www.kaigokensaku.mhlw.go.jp/37/index.php?action_kouhyou_detail_004_kani=true&JigyosyoCd=3750480026-00&ServiceCd=160&Type=search", "url2": "http://www.junshinkai/com/facilitie/heartfull_n.html" }, "geometry": { "type": "Point", "coordinates": [ 133.763865, 34.244683 ] } },
{ "type": "Feature", "properties": { "内容": "香川医療生活協同組合　善通寺診療所【通所リハビリテーション】善通寺市上吉田町６－８－９", "url": "https://www.kaigokensaku.mhlw.go.jp/37/index.php?action_kouhyou_detail_004_kani=true&JigyosyoCd=3710410717-00&ServiceCd=160&Type=search", "url2": "http://www.kagawa.coop/hospizentuji/index.heml" }, "geometry": { "type": "Point", "coordinates": [ 133.7846217, 34.2307046 ] } },
{ "type": "Feature", "properties": { "内容": "大杉脳外科デイケアセンター【通所リハビリテーション】香川県善通寺市大麻町2079番地1", "url": "https://www.kaigokensaku.mhlw.go.jp/37/index.php?action_kouhyou_detail_004_kani=true&JigyosyoCd=3770400145-00&ServiceCd=160&Type=search", "url2": "https://www.osugi-mao.jp" }, "geometry": { "type": "Point", "coordinates": [ 133.799843, 34.2159144 ] } },
{ "type": "Feature", "properties": { "内容": "介護医療院千手苑通所リハビリテーション【通所リハビリテーション】香川県善通寺市原田町1486番地3", "url": "https://www.kaigokensaku.mhlw.go.jp/37/index.php?action_kouhyou_detail_004_kani=true&JigyosyoCd=37B0400013-00&ServiceCd=160&Type=search", "url2": "http://www.senju-group.or.jp" }, "geometry": { "type": "Point", "coordinates": [ 133.787631299999987, 34.2537342 ] } },
{ "type": "Feature", "properties": { "内容": "三豊総合病院企業団介護老人保健施設わたつみ苑【通所リハビリテーション】香川県観音寺市豊浜町姫浜1260番地1", "url": "https://www.kaigokensaku.mhlw.go.jp/37/index.php?action_kouhyou_detail_004_kani=true&JigyosyoCd=3751780051-00&ServiceCd=160&Type=search", "url2": "http://www.mitoyo-hosp.jp" }, "geometry": { "type": "Point", "coordinates": [ 133.642027900000016, 34.0811052 ] } },
{ "type": "Feature", "properties": { "内容": "介護老人保健施設はがみ苑通所リハビリテーション【通所リハビリテーション】香川県観音寺市原町1273番地3", "url": "https://www.kaigokensaku.mhlw.go.jp/37/index.php?action_kouhyou_detail_004_kani=true&JigyosyoCd=3750580015-00&ServiceCd=160&Type=search", "url2": "http://care-net.biz/37/hagami/" }, "geometry": { "type": "Point", "coordinates": [ 133.692743, 34.1063827 ] } },
{ "type": "Feature", "properties": { "内容": "介護老人保健施設　観音寺ケアセンター【通所リハビリテーション】香川県観音寺市村黒町７５０番地", "url": "https://www.kaigokensaku.mhlw.go.jp/37/index.php?action_kouhyou_detail_004_kani=true&JigyosyoCd=3750580023-00&ServiceCd=160&Type=search", "url2": null }, "geometry": { "type": "Point", "coordinates": [ 133.6660723, 34.1329518 ] } },
{ "type": "Feature", "properties": { "内容": "香川井下病院デイケアセンター【通所リハビリテーション】香川県観音寺市大野原町花稲1473番地1", "url": "https://www.kaigokensaku.mhlw.go.jp/37/index.php?action_kouhyou_detail_004_kani=true&JigyosyoCd=3771700659-00&ServiceCd=160&Type=search", "url2": "http://www.kagawa-inoshita-hospital.or.jp" }, "geometry": { "type": "Point", "coordinates": [ 133.643196799999942, 34.0941786 ] } },
{ "type": "Feature", "properties": { "内容": "介護老人保健施設ひうち荘【通所リハビリテーション】香川県観音寺市大野原町内野々394番地1", "url": "https://www.kaigokensaku.mhlw.go.jp/37/index.php?action_kouhyou_detail_004_kani=true&JigyosyoCd=3751780010-00&ServiceCd=160&Type=search", "url2": "http://onoharahukushi.com" }, "geometry": { "type": "Point", "coordinates": [ 133.700676299999941, 34.0600466 ] } },
{ "type": "Feature", "properties": { "内容": "介護老人保健施設　ポタラの森【通所リハビリテーション】香川県さぬき市志度1102番地3", "url": "https://www.kaigokensaku.mhlw.go.jp/37/index.php?action_kouhyou_detail_004_kani=true&JigyosyoCd=3751180039-00&ServiceCd=160&Type=search", "url2": "http://www.potara.jp" }, "geometry": { "type": "Point", "coordinates": [ 134.179985100000067, 34.3247015 ] } },
{ "type": "Feature", "properties": { "内容": "米沢整形外科通所リハビリテーションセンター【通所リハビリテーション】香川県さぬき市志度1939-3", "url": "https://www.kaigokensaku.mhlw.go.jp/37/index.php?action_kouhyou_detail_004_kani=true&JigyosyoCd=3770600348-00&ServiceCd=160&Type=search", "url2": "https://www.yonezawa-seikeigeka.com" }, "geometry": { "type": "Point", "coordinates": [ 134.185173299999974, 34.3217159 ] } },
{ "type": "Feature", "properties": { "内容": "老人保健施設さわやか荘【通所リハビリテーション】香川県さぬき市津田町津田２２０７番地", "url": "https://www.kaigokensaku.mhlw.go.jp/37/index.php?action_kouhyou_detail_004_kani=true&JigyosyoCd=3751180047-00&ServiceCd=160&Type=search", "url2": "https://sawayakakaigo.or.jp/" }, "geometry": { "type": "Point", "coordinates": [ 134.2389743, 34.2944693 ] } },
{ "type": "Feature", "properties": { "内容": "医療法人社団　陶山医院デイケア有情【通所リハビリテーション】香川県さぬき大川町田面71-1", "url": "https://www.kaigokensaku.mhlw.go.jp/37/index.php?action_kouhyou_detail_004_kani=true&JigyosyoCd=3770600116-00&ServiceCd=160&Type=search", "url2": null }, "geometry": { "type": "Point", "coordinates": [ 134.250823699999955, 34.2579678 ] } },
{ "type": "Feature", "properties": { "内容": "介護老人保健施設悠々荘　指定通所リハビリテーション【通所リハビリテーション】さぬき市昭和１００５－５", "url": "https://www.kaigokensaku.mhlw.go.jp/37/index.php?action_kouhyou_detail_004_kani=true&JigyosyoCd=3751180021-00&ServiceCd=160&Type=search", "url2": "https://syunkidou.or.jp/" }, "geometry": { "type": "Point", "coordinates": [ 134.165043299999979, 34.2471772 ] } },
{ "type": "Feature", "properties": { "内容": "介護老人保健施設　ヌーベルさんがわ　通所リハビリテーション【通所リハビリテーション】香川県さぬき市寒川町石田東甲１７０番地", "url": "https://www.kaigokensaku.mhlw.go.jp/37/index.php?action_kouhyou_detail_004_kani=true&JigyosyoCd=3751180054-00&ServiceCd=160&Type=search", "url2": "http://www.yu-syo.or.jp" }, "geometry": { "type": "Point", "coordinates": [ 134.202685104646349, 34.267805246928674 ] } },
{ "type": "Feature", "properties": { "内容": "志度あきやまクリニック【通所リハビリテーション】香川県さぬき市志度2351-1", "url": "https://www.kaigokensaku.mhlw.go.jp/37/index.php?action_kouhyou_detail_004_kani=true&JigyosyoCd=3710610514-00&ServiceCd=160&Type=search", "url2": "https://shido-akiyamaclinic.doctorsfile.jp/" }, "geometry": { "type": "Point", "coordinates": [ 134.173333506082116, 34.316695685326238 ] } },
{ "type": "Feature", "properties": { "内容": "華山ファミリークリニック【通所リハビリテーション】香川県さぬき市寒川町神前1526-1", "url": "https://www.kaigokensaku.mhlw.go.jp/37/index.php?action_kouhyou_detail_004_kani=true&JigyosyoCd=3710610423-00&ServiceCd=160&Type=search", "url2": "ｈｔｔｐ：//www.koutouen.com/" }, "geometry": { "type": "Point", "coordinates": [ 134.208049, 34.2867666 ] } },
{ "type": "Feature", "properties": { "内容": "指定通所リハビリテーション事業所さかもと【通所リハビリテーション】香川県東かがわ市川東106番地3", "url": "https://www.kaigokensaku.mhlw.go.jp/37/index.php?action_kouhyou_detail_004_kani=true&JigyosyoCd=3770700080-00&ServiceCd=160&Type=search", "url2": "http://www.sakamoto-hosp.or.jp" }, "geometry": { "type": "Point", "coordinates": [ 134.331513653967249, 34.249100995996315 ] } },
{ "type": "Feature", "properties": { "内容": "介護老人保健施設ひまわり【通所リハビリテーション】東かがわ市三本松１６６５－１", "url": "https://www.kaigokensaku.mhlw.go.jp/37/index.php?action_kouhyou_detail_004_kani=true&JigyosyoCd=3751180062-00&ServiceCd=160&Type=search", "url2": "http://www.ohta-medical.org/roken/" }, "geometry": { "type": "Point", "coordinates": [ 134.337955700000066, 34.2471521 ] } },
{ "type": "Feature", "properties": { "内容": "太田病院通所リハビリテーションひまわり【通所リハビリテーション】香川県東かがわ市三本松1758", "url": "https://www.kaigokensaku.mhlw.go.jp/37/index.php?action_kouhyou_detail_004_kani=true&JigyosyoCd=3710710371-00&ServiceCd=160&Type=search", "url2": "http://www.otahospital.org/" }, "geometry": { "type": "Point", "coordinates": [ 134.3391805, 34.2480965 ] } },
{ "type": "Feature", "properties": { "内容": "介護老人保健施設リリックケアセンター通所リハビリテーション事業所【通所リハビリテーション】香川県東かがわ市湊1867番地2", "url": "https://www.kaigokensaku.mhlw.go.jp/37/index.php?action_kouhyou_detail_004_kani=true&JigyosyoCd=3751180013-00&ServiceCd=160&Type=search", "url2": "http://lily1989.zuishou.net/" }, "geometry": { "type": "Point", "coordinates": [ 134.361018364834507, 34.242791152349284 ] } },
{ "type": "Feature", "properties": { "内容": "介護老人保健施設みの荘通所リハビリテーション【通所リハビリテーション】香川県三豊市三野町大見乙９１番地８", "url": "https://www.kaigokensaku.mhlw.go.jp/37/index.php?action_kouhyou_detail_004_kani=true&JigyosyoCd=3751780028-00&ServiceCd=160&Type=search", "url2": "https://minofukushikai.sun-age.or.jp" }, "geometry": { "type": "Point", "coordinates": [ 133.7206251, 34.2266288 ] } },
{ "type": "Feature", "properties": { "内容": "介護老人保健施設宝壽苑【通所リハビリテーション】香川県三豊市高瀬町上高瀬712-3", "url": "https://www.kaigokensaku.mhlw.go.jp/37/index.php?action_kouhyou_detail_004_kani=true&JigyosyoCd=3750880019-00&ServiceCd=160&Type=search", "url2": "http://houjyukai.info/" }, "geometry": { "type": "Point", "coordinates": [ 133.726256599999942, 34.1984061 ] } },
{ "type": "Feature", "properties": { "内容": "通所リハビリテーションセンターはしもと【通所リハビリテーション】香川県三豊市山本町財田西902番地1", "url": "https://www.kaigokensaku.mhlw.go.jp/37/index.php?action_kouhyou_detail_004_kani=true&JigyosyoCd=3771700956-00&ServiceCd=160&Type=search", "url2": "http://www.wafukai-hashimoto.jp" }, "geometry": { "type": "Point", "coordinates": [ 133.735877699999946, 34.1170398 ] } },
{ "type": "Feature", "properties": { "内容": "介護老人保健施設　白寿の杜【通所リハビリテーション】香川県三豊市詫間町詫間1338番地170", "url": "https://www.kaigokensaku.mhlw.go.jp/37/index.php?action_kouhyou_detail_004_kani=true&JigyosyoCd=3751780044-00&ServiceCd=160&Type=search", "url2": "http://hakujunomori.jp" }, "geometry": { "type": "Point", "coordinates": [ 133.673260699999986, 34.2221153 ] } },
{ "type": "Feature", "properties": { "内容": "三豊市立西香川病院【通所リハビリテーション】香川県三豊市高瀬町比地中２９８６番地３", "url": "https://www.kaigokensaku.mhlw.go.jp/37/index.php?action_kouhyou_detail_004_kani=true&JigyosyoCd=3717011476-00&ServiceCd=160&Type=search", "url2": "nishikagawa.com" }, "geometry": { "type": "Point", "coordinates": [ 133.70176790000005, 34.1742124 ] } },
{ "type": "Feature", "properties": { "内容": "介護老人保健施設　ハートフルあいあい荘【通所リハビリテーション】香川県三豊市仁尾町仁尾辛42-14", "url": "https://www.kaigokensaku.mhlw.go.jp/37/index.php?action_kouhyou_detail_004_kani=true&JigyosyoCd=3751780036-00&ServiceCd=160&Type=search", "url2": "http://www.junshinkai.com/facilitie/heartfull_a.html" }, "geometry": { "type": "Point", "coordinates": [ 133.643886400000042, 34.1922079 ] } },
{ "type": "Feature", "properties": { "内容": "医療法人社団愛有会　岩崎病院【通所リハビリテーション】香川県三豊市詫間町松崎２７８０番地４２６", "url": "https://www.kaigokensaku.mhlw.go.jp/37/index.php?action_kouhyou_detail_004_kani=true&JigyosyoCd=3710810072-00&ServiceCd=160&Type=search", "url2": "http://www.iwasaki-hp.or.jp/" }, "geometry": { "type": "Point", "coordinates": [ 133.690123099999937, 34.2203181 ] } },
{ "type": "Feature", "properties": { "内容": "介護老人保健施設　　豊寿園【通所リハビリテーション】香川県小豆郡小豆島町池田799", "url": "https://www.kaigokensaku.mhlw.go.jp/37/index.php?action_kouhyou_detail_004_kani=true&JigyosyoCd=3751280011-00&ServiceCd=160&Type=search", "url2": "http://www.kaigo-site.net/" }, "geometry": { "type": "Point", "coordinates": [ 134.2300209, 34.4841259 ] } },
{ "type": "Feature", "properties": { "内容": "介護老人保健施設うちのみ【通所リハビリテーション】香川県小豆郡小豆島町片城甲44番地95", "url": "https://www.kaigokensaku.mhlw.go.jp/37/index.php?action_kouhyou_detail_004_kani=true&JigyosyoCd=3751280037-00&ServiceCd=160&Type=search", "url2": null }, "geometry": { "type": "Point", "coordinates": [ 134.307946423278878, 34.479266371784263 ] } },
{ "type": "Feature", "properties": { "内容": "かしむら病院デイケアセンター【通所リハビリテーション】香川県木田郡三木町大字池戸２７６６番地", "url": "https://www.kaigokensaku.mhlw.go.jp/37/index.php?action_kouhyou_detail_004_kani=true&JigyosyoCd=3771300682-00&ServiceCd=160&Type=search", "url2": "http://www.kasimura.org/" }, "geometry": { "type": "Point", "coordinates": [ 134.128749400000061, 34.2712254 ] } },
{ "type": "Feature", "properties": { "内容": "生協みき診療所【通所リハビリテーション】木田郡三木町氷上１１２－１", "url": "https://www.kaigokensaku.mhlw.go.jp/37/index.php?action_kouhyou_detail_004_kani=true&JigyosyoCd=3711310528-00&ServiceCd=160&Type=search", "url2": "kagawa.coop./hospi/hospi_miki/index.html" }, "geometry": { "type": "Point", "coordinates": [ 134.130248186508197, 34.265839733285553 ] } },
{ "type": "Feature", "properties": { "内容": "医療法人社団　讃陽堂　松原病院【通所リハビリテーション】香川県　木田郡　三木町　池戸　３２３２番地　１", "url": "https://www.kaigokensaku.mhlw.go.jp/37/index.php?action_kouhyou_detail_004_kani=true&JigyosyoCd=3711310791-00&ServiceCd=160&Type=search", "url2": "http://www.sanyodo-hp.jp/" }, "geometry": { "type": "Point", "coordinates": [ 134.120983700000011, 34.2747108 ] } },
{ "type": "Feature", "properties": { "内容": "医療法人社団　一真会　デイケアセンターまごころ【通所リハビリテーション】香川県木田郡三木町井戸533-3", "url": "https://www.kaigokensaku.mhlw.go.jp/37/index.php?action_kouhyou_detail_004_kani=true&JigyosyoCd=3771300385-00&ServiceCd=160&Type=search", "url2": "http://www.kawahito.or.jp/" }, "geometry": { "type": "Point", "coordinates": [ 134.156663464912441, 34.252531148666471 ] } },
{ "type": "Feature", "properties": { "内容": "介護老人保健施設　ライトハートいきいき荘【通所リハビリテーション】綾歌郡宇多津町浜五番丁53-11", "url": "https://www.kaigokensaku.mhlw.go.jp/37/index.php?action_kouhyou_detail_004_kani=true&JigyosyoCd=3751580030-00&ServiceCd=160&Type=search", "url2": "http://www.utazufukushikai.or.jp" }, "geometry": { "type": "Point", "coordinates": [ 133.812666626983628, 34.307165244210992 ] } },
{ "type": "Feature", "properties": { "内容": "綾川町国民健康保険綾上診療所【通所リハビリテーション】香川県綾歌郡綾川町山田下3352－1", "url": "https://www.kaigokensaku.mhlw.go.jp/37/index.php?action_kouhyou_detail_004_kani=true&JigyosyoCd=3771500992-00&ServiceCd=160&Type=search", "url2": null }, "geometry": { "type": "Point", "coordinates": [ 133.950048900000013, 34.2253471 ] } },
{ "type": "Feature", "properties": { "内容": "綾川町指定通所リハビリテーション　ふれあい【通所リハビリテーション】香川県綾歌郡綾川町陶1720-1", "url": "https://www.kaigokensaku.mhlw.go.jp/37/index.php?action_kouhyou_detail_004_kani=true&JigyosyoCd=3771500984-00&ServiceCd=160&Type=search", "url2": "http://www.sue-hp.jp/" }, "geometry": { "type": "Point", "coordinates": [ 133.943477700000017, 34.2595458 ] } },
{ "type": "Feature", "properties": { "内容": "介護老人保健施設あやがわ【通所リハビリテーション】香川県綾歌郡綾川町陶1720番地1", "url": "https://www.kaigokensaku.mhlw.go.jp/37/index.php?action_kouhyou_detail_004_kani=true&JigyosyoCd=3751580055-00&ServiceCd=160&Type=search", "url2": "https://www.jadecom.or.jp/hospital/ayagawa.html" }, "geometry": { "type": "Point", "coordinates": [ 133.943477700000017, 34.2595458 ] } },
{ "type": "Feature", "properties": { "内容": "有隣会メディカルケアセンター　リハビリ・デイケア　オーク【通所リハビリテーション】綾歌郡綾川町滝宮559-1", "url": "https://www.kaigokensaku.mhlw.go.jp/37/index.php?action_kouhyou_detail_004_kani=true&JigyosyoCd=3771500422-00&ServiceCd=160&Type=search", "url2": "http://www.mizobuchi-clinic.or.jp/" }, "geometry": { "type": "Point", "coordinates": [ 133.923585399999979, 34.2469579 ] } },
{ "type": "Feature", "properties": { "内容": "医療法人社団愛徳会　デイケア　ステップ【通所リハビリテーション】香川県仲多度郡琴平町７５０", "url": "https://www.kaigokensaku.mhlw.go.jp/37/index.php?action_kouhyou_detail_004_kani=true&JigyosyoCd=3711611180-00&ServiceCd=160&Type=search", "url2": "http://ikedanaika.sakura.ne.jp" }, "geometry": { "type": "Point", "coordinates": [ 133.820313400772079, 34.186517228328896 ] } },
{ "type": "Feature", "properties": { "内容": "指定通所リハビリテーション事業所　ふぁみりえ【通所リハビリテーション】香川県仲多度郡琴平町378番地1", "url": "https://www.kaigokensaku.mhlw.go.jp/37/index.php?action_kouhyou_detail_004_kani=true&JigyosyoCd=3751680012-00&ServiceCd=160&Type=search", "url2": "http://www:ritmo.or.jp/ohnishi" }, "geometry": { "type": "Point", "coordinates": [ 133.817479664495892, 34.193029856702736 ] } },
{ "type": "Feature", "properties": { "内容": "ウツミ整形外科医院通所リハビリテーション【通所リハビリテーション】道福寺138-3", "url": "https://www.kaigokensaku.mhlw.go.jp/37/index.php?action_kouhyou_detail_004_kani=true&JigyosyoCd=3711611032-00&ServiceCd=160&Type=search", "url2": "http://utsumi-clinic.com" }, "geometry": { "type": "Point", "coordinates": [ 133.764082978434772, 34.259835520357029 ] } },
{ "type": "Feature", "properties": { "内容": "介護老人保健施設　やすらぎの森【通所リハビリテーション】香川県仲多度郡多度津町寿町７番３号", "url": "https://www.kaigokensaku.mhlw.go.jp/37/index.php?action_kouhyou_detail_004_kani=true&JigyosyoCd=3751680020-00&ServiceCd=160&Type=search", "url2": "http://katouhp.net/" }, "geometry": { "type": "Point", "coordinates": [ 133.75882660000002, 34.2701493 ] } },
{ "type": "Feature", "properties": { "内容": "介護老人保健施設グリーンヒル満濃【通所リハビリテーション】香川県仲多度郡まんのう町岸上1638番地30", "url": "https://www.kaigokensaku.mhlw.go.jp/37/index.php?action_kouhyou_detail_004_kani=true&JigyosyoCd=3751680038-00&ServiceCd=160&Type=search", "url2": "http://greenhillmannou.web.fc2.com/" }, "geometry": { "type": "Point", "coordinates": [ 133.843188300000065, 34.1709201 ] } },
{ "type": "Feature", "properties": { "内容": "山本ヒフ泌尿器科医院　通所リハビリテーション【通所リハビリテーション】香川県仲多度郡まんのう町四條下村下所1105-1", "url": "https://www.kaigokensaku.mhlw.go.jp/37/index.php?action_kouhyou_detail_004_kani=true&JigyosyoCd=3771600289-00&ServiceCd=160&Type=search", "url2": "http://www.myclinic.ne.jp/yama3258/" }, "geometry": { "type": "Point", "coordinates": [ 133.834529800000041, 34.1932255 ] } },
{ "type": "Feature", "properties": { "内容": "通所リハビリテーション　百百の家【通所リハビリテーション】香川県仲多度郡まんのう町四條７７７番地", "url": "https://www.kaigokensaku.mhlw.go.jp/37/index.php?action_kouhyou_detail_004_kani=true&JigyosyoCd=3771600107-00&ServiceCd=160&Type=search", "url2": "http://www.oguni.or.jp/" }, "geometry": { "type": "Point", "coordinates": [ 133.836815699999988, 34.1953503 ] } },
{ "type": "Feature", "properties": { "内容": "医療法人社団相愛会　川口医院【通所リハビリテーション】香川県仲多度郡まんのう町炭所西1529-5　2階", "url": "https://www.kaigokensaku.mhlw.go.jp/37/index.php?action_kouhyou_detail_004_kani=true&JigyosyoCd=3711611149-00&ServiceCd=160&Type=search", "url2": null }, "geometry": { "type": "Point", "coordinates": [ 133.8807213, 34.1800027 ] } }
]
}
