{
"type": "FeatureCollection",
"name": "geo_37_短期入所生活介護",
"crs": { "type": "name", "properties": { "name": "urn:ogc:def:crs:OGC:1.3:CRS84" } },
"features": [
{ "type": "Feature", "properties": { "内容": "守里苑ショートステイセンター【短期入所生活介護】高松市牟礼町大町２５５５－２", "url": "https://www.kaigokensaku.mhlw.go.jp/37/index.php?action_kouhyou_detail_004_kani=true&JigyosyoCd=3771300211-00&ServiceCd=210&Type=search", "url2": "http://syurikai.com" }, "geometry": { "type": "Point", "coordinates": [ 134.127866400000016, 34.3317032 ] } },
{ "type": "Feature", "properties": { "内容": "サマリヤ松並ショートステイ【短期入所生活介護】香川県　高松市　松並町　５７３", "url": "https://www.kaigokensaku.mhlw.go.jp/37/index.php?action_kouhyou_detail_004_kani=true&JigyosyoCd=3770100398-00&ServiceCd=210&Type=search", "url2": "http://www.samariya.or.jp/" }, "geometry": { "type": "Point", "coordinates": [ 134.027883011036693, 34.316925272122489 ] } },
{ "type": "Feature", "properties": { "内容": "ショートステイ　きょうかＡＮＮＥＸ【短期入所生活介護】香川県高松市春日町424-1", "url": "https://www.kaigokensaku.mhlw.go.jp/37/index.php?action_kouhyou_detail_004_kani=true&JigyosyoCd=3770107195-00&ServiceCd=210&Type=search", "url2": "http://tomohiro-sk.jp/" }, "geometry": { "type": "Point", "coordinates": [ 134.090282300000013, 34.3219372 ] } },
{ "type": "Feature", "properties": { "内容": "まゆみの里ショートステイセンター【短期入所生活介護】香川県高松市木太町2679-1", "url": "https://www.kaigokensaku.mhlw.go.jp/37/index.php?action_kouhyou_detail_004_kani=true&JigyosyoCd=3770107575-00&ServiceCd=210&Type=search", "url2": "http://satokikai.jp/sato/" }, "geometry": { "type": "Point", "coordinates": [ 134.081418699999972, 34.3404743 ] } },
{ "type": "Feature", "properties": { "内容": "逅里苑ショートステイセンター【短期入所生活介護】香川県高松市屋島東町408－1", "url": "https://www.kaigokensaku.mhlw.go.jp/37/index.php?action_kouhyou_detail_004_kani=true&JigyosyoCd=3770101735-00&ServiceCd=210&Type=search", "url2": "http://www.syurikai.com" }, "geometry": { "type": "Point", "coordinates": [ 134.111504100000047, 34.359274800000016 ] } },
{ "type": "Feature", "properties": { "内容": "ユニット型ショートステイセンター逅里苑【短期入所生活介護】屋島東町408-1", "url": "https://www.kaigokensaku.mhlw.go.jp/37/index.php?action_kouhyou_detail_004_kani=true&JigyosyoCd=3770108334-00&ServiceCd=210&Type=search", "url2": "http://www.syurikai.com/" }, "geometry": { "type": "Point", "coordinates": [ 134.111504100000047, 34.3592748 ] } },
{ "type": "Feature", "properties": { "内容": "ショートステイセンター紡音【短期入所生活介護】香川県高松市牟礼町牟礼２３２１－１６", "url": "https://www.kaigokensaku.mhlw.go.jp/37/index.php?action_kouhyou_detail_004_kani=true&JigyosyoCd=3770106643-00&ServiceCd=210&Type=search", "url2": "http://www.syurikai.com/" }, "geometry": { "type": "Point", "coordinates": [ 134.1230229, 34.3402046 ] } },
{ "type": "Feature", "properties": { "内容": "あじの里ショートステイサービスセンター【短期入所生活介護】香川県高松市庵治町4151番地7", "url": "https://www.kaigokensaku.mhlw.go.jp/37/index.php?action_kouhyou_detail_004_kani=true&JigyosyoCd=3771300294-00&ServiceCd=210&Type=search", "url2": "http://care-net.biz/37zaji-sato/" }, "geometry": { "type": "Point", "coordinates": [ 134.143857300000036, 34.3795414 ] } },
{ "type": "Feature", "properties": { "内容": "やまぶき短期入所生活介護事業所【短期入所生活介護】高松市三谷町２７１番地１", "url": "https://www.kaigokensaku.mhlw.go.jp/37/index.php?action_kouhyou_detail_004_kani=true&JigyosyoCd=3770105421-00&ServiceCd=210&Type=search", "url2": "https://hatsukikai.or.jp" }, "geometry": { "type": "Point", "coordinates": [ 134.07556790000001, 34.2772952 ] } },
{ "type": "Feature", "properties": { "内容": "やまぶきユニットショート【短期入所生活介護】三谷町271番地1", "url": "https://www.kaigokensaku.mhlw.go.jp/37/index.php?action_kouhyou_detail_004_kani=true&JigyosyoCd=3770107286-00&ServiceCd=210&Type=search", "url2": "https://hatsukikai.or.jp" }, "geometry": { "type": "Point", "coordinates": [ 134.07556790000001, 34.2772952 ] } },
{ "type": "Feature", "properties": { "内容": "ショートステイセンター　一樹【短期入所生活介護】香川県高松市香西本町17-9", "url": "https://www.kaigokensaku.mhlw.go.jp/37/index.php?action_kouhyou_detail_004_kani=true&JigyosyoCd=3770108052-00&ServiceCd=210&Type=search", "url2": "http://www.syurikai.com/relation/ichijyu.php" }, "geometry": { "type": "Point", "coordinates": [ 134.0039185, 34.3500581 ] } },
{ "type": "Feature", "properties": { "内容": "ショートステイうたい鳥【短期入所生活介護】香川県高松市六条町511番地", "url": "https://www.kaigokensaku.mhlw.go.jp/37/index.php?action_kouhyou_detail_004_kani=true&JigyosyoCd=3770111015-00&ServiceCd=210&Type=search", "url2": "https://www.junshinkai.com/facility/kagawa_takamatsu/entry-166.html" }, "geometry": { "type": "Point", "coordinates": [ 134.078190299999989, 34.2909531 ] } },
{ "type": "Feature", "properties": { "内容": "ショートステイあいむ【短期入所生活介護】香川県高松市国分寺町新居1339－1", "url": "https://www.kaigokensaku.mhlw.go.jp/37/index.php?action_kouhyou_detail_004_kani=true&JigyosyoCd=3770106007-00&ServiceCd=210&Type=search", "url2": "http://www.hiiragikai.com" }, "geometry": { "type": "Point", "coordinates": [ 133.959768899999972, 34.2986495 ] } },
{ "type": "Feature", "properties": { "内容": "花泉　ショートステイセンター【短期入所生活介護】香川県高松市一宮町880番地1ケア＆ホスピタリティ花泉", "url": "https://www.kaigokensaku.mhlw.go.jp/37/index.php?action_kouhyou_detail_004_kani=true&JigyosyoCd=3770107237-00&ServiceCd=210&Type=search", "url2": "www.kishokai.com" }, "geometry": { "type": "Point", "coordinates": [ 134.028938299999936, 34.2923233 ] } },
{ "type": "Feature", "properties": { "内容": "ショートステイ扇寿【短期入所生活介護】香川県高松市香南町横井492-1", "url": "https://www.kaigokensaku.mhlw.go.jp/37/index.php?action_kouhyou_detail_004_kani=true&JigyosyoCd=3771400326-00&ServiceCd=210&Type=search", "url2": "care-net.biz/37/senjyu" }, "geometry": { "type": "Point", "coordinates": [ 134.011903500000017, 34.2448793 ] } },
{ "type": "Feature", "properties": { "内容": "特別養護老人ホーム　竜雲舜虹苑【短期入所生活介護】香川県高松市仏生山町甲3100番地2", "url": "https://www.kaigokensaku.mhlw.go.jp/37/index.php?action_kouhyou_detail_004_kani=true&JigyosyoCd=3770100497-00&ServiceCd=210&Type=search", "url2": "http://www.ryuungakuen.or.jp" }, "geometry": { "type": "Point", "coordinates": [ 134.04741, 34.2650823 ] } },
{ "type": "Feature", "properties": { "内容": "特別養護老人ホーム　一宮の里ショートステイセンター【短期入所生活介護】香川県高松市一宮町875番地", "url": "https://www.kaigokensaku.mhlw.go.jp/37/index.php?action_kouhyou_detail_004_kani=true&JigyosyoCd=3770103004-00&ServiceCd=210&Type=search", "url2": "https://www.kishokai.com" }, "geometry": { "type": "Point", "coordinates": [ 134.0293772, 34.2915428 ] } },
{ "type": "Feature", "properties": { "内容": "ショートステイ　クレール慶【短期入所生活介護】香川県高松市太田下町３０３１－１２", "url": "https://www.kaigokensaku.mhlw.go.jp/37/index.php?action_kouhyou_detail_004_kani=true&JigyosyoCd=3770108599-00&ServiceCd=210&Type=search", "url2": "www.keishoukai.jp" }, "geometry": { "type": "Point", "coordinates": [ 134.053806500000064, 34.3037166 ] } },
{ "type": "Feature", "properties": { "内容": "ショートステイ　たちばな荘【短期入所生活介護】香川県高松市国分寺町新名2081番地2", "url": "https://www.kaigokensaku.mhlw.go.jp/37/index.php?action_kouhyou_detail_004_kani=true&JigyosyoCd=3770108706-00&ServiceCd=210&Type=search", "url2": "http://www.hiiragikai.com" }, "geometry": { "type": "Point", "coordinates": [ 133.952782100000036, 34.272661 ] } },
{ "type": "Feature", "properties": { "内容": "特別養護老人ホーム　おりいぶ荘【短期入所生活介護】香川県高松市太田下町2020番地1", "url": "https://www.kaigokensaku.mhlw.go.jp/37/index.php?action_kouhyou_detail_004_kani=true&JigyosyoCd=3770101537-00&ServiceCd=210&Type=search", "url2": "https://hatsukikai.or.jp/" }, "geometry": { "type": "Point", "coordinates": [ 134.0389735, 34.3043471 ] } },
{ "type": "Feature", "properties": { "内容": "ショートステイ　吉祥【短期入所生活介護】高松市高松町897番地9ショートステイ　吉祥", "url": "https://www.kaigokensaku.mhlw.go.jp/37/index.php?action_kouhyou_detail_004_kani=true&JigyosyoCd=3770107476-00&ServiceCd=210&Type=search", "url2": "http://kisshoh.jp/" }, "geometry": { "type": "Point", "coordinates": [ 134.118467399999986, 34.3221459 ] } },
{ "type": "Feature", "properties": { "内容": "ショートステイ小夏【短期入所生活介護】高松市新田町甲２７１９番地", "url": "https://www.kaigokensaku.mhlw.go.jp/37/index.php?action_kouhyou_detail_004_kani=true&JigyosyoCd=3770104192-00&ServiceCd=210&Type=search", "url2": "http://www.zuisyou.net/jigyo/sunrich" }, "geometry": { "type": "Point", "coordinates": [ 134.099772499999972, 34.3289116 ] } },
{ "type": "Feature", "properties": { "内容": "ヨハネの里ショートステイセンター【短期入所生活介護】高松市鶴市町241番地", "url": "https://www.kaigokensaku.mhlw.go.jp/37/index.php?action_kouhyou_detail_004_kani=true&JigyosyoCd=3770108417-00&ServiceCd=210&Type=search", "url2": "http://www.bokuyoukai.or.jp./qhm/" }, "geometry": { "type": "Point", "coordinates": [ 134.007578083822608, 34.328010967510629 ] } },
{ "type": "Feature", "properties": { "内容": "胡蝶の夢ショートステイセンター【短期入所生活介護】香川県高松市一宮町878-1", "url": "https://www.kaigokensaku.mhlw.go.jp/37/index.php?action_kouhyou_detail_004_kani=true&JigyosyoCd=3770111007-00&ServiceCd=210&Type=search", "url2": "https://www.kishokai.com/" }, "geometry": { "type": "Point", "coordinates": [ 134.0270562, 34.2889625 ] } },
{ "type": "Feature", "properties": { "内容": "特別養護老人ホームナウラテラス【短期入所生活介護】香川県高松市松福町一丁目12番3号", "url": "https://www.kaigokensaku.mhlw.go.jp/37/index.php?action_kouhyou_detail_004_kani=true&JigyosyoCd=3750180188-00&ServiceCd=210&Type=search", "url2": "https://hatsukikai.or.jp" }, "geometry": { "type": "Point", "coordinates": [ 134.0599796, 34.342531 ] } },
{ "type": "Feature", "properties": { "内容": "すずかけの径　別館【短期入所生活介護】香川県高松市上福岡町919-1", "url": "https://www.kaigokensaku.mhlw.go.jp/37/index.php?action_kouhyou_detail_004_kani=true&JigyosyoCd=3770109654-00&ServiceCd=210&Type=search", "url2": "https://www.zuishou.net" }, "geometry": { "type": "Point", "coordinates": [ 134.067244083467159, 34.326854619289499 ] } },
{ "type": "Feature", "properties": { "内容": "特別養護老人ホームさくら荘【短期入所生活介護】高松市林町76番地14", "url": "https://www.kaigokensaku.mhlw.go.jp/37/index.php?action_kouhyou_detail_004_kani=true&JigyosyoCd=3770100331-00&ServiceCd=210&Type=search", "url2": "https://hatsukikai.or.jp" }, "geometry": { "type": "Point", "coordinates": [ 134.0662774, 34.2942428 ] } },
{ "type": "Feature", "properties": { "内容": "特別養護老人ホーム　弘恩苑【短期入所生活介護】高松市前田西町683番地7", "url": "https://www.kaigokensaku.mhlw.go.jp/37/index.php?action_kouhyou_detail_004_kani=true&JigyosyoCd=3770100521-00&ServiceCd=210&Type=search", "url2": "https://www.kouzenkai.jp" }, "geometry": { "type": "Point", "coordinates": [ 134.108777199999963, 34.3069363 ] } },
{ "type": "Feature", "properties": { "内容": "ショートステイなでしこ香川【短期入所生活介護】香川県高松市多肥上町１４２３番地１", "url": "https://www.kaigokensaku.mhlw.go.jp/37/index.php?action_kouhyou_detail_004_kani=true&JigyosyoCd=3770103871-00&ServiceCd=210&Type=search", "url2": "http://www.saiseikai.or.jp" }, "geometry": { "type": "Point", "coordinates": [ 134.058122799999978, 34.2945788 ] } },
{ "type": "Feature", "properties": { "内容": "ショートステイ　好日【短期入所生活介護】香川県高松市藤塚町1丁目11番1号", "url": "https://www.kaigokensaku.mhlw.go.jp/37/index.php?action_kouhyou_detail_004_kani=true&JigyosyoCd=3770107294-00&ServiceCd=210&Type=search", "url2": null }, "geometry": { "type": "Point", "coordinates": [ 134.0467188, 34.3335804 ] } },
{ "type": "Feature", "properties": { "内容": "さくら荘ユニットショートセンター【短期入所生活介護】高松市林町76番地14", "url": "https://www.kaigokensaku.mhlw.go.jp/37/index.php?action_kouhyou_detail_004_kani=true&JigyosyoCd=3770108201-00&ServiceCd=210&Type=search", "url2": "https://hatsukikai.or.jp" }, "geometry": { "type": "Point", "coordinates": [ 134.0662774, 34.2942428 ] } },
{ "type": "Feature", "properties": { "内容": "特別養護老人ホームきたまち苑【短期入所生活介護】木太町5113番地15", "url": "https://www.kaigokensaku.mhlw.go.jp/37/index.php?action_kouhyou_detail_004_kani=true&JigyosyoCd=3770109662-00&ServiceCd=210&Type=search", "url2": "https://hatsukikai.or.jp" }, "geometry": { "type": "Point", "coordinates": [ 134.067304645751932, 34.308526813693902 ] } },
{ "type": "Feature", "properties": { "内容": "特別養護老人ホーム　岡本荘【短期入所生活介護】香川県高松市岡本町527番地1", "url": "https://www.kaigokensaku.mhlw.go.jp/37/index.php?action_kouhyou_detail_004_kani=true&JigyosyoCd=3770100349-00&ServiceCd=210&Type=search", "url2": "http://www.koutouen.com/" }, "geometry": { "type": "Point", "coordinates": [ 133.994914900000026, 34.266109 ] } },
{ "type": "Feature", "properties": { "内容": "特別養護老人ホーム　はなぞの園【短期入所生活介護】香川県高松市上福岡町2004番地1", "url": "https://www.kaigokensaku.mhlw.go.jp/37/index.php?action_kouhyou_detail_004_kani=true&JigyosyoCd=3770100554-00&ServiceCd=210&Type=search", "url2": "https://www.hanazono.or.jp" }, "geometry": { "type": "Point", "coordinates": [ 134.060776499999946, 34.3309392 ] } },
{ "type": "Feature", "properties": { "内容": "特別養護老人ホーム香色苑【短期入所生活介護】香川県高松市高松町1350番地22", "url": "https://www.kaigokensaku.mhlw.go.jp/37/index.php?action_kouhyou_detail_004_kani=true&JigyosyoCd=3770100562-00&ServiceCd=210&Type=search", "url2": "https://www.kouzenkai.jp/" }, "geometry": { "type": "Point", "coordinates": [ 134.1200172, 34.3326058 ] } },
{ "type": "Feature", "properties": { "内容": "特別養護老人ホーム　法寿苑【短期入所生活介護】香川県高松市木太町3308番地", "url": "https://www.kaigokensaku.mhlw.go.jp/37/index.php?action_kouhyou_detail_004_kani=true&JigyosyoCd=3770103582-00&ServiceCd=210&Type=search", "url2": "https://www.kouzenkai.jp/" }, "geometry": { "type": "Point", "coordinates": [ 134.075244699999985, 34.3278117 ] } },
{ "type": "Feature", "properties": { "内容": "さんさん荘老人ショートステイセンター【短期入所生活介護】香川県高松市香川町川内原1003-1", "url": "https://www.kaigokensaku.mhlw.go.jp/37/index.php?action_kouhyou_detail_004_kani=true&JigyosyoCd=3771400144-00&ServiceCd=210&Type=search", "url2": "https://www.sansan-kai.com/" }, "geometry": { "type": "Point", "coordinates": [ 134.050477237434364, 34.231773599999983 ] } },
{ "type": "Feature", "properties": { "内容": "おりいぶ荘ユニットショートセンター【短期入所生活介護】高松市太田下町２０２０番地１", "url": "https://www.kaigokensaku.mhlw.go.jp/37/index.php?action_kouhyou_detail_004_kani=true&JigyosyoCd=3770107120-00&ServiceCd=210&Type=search", "url2": "https://hatsukikai.or.jp/" }, "geometry": { "type": "Point", "coordinates": [ 134.0389735, 34.3043471 ] } },
{ "type": "Feature", "properties": { "内容": "ケアセンター松縄【短期入所生活介護】香川県高松市松縄町48-17", "url": "https://www.kaigokensaku.mhlw.go.jp/37/index.php?action_kouhyou_detail_004_kani=true&JigyosyoCd=3770107351-00&ServiceCd=210&Type=search", "url2": "http://www.koutouen.com/" }, "geometry": { "type": "Point", "coordinates": [ 134.061538, 34.3227843 ] } },
{ "type": "Feature", "properties": { "内容": "ショートステイ　すずかけの径【短期入所生活介護】高松市上福岡町919-1", "url": "https://www.kaigokensaku.mhlw.go.jp/37/index.php?action_kouhyou_detail_004_kani=true&JigyosyoCd=3770107393-00&ServiceCd=210&Type=search", "url2": "https://www.zuishou.net" }, "geometry": { "type": "Point", "coordinates": [ 134.067045600000029, 34.3268812 ] } },
{ "type": "Feature", "properties": { "内容": "ユニット型ショートステイはなぞの園【短期入所生活介護】香川県高松市上福岡町2004番地1", "url": "https://www.kaigokensaku.mhlw.go.jp/37/index.php?action_kouhyou_detail_004_kani=true&JigyosyoCd=3770111346-00&ServiceCd=210&Type=search", "url2": "https://www.hanazono.or.jp" }, "geometry": { "type": "Point", "coordinates": [ 134.06086030000003, 34.3308136 ] } },
{ "type": "Feature", "properties": { "内容": "特別養護老人ホームすみれ荘【短期入所生活介護】高松市十川西町1234番地1", "url": "https://www.kaigokensaku.mhlw.go.jp/37/index.php?action_kouhyou_detail_004_kani=true&JigyosyoCd=3770100273-00&ServiceCd=210&Type=search", "url2": "https://hatsukikai.or.jp/" }, "geometry": { "type": "Point", "coordinates": [ 134.099728899999945, 34.2599762 ] } },
{ "type": "Feature", "properties": { "内容": "すみれ荘ユニットショートセンター【短期入所生活介護】香川県高松市十川西町１２３４番地１", "url": "https://www.kaigokensaku.mhlw.go.jp/37/index.php?action_kouhyou_detail_004_kani=true&JigyosyoCd=3770106387-00&ServiceCd=210&Type=search", "url2": "https://hatsukikai.or.jp/" }, "geometry": { "type": "Point", "coordinates": [ 134.099728899999945, 34.2599762 ] } },
{ "type": "Feature", "properties": { "内容": "特別養護老人ホーム大寿苑【短期入所生活介護】香川県高松市鬼無町鬼無882番地2", "url": "https://www.kaigokensaku.mhlw.go.jp/37/index.php?action_kouhyou_detail_004_kani=true&JigyosyoCd=3770100356-00&ServiceCd=210&Type=search", "url2": "http://www.daijyuan.com/" }, "geometry": { "type": "Point", "coordinates": [ 133.985907099999963, 34.3182532 ] } },
{ "type": "Feature", "properties": { "内容": "シオンの丘ショートステイセンター【短期入所生活介護】高松市香西北町260番地", "url": "https://www.kaigokensaku.mhlw.go.jp/37/index.php?action_kouhyou_detail_004_kani=true&JigyosyoCd=3770100802-00&ServiceCd=210&Type=search", "url2": "http://www.bokuyoukai.or.jp/qhm/" }, "geometry": { "type": "Point", "coordinates": [ 133.995138900000029, 34.354258 ] } },
{ "type": "Feature", "properties": { "内容": "特別養護老人ホーム　さぬき【短期入所生活介護】高松市中野町26-29", "url": "https://www.kaigokensaku.mhlw.go.jp/37/index.php?action_kouhyou_detail_004_kani=true&JigyosyoCd=3770100943-00&ServiceCd=210&Type=search", "url2": "http://www.sanuki-sha.or.jp" }, "geometry": { "type": "Point", "coordinates": [ 134.044486370322346, 34.333533624537694 ] } },
{ "type": "Feature", "properties": { "内容": "エデンの丘ショートステイセンター【短期入所生活介護】香川県高松市鶴市町1770番地4", "url": "https://www.kaigokensaku.mhlw.go.jp/37/index.php?action_kouhyou_detail_004_kani=true&JigyosyoCd=3770101180-00&ServiceCd=210&Type=search", "url2": "http://www.bokuyoukai.or.jp/qhm/" }, "geometry": { "type": "Point", "coordinates": [ 134.016272699999945, 34.3372237 ] } },
{ "type": "Feature", "properties": { "内容": "高松さんさん荘　老人ショートステイセンター【短期入所生活介護】高松市西植田町４２１２－１", "url": "https://www.kaigokensaku.mhlw.go.jp/37/index.php?action_kouhyou_detail_004_kani=true&JigyosyoCd=3770102964-00&ServiceCd=210&Type=search", "url2": "https:/www.sansan-kai.com/" }, "geometry": { "type": "Point", "coordinates": [ 134.070722, 34.2316879 ] } },
{ "type": "Feature", "properties": { "内容": "短期入所生活介護事業所玉藻荘【短期入所生活介護】高松市北浜町7番10号", "url": "https://www.kaigokensaku.mhlw.go.jp/37/index.php?action_kouhyou_detail_004_kani=true&JigyosyoCd=3770104051-00&ServiceCd=210&Type=search", "url2": "http://www.sanuki-sha.or.jp" }, "geometry": { "type": "Point", "coordinates": [ 134.0560901, 34.3502513 ] } },
{ "type": "Feature", "properties": { "内容": "特別養護老人ホーム　あかね【短期入所生活介護】香川県高松市西町4番1号", "url": "https://www.kaigokensaku.mhlw.go.jp/37/index.php?action_kouhyou_detail_004_kani=true&JigyosyoCd=3770104762-00&ServiceCd=210&Type=search", "url2": null }, "geometry": { "type": "Point", "coordinates": [ 134.027888599999983, 34.3466316 ] } },
{ "type": "Feature", "properties": { "内容": "短期入所生活介護ハピネスショートステイサービス【短期入所生活介護】香川県高松市中山町７７５番地１高齢者複合施設　五色の里　２F", "url": "https://www.kaigokensaku.mhlw.go.jp/37/index.php?action_kouhyou_detail_004_kani=true&JigyosyoCd=3770107989-00&ServiceCd=210&Type=search", "url2": "http://www.shinboukai.net/" }, "geometry": { "type": "Point", "coordinates": [ 133.973424984408524, 34.356860624043684 ] } },
{ "type": "Feature", "properties": { "内容": "両備ヘルシーケア高松ショートステイ【短期入所生活介護】香川県高松市浜ノ町53番38号", "url": "https://www.kaigokensaku.mhlw.go.jp/37/index.php?action_kouhyou_detail_004_kani=true&JigyosyoCd=3770109266-00&ServiceCd=210&Type=search", "url2": "http://www.ryobi-hc.jp/" }, "geometry": { "type": "Point", "coordinates": [ 134.037676185180658, 34.352489496113421 ] } },
{ "type": "Feature", "properties": { "内容": "サマリヤ西春日ショートステイ【短期入所生活介護】香川県高松市西春日1510-1", "url": "https://www.kaigokensaku.mhlw.go.jp/37/index.php?action_kouhyou_detail_004_kani=true&JigyosyoCd=3770109670-00&ServiceCd=210&Type=search", "url2": "http://www.samariya.or.jp/" }, "geometry": { "type": "Point", "coordinates": [ 134.020218, 34.3155096 ] } },
{ "type": "Feature", "properties": { "内容": "高松三名ショートステイそよ風【短期入所生活介護】高松市三名町61番地1", "url": "https://www.kaigokensaku.mhlw.go.jp/37/index.php?action_kouhyou_detail_004_kani=true&JigyosyoCd=3770111726-00&ServiceCd=210&Type=search", "url2": "https://www.sykz.co.jp/map/search?pref_name=%E9%A6%99%E5%B7%9D%E7%9C%8C" }, "geometry": { "type": "Point", "coordinates": [ 134.035813600000012, 34.287283 ] } },
{ "type": "Feature", "properties": { "内容": "特別養護老人ホームあん樹苑【短期入所生活介護】高松市香川町浅野1414番地", "url": "https://www.kaigokensaku.mhlw.go.jp/37/index.php?action_kouhyou_detail_004_kani=true&JigyosyoCd=3770105835-00&ServiceCd=210&Type=search", "url2": "http://hatsukikai.or.jp" }, "geometry": { "type": "Point", "coordinates": [ 134.037194799999952, 34.2528091 ] } },
{ "type": "Feature", "properties": { "内容": "短期入所生活介護事業所さぬき宮脇町【短期入所生活介護】香川県高松市宮脇町2-37-21", "url": "https://www.kaigokensaku.mhlw.go.jp/37/index.php?action_kouhyou_detail_004_kani=true&JigyosyoCd=3770112112-00&ServiceCd=210&Type=search", "url2": "https://sanuki-sha.or.jp/" }, "geometry": { "type": "Point", "coordinates": [ 134.0297242, 34.3375149 ] } },
{ "type": "Feature", "properties": { "内容": "高松ケアセンターそよ風【短期入所生活介護】香川県高松市屋島西町2289-1", "url": "https://www.kaigokensaku.mhlw.go.jp/37/index.php?action_kouhyou_detail_004_kani=true&JigyosyoCd=3770104812-00&ServiceCd=210&Type=search", "url2": "https://www.sykz.co.jp/" }, "geometry": { "type": "Point", "coordinates": [ 134.0890528, 34.3565444 ] } },
{ "type": "Feature", "properties": { "内容": "ショートステイたかまつ【短期入所生活介護】香川県高松市上林町541-1", "url": "https://www.kaigokensaku.mhlw.go.jp/37/index.php?action_kouhyou_detail_004_kani=true&JigyosyoCd=3770107047-00&ServiceCd=210&Type=search", "url2": null }, "geometry": { "type": "Point", "coordinates": [ 134.066302191401661, 34.289946023833927 ] } },
{ "type": "Feature", "properties": { "内容": "ショートステイ　らく楽花園【短期入所生活介護】香川県高松市花園町一丁目1番5号", "url": "https://www.kaigokensaku.mhlw.go.jp/37/index.php?action_kouhyou_detail_004_kani=true&JigyosyoCd=3770111460-00&ServiceCd=210&Type=search", "url2": "http://www.rakuraku-group.jp/" }, "geometry": { "type": "Point", "coordinates": [ 134.0551236, 34.335657 ] } },
{ "type": "Feature", "properties": { "内容": "地域密着型特別養護老人ホーム　マイルドハート番町【短期入所生活介護】香川県高松市番町三丁目14番15号", "url": "https://www.kaigokensaku.mhlw.go.jp/37/index.php?action_kouhyou_detail_004_kani=true&JigyosyoCd=3770111890-00&ServiceCd=210&Type=search", "url2": "https://www.utazufukushikai.or.jp" }, "geometry": { "type": "Point", "coordinates": [ 134.0415351, 34.34176 ] } },
{ "type": "Feature", "properties": { "内容": "ショートステイセンター　秋月【短期入所生活介護】香川県高松市香西本町17-9", "url": "https://www.kaigokensaku.mhlw.go.jp/37/index.php?action_kouhyou_detail_004_kani=true&JigyosyoCd=3770111668-00&ServiceCd=210&Type=search", "url2": "syurikai.com" }, "geometry": { "type": "Point", "coordinates": [ 134.003435295631391, 34.349973237657835 ] } },
{ "type": "Feature", "properties": { "内容": "障害者支援施設サン未来【短期入所生活介護】新田町甲2717番地1", "url": "https://www.kaigokensaku.mhlw.go.jp/37/index.php?action_kouhyou_detail_004_kani=true&JigyosyoCd=3770111676-00&ServiceCd=210&Type=search", "url2": "http://www.zuishou.net" }, "geometry": { "type": "Point", "coordinates": [ 134.1079134, 34.3197981 ] } },
{ "type": "Feature", "properties": { "内容": "高松木太ケアセンターそよ風【短期入所生活介護】香川県高松市木太町4150番4", "url": "https://www.kaigokensaku.mhlw.go.jp/37/index.php?action_kouhyou_detail_004_kani=true&JigyosyoCd=3770110678-00&ServiceCd=210&Type=search", "url2": "https://www.sykz.co.jp/map/search?pref_name=%E9%A6%99%E5%B7%9D%E7%9C%8C" }, "geometry": { "type": "Point", "coordinates": [ 134.0799058, 34.3153656 ] } },
{ "type": "Feature", "properties": { "内容": "ショートステイユーカリ【短期入所生活介護】香川県高松市新田町甲478番地", "url": "https://www.kaigokensaku.mhlw.go.jp/37/index.php?action_kouhyou_detail_004_kani=true&JigyosyoCd=3770111767-00&ServiceCd=210&Type=search", "url2": "http://www.herbs-kaigo.jp" }, "geometry": { "type": "Point", "coordinates": [ 134.1079134, 34.3197981 ] } },
{ "type": "Feature", "properties": { "内容": "特別養護老人ホーム　シャローム【短期入所生活介護】丸亀市垂水町１６－５０", "url": "https://www.kaigokensaku.mhlw.go.jp/37/index.php?action_kouhyou_detail_004_kani=true&JigyosyoCd=3770200271-00&ServiceCd=210&Type=search", "url2": null }, "geometry": { "type": "Point", "coordinates": [ 133.836276099999964, 34.2212752 ] } },
{ "type": "Feature", "properties": { "内容": "特別養護老人ホーム今津荘【短期入所生活介護】香川県丸亀市今津町186-1", "url": "https://www.kaigokensaku.mhlw.go.jp/37/index.php?action_kouhyou_detail_004_kani=true&JigyosyoCd=3770200503-00&ServiceCd=210&Type=search", "url2": "http://www.utazufukushikai.or.jp/" }, "geometry": { "type": "Point", "coordinates": [ 133.783971400000041, 34.2753633 ] } },
{ "type": "Feature", "properties": { "内容": "特別養護老人ホーム　華　ショートステイ【短期入所生活介護】香川県丸亀市綾歌町栗熊西224番地2", "url": "https://www.kaigokensaku.mhlw.go.jp/37/index.php?action_kouhyou_detail_004_kani=true&JigyosyoCd=3770201055-00&ServiceCd=210&Type=search", "url2": "http://www.tokuyou-hana.org/" }, "geometry": { "type": "Point", "coordinates": [ 133.883056200000027, 34.2206311 ] } },
{ "type": "Feature", "properties": { "内容": "特別養護老人ホーム　宝樹リノ【短期入所生活介護】香川県丸亀市綾歌町栗熊東782番地", "url": "https://www.kaigokensaku.mhlw.go.jp/37/index.php?action_kouhyou_detail_004_kani=true&JigyosyoCd=3770201683-00&ServiceCd=210&Type=search", "url2": "https://houjyuen.web.fc2.com" }, "geometry": { "type": "Point", "coordinates": [ 133.886975727261444, 34.236328129122164 ] } },
{ "type": "Feature", "properties": { "内容": "紅山ケアセンター【短期入所生活介護】香川県丸亀市飯山町上法軍寺2600番地", "url": "https://www.kaigokensaku.mhlw.go.jp/37/index.php?action_kouhyou_detail_004_kani=true&JigyosyoCd=3771500141-00&ServiceCd=210&Type=search", "url2": "http://www.beniyama.jp" }, "geometry": { "type": "Point", "coordinates": [ 133.866651199999978, 34.2386595 ] } },
{ "type": "Feature", "properties": { "内容": "特別養護老人ホーム珠光園【短期入所生活介護】香川県丸亀市飯野町東二甲911番地1", "url": "https://www.kaigokensaku.mhlw.go.jp/37/index.php?action_kouhyou_detail_004_kani=true&JigyosyoCd=3770200115-00&ServiceCd=210&Type=search", "url2": "https://jukoen.jp" }, "geometry": { "type": "Point", "coordinates": [ 133.834399532224808, 34.269950151356703 ] } },
{ "type": "Feature", "properties": { "内容": "特別養護老人ホーム珠光園うらら【短期入所生活介護】丸亀市飯野町東二903番地１", "url": "https://www.kaigokensaku.mhlw.go.jp/37/index.php?action_kouhyou_detail_004_kani=true&JigyosyoCd=3770200909-00&ServiceCd=210&Type=search", "url2": "http://www.k5.dion.ne.jp/~jukoen" }, "geometry": { "type": "Point", "coordinates": [ 133.834158, 34.2705196 ] } },
{ "type": "Feature", "properties": { "内容": "特別養護老人ホーム　珠光園はる【短期入所生活介護】香川県丸亀市飯野町東二９０３番地1", "url": "https://www.kaigokensaku.mhlw.go.jp/37/index.php?action_kouhyou_detail_004_kani=true&JigyosyoCd=3770201246-00&ServiceCd=210&Type=search", "url2": "http://www.k5/dion.np.jp/^jukoen/" }, "geometry": { "type": "Point", "coordinates": [ 133.834158, 34.2705196 ] } },
{ "type": "Feature", "properties": { "内容": "特別養護老人ホーム　青の山荘【短期入所生活介護】香川県丸亀市土器町東四丁目77番地", "url": "https://www.kaigokensaku.mhlw.go.jp/37/index.php?action_kouhyou_detail_004_kani=true&JigyosyoCd=3770200164-00&ServiceCd=210&Type=search", "url2": "https://houjyuen.web.fc2.com/page9.html" }, "geometry": { "type": "Point", "coordinates": [ 133.820386099999951, 34.2925419 ] } },
{ "type": "Feature", "properties": { "内容": "特別養護老人ホームたるみ荘【短期入所生活介護】香川県丸亀市垂水町1353番地", "url": "https://www.kaigokensaku.mhlw.go.jp/37/index.php?action_kouhyou_detail_004_kani=true&JigyosyoCd=3770200131-00&ServiceCd=210&Type=search", "url2": "http://www.tarumisou.com/" }, "geometry": { "type": "Point", "coordinates": [ 133.829373300000043, 34.2339017 ] } },
{ "type": "Feature", "properties": { "内容": "特別養護老人ホーム　きやま【短期入所生活介護】香川県坂出市川津町1986番地8", "url": "https://www.kaigokensaku.mhlw.go.jp/37/index.php?action_kouhyou_detail_004_kani=true&JigyosyoCd=3770300568-00&ServiceCd=210&Type=search", "url2": "http://www.nagai-group.com/" }, "geometry": { "type": "Point", "coordinates": [ 133.870807799999966, 34.2933307 ] } },
{ "type": "Feature", "properties": { "内容": "地域密着型特別養護老人ホームかわつ【短期入所生活介護】坂出市川津町2787番地1", "url": "https://www.kaigokensaku.mhlw.go.jp/37/index.php?action_kouhyou_detail_004_kani=true&JigyosyoCd=3770300956-00&ServiceCd=210&Type=search", "url2": "http://www.kbn.ne.jp/home/kym0007/index.html" }, "geometry": { "type": "Point", "coordinates": [ 133.855470200000013, 34.2869454 ] } },
{ "type": "Feature", "properties": { "内容": "特別養護老人ホームグランドガーデン【短期入所生活介護】香川県坂出市加茂町628番地6", "url": "https://www.kaigokensaku.mhlw.go.jp/37/index.php?action_kouhyou_detail_004_kani=true&JigyosyoCd=3770300600-00&ServiceCd=210&Type=search", "url2": "http://www.kbn.ne.jp/home/neuronis/grand/" }, "geometry": { "type": "Point", "coordinates": [ 133.9099521, 34.3077689 ] } },
{ "type": "Feature", "properties": { "内容": "愛生苑短期入所生活介護事業所【短期入所生活介護】香川県坂出市西庄町79番地1", "url": "https://www.kaigokensaku.mhlw.go.jp/37/index.php?action_kouhyou_detail_004_kani=true&JigyosyoCd=3770300147-00&ServiceCd=210&Type=search", "url2": "http://ryokusei.byoinnavi.jp" }, "geometry": { "type": "Point", "coordinates": [ 133.880992099999958, 34.3200524 ] } },
{ "type": "Feature", "properties": { "内容": "ショートステイセンターつながり【短期入所生活介護】坂出市西庄町88番地1", "url": "https://www.kaigokensaku.mhlw.go.jp/37/index.php?action_kouhyou_detail_004_kani=true&JigyosyoCd=3770301004-00&ServiceCd=210&Type=search", "url2": "http://ryokusei.byoinnavi.jp" }, "geometry": { "type": "Point", "coordinates": [ 133.881399928575064, 34.320199658080725 ] } },
{ "type": "Feature", "properties": { "内容": "特別養護老人ホーム松ヶ浦荘【短期入所生活介護】香川県坂出市大屋冨町３１００番地１３", "url": "https://www.kaigokensaku.mhlw.go.jp/37/index.php?action_kouhyou_detail_004_kani=true&JigyosyoCd=3770300162-00&ServiceCd=210&Type=search", "url2": "http://www.shouju.or.jp/" }, "geometry": { "type": "Point", "coordinates": [ 133.894061500000021, 34.3556199 ] } },
{ "type": "Feature", "properties": { "内容": "ショートステイ　フラワーガーデンひまわり【短期入所生活介護】香川県坂出市京町三丁目６番５５号", "url": "https://www.kaigokensaku.mhlw.go.jp/37/index.php?action_kouhyou_detail_004_kani=true&JigyosyoCd=3770301178-00&ServiceCd=210&Type=search", "url2": "http://aiyuukai.net" }, "geometry": { "type": "Point", "coordinates": [ 138.252924, 36.204824 ] } },
{ "type": "Feature", "properties": { "内容": "特別養護老人ホーム　聖マルチンの園　短期入所生活介護【短期入所生活介護】香川県坂出市沖の浜1番5号", "url": "https://www.kaigokensaku.mhlw.go.jp/37/index.php?action_kouhyou_detail_004_kani=true&JigyosyoCd=3770300048-00&ServiceCd=210&Type=search", "url2": "https://seimartinnoie.or.jp/" }, "geometry": { "type": "Point", "coordinates": [ 133.843530705557185, 34.325338335712551 ] } },
{ "type": "Feature", "properties": { "内容": "特別養護老人ホーム白百合荘【短期入所生活介護】香川県善通寺市与北町1680番地1", "url": "https://www.kaigokensaku.mhlw.go.jp/37/index.php?action_kouhyou_detail_004_kani=true&JigyosyoCd=3770400137-00&ServiceCd=210&Type=search", "url2": "http://www.care-net.biz/37/sirayuri" }, "geometry": { "type": "Point", "coordinates": [ 133.807353, 34.2304937 ] } },
{ "type": "Feature", "properties": { "内容": "特別養護老人ホーム仙遊荘【短期入所生活介護】香川県善通寺市仙遊町二丁目3番43号", "url": "https://www.kaigokensaku.mhlw.go.jp/37/index.php?action_kouhyou_detail_004_kani=true&JigyosyoCd=3770400319-00&ServiceCd=210&Type=search", "url2": "http://zen-fukushikai.jp/" }, "geometry": { "type": "Point", "coordinates": [ 133.7702008, 34.2279322 ] } },
{ "type": "Feature", "properties": { "内容": "特別養護老人ホームまほろば【短期入所生活介護】香川県善通寺市仙遊町二丁目3番40号", "url": "https://www.kaigokensaku.mhlw.go.jp/37/index.php?action_kouhyou_detail_004_kani=true&JigyosyoCd=3770400723-00&ServiceCd=210&Type=search", "url2": "http://zen-fukushikai.jp/" }, "geometry": { "type": "Point", "coordinates": [ 133.769862, 34.2286044 ] } },
{ "type": "Feature", "properties": { "内容": "短期入所生活介護　明日香【短期入所生活介護】香川県善通寺市原田町1561番地5", "url": "https://www.kaigokensaku.mhlw.go.jp/37/index.php?action_kouhyou_detail_004_kani=true&JigyosyoCd=3770400277-00&ServiceCd=210&Type=search", "url2": "http://www.senju.group.or.jp" }, "geometry": { "type": "Point", "coordinates": [ 133.787251800000035, 34.2546298 ] } },
{ "type": "Feature", "properties": { "内容": "特別養護老人ホーム　長寿苑　指定短期入所生活介護事業所【短期入所生活介護】香川県観音寺市木之郷町499番地62", "url": "https://www.kaigokensaku.mhlw.go.jp/37/index.php?action_kouhyou_detail_004_kani=true&JigyosyoCd=3770500340-00&ServiceCd=210&Type=search", "url2": "http://care-net.biz./37/choujuen/" }, "geometry": { "type": "Point", "coordinates": [ 133.691940299999942, 34.1063966 ] } },
{ "type": "Feature", "properties": { "内容": "特別養護老人ホーム　豊恩荘【短期入所生活介護】香川県観音寺市茂木町四丁目６番２号", "url": "https://www.kaigokensaku.mhlw.go.jp/37/index.php?action_kouhyou_detail_004_kani=true&JigyosyoCd=3770500100-00&ServiceCd=210&Type=search", "url2": "https://haneikai.or.jp/" }, "geometry": { "type": "Point", "coordinates": [ 133.659832200000011, 34.1327332 ] } },
{ "type": "Feature", "properties": { "内容": "ショートステイ大興和【短期入所生活介護】香川県観音寺市植田町1930番地", "url": "https://www.kaigokensaku.mhlw.go.jp/37/index.php?action_kouhyou_detail_004_kani=true&JigyosyoCd=3770500746-00&ServiceCd=210&Type=search", "url2": "http://www.cl-ikeda.com" }, "geometry": { "type": "Point", "coordinates": [ 133.668419399999948, 34.1256471 ] } },
{ "type": "Feature", "properties": { "内容": "楽陽荘短期入所生活介護事業所【短期入所生活介護】香川県観音寺市柞田町甲１９３６番地", "url": "https://www.kaigokensaku.mhlw.go.jp/37/index.php?action_kouhyou_detail_004_kani=true&JigyosyoCd=3770500225-00&ServiceCd=210&Type=search", "url2": "http://www.rakuyousou.com/" }, "geometry": { "type": "Point", "coordinates": [ 133.675133, 34.1136735 ] } },
{ "type": "Feature", "properties": { "内容": "ショートステイおおとよ荘【短期入所生活介護】香川県観音寺市大野原町大野原7010番地", "url": "https://www.kaigokensaku.mhlw.go.jp/37/index.php?action_kouhyou_detail_004_kani=true&JigyosyoCd=3770500928-00&ServiceCd=210&Type=search", "url2": "https://www.ootoyo.jp/" }, "geometry": { "type": "Point", "coordinates": [ 133.6651636, 34.0733927 ] } },
{ "type": "Feature", "properties": { "内容": "広域型特別養護老人ホーム　ネムの木【短期入所生活介護】香川県観音寺市豊浜町姫浜41-1", "url": "https://www.kaigokensaku.mhlw.go.jp/37/index.php?action_kouhyou_detail_004_kani=true&JigyosyoCd=3770500860-00&ServiceCd=210&Type=search", "url2": "http://www.koushi-f.or.jp" }, "geometry": { "type": "Point", "coordinates": [ 133.6381586, 34.0880405 ] } },
{ "type": "Feature", "properties": { "内容": "ショートステイサービス事業所ネムの木【短期入所生活介護】豊浜町姫浜41番地1", "url": "https://www.kaigokensaku.mhlw.go.jp/37/index.php?action_kouhyou_detail_004_kani=true&JigyosyoCd=3770500597-00&ServiceCd=210&Type=search", "url2": "http://www.koushi-f.or.jp" }, "geometry": { "type": "Point", "coordinates": [ 133.6381586, 34.0880405 ] } },
{ "type": "Feature", "properties": { "内容": "ショートステイ　志度の丘【短期入所生活介護】志度４６２６－８", "url": "https://www.kaigokensaku.mhlw.go.jp/37/index.php?action_kouhyou_detail_004_kani=true&JigyosyoCd=3770600892-00&ServiceCd=210&Type=search", "url2": "http://www.tomohiro-sk.jp/" }, "geometry": { "type": "Point", "coordinates": [ 134.188082148548915, 34.311784468460296 ] } },
{ "type": "Feature", "properties": { "内容": "短期入所ライムライト【短期入所生活介護】志度2325-1", "url": "https://www.kaigokensaku.mhlw.go.jp/37/index.php?action_kouhyou_detail_004_kani=true&JigyosyoCd=3770601114-00&ServiceCd=210&Type=search", "url2": "http://www.zuishou.net/" }, "geometry": { "type": "Point", "coordinates": [ 134.174463, 34.316091 ] } },
{ "type": "Feature", "properties": { "内容": "さざんか荘特別養護老人ホーム【短期入所生活介護】香川県さぬき市大川町田面360番地", "url": "https://www.kaigokensaku.mhlw.go.jp/37/index.php?action_kouhyou_detail_004_kani=true&JigyosyoCd=3771100264-00&ServiceCd=210&Type=search", "url2": "http://www.o-kouiki.jp/" }, "geometry": { "type": "Point", "coordinates": [ 134.2559539, 34.2532461 ] } },
{ "type": "Feature", "properties": { "内容": "特別養護老人ホーム　香東園【短期入所生活介護】香川県さぬき市寒川町石田西６８０番地１", "url": "https://www.kaigokensaku.mhlw.go.jp/37/index.php?action_kouhyou_detail_004_kani=true&JigyosyoCd=3771100165-00&ServiceCd=210&Type=search", "url2": "http://www.koutouen.com/" }, "geometry": { "type": "Point", "coordinates": [ 134.19546170000001, 34.2759431 ] } },
{ "type": "Feature", "properties": { "内容": "介護老人福祉施設さわやかホーム【短期入所生活介護】香川県さぬき市津田町津田２２０７番地", "url": "https://www.kaigokensaku.mhlw.go.jp/37/index.php?action_kouhyou_detail_004_kani=true&JigyosyoCd=3771100637-00&ServiceCd=210&Type=search", "url2": "https://sawayakakaigoor.jp/" }, "geometry": { "type": "Point", "coordinates": [ 134.2389743, 34.2944693 ] } },
{ "type": "Feature", "properties": { "内容": "特別養護老人ホーム　ゆたか荘【短期入所生活介護】香川県さぬき市昭和562-4", "url": "https://www.kaigokensaku.mhlw.go.jp/37/index.php?action_kouhyou_detail_004_kani=true&JigyosyoCd=3771100397-00&ServiceCd=210&Type=search", "url2": "http://care-net.biz/37/yutakaso/" }, "geometry": { "type": "Point", "coordinates": [ 134.166707, 34.2467745 ] } },
{ "type": "Feature", "properties": { "内容": "志度玉浦園短期入所生活介護事業所【短期入所生活介護】香川県さぬき市志度1610-1", "url": "https://www.kaigokensaku.mhlw.go.jp/37/index.php?action_kouhyou_detail_004_kani=true&JigyosyoCd=3771100439-00&ServiceCd=210&Type=search", "url2": "http://www.tamauraen.or.jp" }, "geometry": { "type": "Point", "coordinates": [ 134.1943278, 34.319239 ] } },
{ "type": "Feature", "properties": { "内容": "ハーティヴィラ亀鶴ショートステイセンター【短期入所生活介護】長尾西1602-1ハーティヴィラ亀鶴", "url": "https://www.kaigokensaku.mhlw.go.jp/37/index.php?action_kouhyou_detail_004_kani=true&JigyosyoCd=3770600801-00&ServiceCd=210&Type=search", "url2": "http://care-net.biz/37/nagaofukushikai/" }, "geometry": { "type": "Point", "coordinates": [ 134.17384905183394, 34.254687136031322 ] } },
{ "type": "Feature", "properties": { "内容": "湊荘指定短期入所生活介護事業所【短期入所生活介護】東かがわ市湊1183-5", "url": "https://www.kaigokensaku.mhlw.go.jp/37/index.php?action_kouhyou_detail_004_kani=true&JigyosyoCd=3771100462-00&ServiceCd=210&Type=search", "url2": "http://www.shikoku.ne.jp/zuishou/shisetsu/minato.html" }, "geometry": { "type": "Point", "coordinates": [ 134.339697300000012, 34.2187752 ] } },
{ "type": "Feature", "properties": { "内容": "特別養護老人ホーム　絹島荘　短期入所生活介護【短期入所生活介護】香川県東かがわ市馬篠１２２７－２０", "url": "https://www.kaigokensaku.mhlw.go.jp/37/index.php?action_kouhyou_detail_004_kani=true&JigyosyoCd=3771100173-00&ServiceCd=210&Type=search", "url2": "http://www.koutouen.com/" }, "geometry": { "type": "Point", "coordinates": [ 134.299378700000034, 34.2739173 ] } },
{ "type": "Feature", "properties": { "内容": "引田荘指定短期入所生活介護事業所【短期入所生活介護】香川県東かがわ市引田922番地18", "url": "https://www.kaigokensaku.mhlw.go.jp/37/index.php?action_kouhyou_detail_004_kani=true&JigyosyoCd=3771100512-00&ServiceCd=210&Type=search", "url2": "http://www.shikoku.ne.jp/zuishou/" }, "geometry": { "type": "Point", "coordinates": [ 134.397764700000039, 34.2143374 ] } },
{ "type": "Feature", "properties": { "内容": "特別養護老人ホームにお荘【短期入所生活介護】香川県三豊市仁尾町仁尾辛42番地3", "url": "https://www.kaigokensaku.mhlw.go.jp/37/index.php?action_kouhyou_detail_004_kani=true&JigyosyoCd=3771700998-00&ServiceCd=210&Type=search", "url2": "http://care-net.biz/37/niosou/" }, "geometry": { "type": "Point", "coordinates": [ 133.643475299999977, 34.1930606 ] } },
{ "type": "Feature", "properties": { "内容": "短期入所生活介護事業所おおはま荘【短期入所生活介護】香川県三豊市詫間町大浜甲1841番地2", "url": "https://www.kaigokensaku.mhlw.go.jp/37/index.php?action_kouhyou_detail_004_kani=true&JigyosyoCd=3770800575-00&ServiceCd=210&Type=search", "url2": "http://takumaso.com/" }, "geometry": { "type": "Point", "coordinates": [ 133.612702899999931, 34.2364418 ] } },
{ "type": "Feature", "properties": { "内容": "地域密着型特別養護老人ホームにお荘【短期入所生活介護】香川県三豊市仁尾町仁尾辛42番地19", "url": "https://www.kaigokensaku.mhlw.go.jp/37/index.php?action_kouhyou_detail_004_kani=true&JigyosyoCd=3770800815-00&ServiceCd=210&Type=search", "url2": "http://care-net.biz/37/niosou/" }, "geometry": { "type": "Point", "coordinates": [ 133.643529300000012, 34.1982135 ] } },
{ "type": "Feature", "properties": { "内容": "特別養護老人ホーム　諶之丞の丘【短期入所生活介護】香川県三豊市財田町財田上1112番地1", "url": "https://www.kaigokensaku.mhlw.go.jp/37/index.php?action_kouhyou_detail_004_kani=true&JigyosyoCd=3771700824-00&ServiceCd=210&Type=search", "url2": "https://jinnojyounooka.com/" }, "geometry": { "type": "Point", "coordinates": [ 133.79628619999994, 34.1062784 ] } },
{ "type": "Feature", "properties": { "内容": "特別養護老人ホームみの【短期入所生活介護】香川県三豊市三野町大見乙91-12", "url": "https://www.kaigokensaku.mhlw.go.jp/37/index.php?action_kouhyou_detail_004_kani=true&JigyosyoCd=3771700725-00&ServiceCd=210&Type=search", "url2": "http://minofukushikai.sun-age.or.jp" }, "geometry": { "type": "Point", "coordinates": [ 133.7206251, 34.2266288 ] } },
{ "type": "Feature", "properties": { "内容": "特別養護老人ホーム壽苑【短期入所生活介護】香川県三豊市高瀬町上高瀬712番地3", "url": "https://www.kaigokensaku.mhlw.go.jp/37/index.php?action_kouhyou_detail_004_kani=true&JigyosyoCd=3770800229-00&ServiceCd=210&Type=search", "url2": "http://houjyukai.info/" }, "geometry": { "type": "Point", "coordinates": [ 133.726256599999942, 34.1984061 ] } },
{ "type": "Feature", "properties": { "内容": "指定短期入所生活介護事業所　たくま荘【短期入所生活介護】香川県三豊市詫間町詫間7732番地60", "url": "https://www.kaigokensaku.mhlw.go.jp/37/index.php?action_kouhyou_detail_004_kani=true&JigyosyoCd=3771700246-00&ServiceCd=210&Type=search", "url2": "http://www.takumaso.com" }, "geometry": { "type": "Point", "coordinates": [ 133.669261300000016, 34.2142801 ] } },
{ "type": "Feature", "properties": { "内容": "特別養護老人ホームクレール高瀬【短期入所生活介護】香川県三豊市高瀬町新名2035番地", "url": "https://www.kaigokensaku.mhlw.go.jp/37/index.php?action_kouhyou_detail_004_kani=true&JigyosyoCd=3770800302-00&ServiceCd=210&Type=search", "url2": "http://keishoukai-group.net/" }, "geometry": { "type": "Point", "coordinates": [ 133.726262099999985, 34.1991976 ] } },
{ "type": "Feature", "properties": { "内容": "特別養護老人ホーム　とよなか荘【短期入所生活介護】香川県三豊市豊中町笠田竹田697番地1", "url": "https://www.kaigokensaku.mhlw.go.jp/37/index.php?action_kouhyou_detail_004_kani=true&JigyosyoCd=3771700402-00&ServiceCd=210&Type=search", "url2": "http://www.toyonakasou.jp/" }, "geometry": { "type": "Point", "coordinates": [ 133.695546799999988, 34.1554374 ] } },
{ "type": "Feature", "properties": { "内容": "特別養護老人ホームふたな荘【短期入所生活介護】香川県三豊市山本町辻2210", "url": "https://www.kaigokensaku.mhlw.go.jp/37/index.php?action_kouhyou_detail_004_kani=true&JigyosyoCd=3771700329-00&ServiceCd=210&Type=search", "url2": "http://www.keishoukai.jp/" }, "geometry": { "type": "Point", "coordinates": [ 133.723415199999977, 34.1078992 ] } },
{ "type": "Feature", "properties": { "内容": "豊島ナオミ荘　短期入所生活介護【短期入所生活介護】香川県小豆郡土庄町豊島家浦43-10", "url": "https://www.kaigokensaku.mhlw.go.jp/37/index.php?action_kouhyou_detail_004_kani=true&JigyosyoCd=3771200114-00&ServiceCd=210&Type=search", "url2": "http://www.ans.co.jp/n/naomi/" }, "geometry": { "type": "Point", "coordinates": [ 134.07582560000003, 34.4948314 ] } },
{ "type": "Feature", "properties": { "内容": "特別養護老人ホーム　あづき【短期入所生活介護】香川県小豆郡土庄町字半ノ池甲1360番地143", "url": "https://www.kaigokensaku.mhlw.go.jp/37/index.php?action_kouhyou_detail_004_kani=true&JigyosyoCd=3771200320-00&ServiceCd=210&Type=search", "url2": null }, "geometry": { "type": "Point", "coordinates": [ 134.185806899999989, 34.4860217 ] } },
{ "type": "Feature", "properties": { "内容": "特別養護老人ホーム小豆島老人ホーム【短期入所生活介護】小豆郡土庄町渕崎甲518", "url": "https://www.kaigokensaku.mhlw.go.jp/37/index.php?action_kouhyou_detail_004_kani=true&JigyosyoCd=3771200106-00&ServiceCd=210&Type=search", "url2": null }, "geometry": { "type": "Point", "coordinates": [ 134.178715900000043, 34.4900074 ] } },
{ "type": "Feature", "properties": { "内容": "特別養護老人ホームリベラルサンシャイン別館【短期入所生活介護】香川県小豆郡小豆島町蒲生甲350", "url": "https://www.kaigokensaku.mhlw.go.jp/37/index.php?action_kouhyou_detail_004_kani=true&JigyosyoCd=3771200593-00&ServiceCd=210&Type=search", "url2": "http://www.sunshine-kai.com" }, "geometry": { "type": "Point", "coordinates": [ 134.216862864042241, 34.477693173522063 ] } },
{ "type": "Feature", "properties": { "内容": "特別養護老人ホームうちのみ【短期入所生活介護】香川県小豆郡小豆島町片城甲４４番地９５", "url": "https://www.kaigokensaku.mhlw.go.jp/37/index.php?action_kouhyou_detail_004_kani=true&JigyosyoCd=3771200577-00&ServiceCd=210&Type=search", "url2": null }, "geometry": { "type": "Point", "coordinates": [ 134.307978609787057, 34.479292904119198 ] } },
{ "type": "Feature", "properties": { "内容": "特別養護老人ホームリベラルサンシャイン【短期入所生活介護】香川県小豆郡小豆島町蒲生甲３５０", "url": "https://www.kaigokensaku.mhlw.go.jp/37/index.php?action_kouhyou_detail_004_kani=true&JigyosyoCd=3771200049-00&ServiceCd=210&Type=search", "url2": "http://www.sunshine-kai.com/" }, "geometry": { "type": "Point", "coordinates": [ 134.216180799999961, 34.477057 ] } },
{ "type": "Feature", "properties": { "内容": "特別養護老人ホームマリアの園【短期入所生活介護】香川県小豆郡小豆島町草壁本町上蔵田1-13", "url": "https://www.kaigokensaku.mhlw.go.jp/37/index.php?action_kouhyou_detail_004_kani=true&JigyosyoCd=3771200031-00&ServiceCd=210&Type=search", "url2": null }, "geometry": { "type": "Point", "coordinates": [ 134.306837664692409, 34.486668087778114 ] } },
{ "type": "Feature", "properties": { "内容": "ショートステイセンター　季【短期入所生活介護】木田郡三木町下高岡2310-1", "url": "https://www.kaigokensaku.mhlw.go.jp/37/index.php?action_kouhyou_detail_004_kani=true&JigyosyoCd=3771300641-00&ServiceCd=210&Type=search", "url2": "www.syurikai.com" }, "geometry": { "type": "Point", "coordinates": [ 134.1457313, 34.2639533 ] } },
{ "type": "Feature", "properties": { "内容": "ショートステイくすの木【短期入所生活介護】香川県木田郡三木町池戸2058番地7複合施設くすの木", "url": "https://www.kaigokensaku.mhlw.go.jp/37/index.php?action_kouhyou_detail_004_kani=true&JigyosyoCd=3771300815-00&ServiceCd=210&Type=search", "url2": null }, "geometry": { "type": "Point", "coordinates": [ 134.12155795952458, 34.277454445545295 ] } },
{ "type": "Feature", "properties": { "内容": "短期入所生活介護ヌーベル三木【短期入所生活介護】香川県木田郡三木町大字上高岡1033番地1", "url": "https://www.kaigokensaku.mhlw.go.jp/37/index.php?action_kouhyou_detail_004_kani=true&JigyosyoCd=3770600918-00&ServiceCd=210&Type=search", "url2": "http://www.yu-sho.or.jp" }, "geometry": { "type": "Point", "coordinates": [ 134.140354099999968, 34.2529838 ] } },
{ "type": "Feature", "properties": { "内容": "特別養護老人ホーム　白山山荘【短期入所生活介護】香川県木田郡三木町大字下高岡２８８２番地１", "url": "https://www.kaigokensaku.mhlw.go.jp/37/index.php?action_kouhyou_detail_004_kani=true&JigyosyoCd=3771300120-00&ServiceCd=210&Type=search", "url2": "http://www.kitafuku.jp/" }, "geometry": { "type": "Point", "coordinates": [ 134.14462530000003, 34.27387 ] } },
{ "type": "Feature", "properties": { "内容": "みき山荘短期入所生活介護事業所【短期入所生活介護】香川県木田郡三木町大字井戸３８番地１", "url": "https://www.kaigokensaku.mhlw.go.jp/37/index.php?action_kouhyou_detail_004_kani=true&JigyosyoCd=3771300534-00&ServiceCd=210&Type=search", "url2": "http://www.kitafuku.jp/" }, "geometry": { "type": "Point", "coordinates": [ 134.156647, 34.241053 ] } },
{ "type": "Feature", "properties": { "内容": "特別養護老人ホーム　レファシード直島【短期入所生活介護】香川県香川郡直島町3749-1", "url": "https://www.kaigokensaku.mhlw.go.jp/37/index.php?action_kouhyou_detail_004_kani=true&JigyosyoCd=3771400375-00&ServiceCd=210&Type=search", "url2": null }, "geometry": { "type": "Point", "coordinates": [ 133.998283600000036, 34.4605448 ] } },
{ "type": "Feature", "properties": { "内容": "特別養護老人ホーム寿楽荘【短期入所生活介護】香川県綾歌郡宇多津町170--1", "url": "https://www.kaigokensaku.mhlw.go.jp/37/index.php?action_kouhyou_detail_004_kani=true&JigyosyoCd=3771500273-00&ServiceCd=210&Type=search", "url2": "utazufukushikai.or.jp" }, "geometry": { "type": "Point", "coordinates": [ 133.8357805, 34.2962696 ] } },
{ "type": "Feature", "properties": { "内容": "松林荘ショートステイセンター【短期入所生活介護】香川県綾歌郡綾川町山田下山王424番地", "url": "https://www.kaigokensaku.mhlw.go.jp/37/index.php?action_kouhyou_detail_004_kani=true&JigyosyoCd=3771500372-00&ServiceCd=210&Type=search", "url2": "https://syourinsou.com" }, "geometry": { "type": "Point", "coordinates": [ 133.959870124420178, 34.229784189883915 ] } },
{ "type": "Feature", "properties": { "内容": "楽々苑老人短期入所事業【短期入所生活介護】香川県綾歌郡綾川町滝宮380番地", "url": "https://www.kaigokensaku.mhlw.go.jp/37/index.php?action_kouhyou_detail_004_kani=true&JigyosyoCd=3771500653-00&ServiceCd=210&Type=search", "url2": "https://rakurakuen-kagawa.or.jp/" }, "geometry": { "type": "Point", "coordinates": [ 133.924952205557275, 34.248993119868842 ] } },
{ "type": "Feature", "properties": { "内容": "特別養護老人ホーム　クレールみどり【短期入所生活介護】香川県仲多度郡琴平町苗田字中森402番地1", "url": "https://www.kaigokensaku.mhlw.go.jp/37/index.php?action_kouhyou_detail_004_kani=true&JigyosyoCd=3771600552-00&ServiceCd=210&Type=search", "url2": "http://www.keishoukai.jp/" }, "geometry": { "type": "Point", "coordinates": [ 133.823997, 34.200844 ] } },
{ "type": "Feature", "properties": { "内容": "特別養護老人ホーム　桃陵苑　ユニット【短期入所生活介護】香川県仲多度郡多度津町西港町127番地3", "url": "https://www.kaigokensaku.mhlw.go.jp/37/index.php?action_kouhyou_detail_004_kani=true&JigyosyoCd=3771601162-00&ServiceCd=210&Type=search", "url2": "http://toryoen.jp/" }, "geometry": { "type": "Point", "coordinates": [ 133.737381300000038, 34.2656636 ] } },
{ "type": "Feature", "properties": { "内容": "特別養護老人ホーム桃陵苑【短期入所生活介護】香川県仲多度郡多度津町西港町127番地３", "url": "https://www.kaigokensaku.mhlw.go.jp/37/index.php?action_kouhyou_detail_004_kani=true&JigyosyoCd=3771600180-00&ServiceCd=210&Type=search", "url2": "http://toryoen.jp/" }, "geometry": { "type": "Point", "coordinates": [ 133.737395200000037, 34.2657219 ] } },
{ "type": "Feature", "properties": { "内容": "特別養護老人ホームかざみ鳥（ショートステイかざみ鳥）【短期入所生活介護】香川県仲多度郡多度津町北鴨二丁目１１０番地１", "url": "https://www.kaigokensaku.mhlw.go.jp/37/index.php?action_kouhyou_detail_004_kani=true&JigyosyoCd=3771600990-00&ServiceCd=210&Type=search", "url2": null }, "geometry": { "type": "Point", "coordinates": [ 133.766595100000018, 34.2778599 ] } },
{ "type": "Feature", "properties": { "内容": "特別養護老人ホーム仲南荘【短期入所生活介護】香川県仲多度郡まんのう町帆山505番地", "url": "https://www.kaigokensaku.mhlw.go.jp/37/index.php?action_kouhyou_detail_004_kani=true&JigyosyoCd=3771600271-00&ServiceCd=210&Type=search", "url2": "https://www.seiyuukai.jp/" }, "geometry": { "type": "Point", "coordinates": [ 133.844285600000035, 34.1543836 ] } },
{ "type": "Feature", "properties": { "内容": "特別養護老人ホーム満濃荘【短期入所生活介護】香川県仲多度郡まんのう町長尾１１０２", "url": "https://www.kaigokensaku.mhlw.go.jp/37/index.php?action_kouhyou_detail_004_kani=true&JigyosyoCd=3771600263-00&ServiceCd=210&Type=search", "url2": "https://www.seiyuukai.jp/" }, "geometry": { "type": "Point", "coordinates": [ 133.8555007, 34.1950398 ] } },
{ "type": "Feature", "properties": { "内容": "ショートスティかりんの郷・介護予防ショートスティかりんの郷【短期入所生活介護】香川県仲多度郡まんのう町炭所西1521番地1", "url": "https://www.kaigokensaku.mhlw.go.jp/37/index.php?action_kouhyou_detail_004_kani=true&JigyosyoCd=3771600909-00&ServiceCd=210&Type=search", "url2": "http://www.karinnosato.biz/" }, "geometry": { "type": "Point", "coordinates": [ 133.879654699999946, 34.1802415 ] } },
{ "type": "Feature", "properties": { "内容": "特別養護老人ホームやすらぎ荘【短期入所生活介護】香川県仲多度郡まんのう町川東１５０２－１", "url": "https://www.kaigokensaku.mhlw.go.jp/37/index.php?action_kouhyou_detail_004_kani=true&JigyosyoCd=3771600735-00&ServiceCd=210&Type=search", "url2": "http://www.seiyuukai.jp/" }, "geometry": { "type": "Point", "coordinates": [ 133.978299399999969, 34.1113914 ] } }
]
}
