{
"type": "FeatureCollection",
"name": "geo_37_看護小規模多機能型居宅介護（複合型サービス）",
"crs": { "type": "name", "properties": { "name": "urn:ogc:def:crs:OGC:1.3:CRS84" } },
"features": [
{ "type": "Feature", "properties": { "内容": "公益社団法人香川県看護協会　看護小規模多機能型居宅介護　在宅ケアステーションみちしるべ【看護小規模多機能型居宅介護（複合型サービス）】高松市太田下町3026-3", "url": "https://www.kaigokensaku.mhlw.go.jp/37/index.php?action_kouhyou_detail_004_kani=true&JigyosyoCd=3790100279-00&ServiceCd=&Type=search", "url2": "https://kagawa-kango.com/vnst/takamatsu/" }, "geometry": { "type": "Point", "coordinates": [ 134.0557341, 34.3053609 ] } },
{ "type": "Feature", "properties": { "内容": "看護小規模多機能型居宅介護　長谷川【看護小規模多機能型居宅介護（複合型サービス）】高松市新田町甲2189-1", "url": "https://www.kaigokensaku.mhlw.go.jp/37/index.php?action_kouhyou_detail_004_kani=true&JigyosyoCd=3790100568-00&ServiceCd=&Type=search", "url2": "https://careservice-hasegawa.jp/" }, "geometry": { "type": "Point", "coordinates": [ 134.101680402899035, 34.316830548858768 ] } },
{ "type": "Feature", "properties": { "内容": "セントケア看護小規模丸亀【看護小規模多機能型居宅介護（複合型サービス）】香川県丸亀市今津町342番地1", "url": "https://www.kaigokensaku.mhlw.go.jp/37/index.php?action_kouhyou_detail_004_kani=true&JigyosyoCd=3790200277-00&ServiceCd=&Type=search", "url2": "http://care-net.biz/37/saintcare-shikoku/" }, "geometry": { "type": "Point", "coordinates": [ 133.8066229, 34.2846558 ] } },
{ "type": "Feature", "properties": { "内容": "看護小規模多機能型居宅介護らな【看護小規模多機能型居宅介護（複合型サービス）】香川県丸亀市中府町四丁目13番28号", "url": "https://www.kaigokensaku.mhlw.go.jp/37/index.php?action_kouhyou_detail_004_kani=true&JigyosyoCd=3790200368-00&ServiceCd=&Type=search", "url2": "https://www.houjyuen-aonoyama.jp" }, "geometry": { "type": "Point", "coordinates": [ 133.7908658, 34.2864446 ] } },
{ "type": "Feature", "properties": { "内容": "看護小規模多機能型居宅介護　然【看護小規模多機能型居宅介護（複合型サービス）】香川県坂出市谷町２丁目２－４８", "url": "https://www.kaigokensaku.mhlw.go.jp/37/index.php?action_kouhyou_detail_004_kani=true&JigyosyoCd=3790300184-00&ServiceCd=&Type=search", "url2": "http://www.minori-clinic.jp/" }, "geometry": { "type": "Point", "coordinates": [ 133.866476055503085, 34.312234439858251 ] } },
{ "type": "Feature", "properties": { "内容": "ナースホーム　絆【看護小規模多機能型居宅介護（複合型サービス）】香川県東かがわ市小砂509-1ナースホーム絆", "url": "https://www.kaigokensaku.mhlw.go.jp/37/index.php?action_kouhyou_detail_004_kani=true&JigyosyoCd=3790700110-00&ServiceCd=&Type=search", "url2": "https://kizuna7715.com/index.php" }, "geometry": { "type": "Point", "coordinates": [ 134.2893445, 34.2611935 ] } },
{ "type": "Feature", "properties": { "内容": "みんなの看多機なないろ【看護小規模多機能型居宅介護（複合型サービス）】香川県三豊市高瀬町上勝間１６５６番地３", "url": "https://www.kaigokensaku.mhlw.go.jp/37/index.php?action_kouhyou_detail_004_kani=true&JigyosyoCd=3790800209-00&ServiceCd=&Type=search", "url2": "https://minnanohoumonkanngo.jimdofree.com/" }, "geometry": { "type": "Point", "coordinates": [ 133.7292971, 34.1757174 ] } },
{ "type": "Feature", "properties": { "内容": "はまひるがお土庄【看護小規模多機能型居宅介護（複合型サービス）】香川県小豆郡土庄町甲1354番地１", "url": "https://www.kaigokensaku.mhlw.go.jp/37/index.php?action_kouhyou_detail_004_kani=true&JigyosyoCd=3791200060-00&ServiceCd=&Type=search", "url2": "https://hamahirugao.jp" }, "geometry": { "type": "Point", "coordinates": [ 134.18032221108399, 34.47888276106017 ] } },
{ "type": "Feature", "properties": { "内容": "看護小規模多機能型居宅介護　こもれびの丘【看護小規模多機能型居宅介護（複合型サービス）】香川県仲多度郡多度津町寿町７番９号こもれびの丘", "url": "https://www.kaigokensaku.mhlw.go.jp/37/index.php?action_kouhyou_detail_004_kani=true&JigyosyoCd=3791600111-00&ServiceCd=&Type=search", "url2": "https://komorebinooka.jbplt.jp" }, "geometry": { "type": "Point", "coordinates": [ 133.7589944, 34.2700865 ] } }
]
}
