{
"type": "FeatureCollection",
"name": "geo_37_地域密着型介護老人福祉施設入所者生活介護",
"crs": { "type": "name", "properties": { "name": "urn:ogc:def:crs:OGC:1.3:CRS84" } },
"features": [
{ "type": "Feature", "properties": { "内容": "地域密着型特別養護老人ホーム　胡蝶の夢【地域密着型介護老人福祉施設入所者生活介護】香川県高松市一宮町878--1", "url": "https://www.kaigokensaku.mhlw.go.jp/37/index.php?action_kouhyou_detail_004_kani=true&JigyosyoCd=3790100782-00&ServiceCd=540&Type=search", "url2": "https://www.kishokai.com/" }, "geometry": { "type": "Point", "coordinates": [ 134.028909082918972, 34.291779794521048 ] } },
{ "type": "Feature", "properties": { "内容": "地域密着型特別養護老人ホームうたい鳥【地域密着型介護老人福祉施設入所者生活介護】香川県高松市六条町511番地", "url": "https://www.kaigokensaku.mhlw.go.jp/37/index.php?action_kouhyou_detail_004_kani=true&JigyosyoCd=3790100808-00&ServiceCd=540&Type=search", "url2": "https://www.junshinkai.com/facility/kagawa_takamatsu/entry-166.html" }, "geometry": { "type": "Point", "coordinates": [ 134.078018638623035, 34.290735931040473 ] } },
{ "type": "Feature", "properties": { "内容": "地域密着型特別養護老人ホーム　マイルドハート番町【地域密着型介護老人福祉施設入所者生活介護】香川県高松市番町三丁目14番15号", "url": "https://www.kaigokensaku.mhlw.go.jp/37/index.php?action_kouhyou_detail_004_kani=true&JigyosyoCd=3790101145-00&ServiceCd=540&Type=search", "url2": "https://www.itazufukushikai.or.jo" }, "geometry": { "type": "Point", "coordinates": [ 134.0415351, 34.34176 ] } },
{ "type": "Feature", "properties": { "内容": "地域密着型特別養護老人ホーム　一樹【地域密着型介護老人福祉施設入所者生活介護】香西本町17-9", "url": "https://www.kaigokensaku.mhlw.go.jp/37/index.php?action_kouhyou_detail_004_kani=true&JigyosyoCd=3790101061-00&ServiceCd=540&Type=search", "url2": "syurikai.com" }, "geometry": { "type": "Point", "coordinates": [ 134.003435295631391, 34.349982095453896 ] } },
{ "type": "Feature", "properties": { "内容": "特別養護老人ホーム　華【地域密着型介護老人福祉施設入所者生活介護】香川県丸亀市綾歌町栗熊西224番地2", "url": "https://www.kaigokensaku.mhlw.go.jp/37/index.php?action_kouhyou_detail_004_kani=true&JigyosyoCd=3790200061-00&ServiceCd=540&Type=search", "url2": "http://www.tokuyou-hana.org/" }, "geometry": { "type": "Point", "coordinates": [ 133.883056200000027, 34.2206311 ] } },
{ "type": "Feature", "properties": { "内容": "特別養護老人ホーム珠光園うらら【地域密着型介護老人福祉施設入所者生活介護】丸亀市飯野町東二903番地１", "url": "https://www.kaigokensaku.mhlw.go.jp/37/index.php?action_kouhyou_detail_004_kani=true&JigyosyoCd=3790200012-00&ServiceCd=540&Type=search", "url2": "http://www.k5.dion.ne.jp/^jukoen" }, "geometry": { "type": "Point", "coordinates": [ 133.834158, 34.2705196 ] } },
{ "type": "Feature", "properties": { "内容": "特別養護老人ホーム　珠光園はる【地域密着型介護老人福祉施設入所者生活介護】香川県丸亀市飯野町東二９０３番地1", "url": "https://www.kaigokensaku.mhlw.go.jp/37/index.php?action_kouhyou_detail_004_kani=true&JigyosyoCd=3790200111-00&ServiceCd=540&Type=search", "url2": "http//www.k5.dion.ne.jp/^jukoen" }, "geometry": { "type": "Point", "coordinates": [ 133.834158, 34.2705196 ] } },
{ "type": "Feature", "properties": { "内容": "地域密着型特別養護老人ホームかわつ【地域密着型介護老人福祉施設入所者生活介護】香川県坂出市川津町2787番地1", "url": "https://www.kaigokensaku.mhlw.go.jp/37/index.php?action_kouhyou_detail_004_kani=true&JigyosyoCd=3790300093-00&ServiceCd=540&Type=search", "url2": "http://www.kbn.ne.jp/home/kym0007/index.html" }, "geometry": { "type": "Point", "coordinates": [ 133.855470200000013, 34.2869454 ] } },
{ "type": "Feature", "properties": { "内容": "特別養護老人ホーム　フラワーガーデンひまわり【地域密着型介護老人福祉施設入所者生活介護】香川県坂出市京町三丁目６番５５号", "url": "https://www.kaigokensaku.mhlw.go.jp/37/index.php?action_kouhyou_detail_004_kani=true&JigyosyoCd=3790300192-00&ServiceCd=540&Type=search", "url2": "http://aiyuukai.net" }, "geometry": { "type": "Point", "coordinates": [ 138.252924, 36.204824 ] } },
{ "type": "Feature", "properties": { "内容": "地域密着型特別養護老人ホームネムの木【地域密着型介護老人福祉施設入所者生活介護】豊浜町姫浜41番地1", "url": "https://www.kaigokensaku.mhlw.go.jp/37/index.php?action_kouhyou_detail_004_kani=true&JigyosyoCd=3790500072-00&ServiceCd=540&Type=search", "url2": "http://www.koushi-f.or.jp" }, "geometry": { "type": "Point", "coordinates": [ 133.6381586, 34.0880405 ] } },
{ "type": "Feature", "properties": { "内容": "地域密着型特別養護老人ホームおおはま荘【地域密着型介護老人福祉施設入所者生活介護】香川県三豊市詫間町大浜甲1841番地2", "url": "https://www.kaigokensaku.mhlw.go.jp/37/index.php?action_kouhyou_detail_004_kani=true&JigyosyoCd=3790800076-00&ServiceCd=540&Type=search", "url2": "http://takumaso.com/" }, "geometry": { "type": "Point", "coordinates": [ 133.612702899999931, 34.236441800000016 ] } },
{ "type": "Feature", "properties": { "内容": "地域密着型特別養護老人ホーム　優楽荘【地域密着型介護老人福祉施設入所者生活介護】香川県三豊市山本町辻585番地", "url": "https://www.kaigokensaku.mhlw.go.jp/37/index.php?action_kouhyou_detail_004_kani=true&JigyosyoCd=3790800134-00&ServiceCd=540&Type=search", "url2": "https://aikoukai.net" }, "geometry": { "type": "Point", "coordinates": [ 133.720500384544351, 34.119101978093738 ] } },
{ "type": "Feature", "properties": { "内容": "地域密着型特別養護老人ホームにお荘【地域密着型介護老人福祉施設入所者生活介護】仁尾町仁尾辛42番地19", "url": "https://www.kaigokensaku.mhlw.go.jp/37/index.php?action_kouhyou_detail_004_kani=true&JigyosyoCd=3790800159-00&ServiceCd=540&Type=search", "url2": "http://care-net.biz/37/niosou/" }, "geometry": { "type": "Point", "coordinates": [ 133.643529300000012, 34.1982135 ] } },
{ "type": "Feature", "properties": { "内容": "特別養護老人ホーム　リベラルサンシャイン別館【地域密着型介護老人福祉施設入所者生活介護】香川県小豆郡小豆島町蒲生甲350", "url": "https://www.kaigokensaku.mhlw.go.jp/37/index.php?action_kouhyou_detail_004_kani=true&JigyosyoCd=3791200052-00&ServiceCd=540&Type=search", "url2": "http://www.sunshine-kai.com" }, "geometry": { "type": "Point", "coordinates": [ 134.2161724, 34.4770597 ] } }
]
}
