{
"type": "FeatureCollection",
"name": "geo_37_大学",
"crs": { "type": "name", "properties": { "name": "urn:ogc:def:crs:EPSG::6668" } },
"features": [
{ "type": "Feature", "properties": { "P29_001": "37201", "P29_002": "F137110110310", "P29_003": "16007", "P29_004": "香川大学", "P29_005": "香川県高松市幸町1-1", "P29_006": "1", "P29_007": "0", "P29_008": "01", "P29_009": "幸町キャンパス" }, "geometry": { "type": "Point", "coordinates": [ 134.03762807535341, 34.342809190508078 ] } },
{ "type": "Feature", "properties": { "P29_001": "37201", "P29_002": "F137210110327", "P29_003": "16007", "P29_004": "香川県立保健医療大学", "P29_005": "香川県高松市牟礼町原281-1", "P29_006": "2", "P29_007": "0", "P29_008": "00", "P29_009": null }, "geometry": { "type": "Point", "coordinates": [ 134.157786160192927, 34.321810219198895 ] } },
{ "type": "Feature", "properties": { "P29_001": "37204", "P29_002": "F137310110334", "P29_003": "16007", "P29_004": "四国学院大学", "P29_005": "香川県善通寺市文京町3-2-1", "P29_006": "4", "P29_007": "0", "P29_008": "00", "P29_009": null }, "geometry": { "type": "Point", "coordinates": [ 133.782427648630119, 34.226199956272005 ] } },
{ "type": "Feature", "properties": { "P29_001": "37201", "P29_002": "F137310110343", "P29_003": "16007", "P29_004": "高松大学", "P29_005": "香川県高松市春日町960", "P29_006": "4", "P29_007": "0", "P29_008": "00", "P29_009": null }, "geometry": { "type": "Point", "coordinates": [ 134.087245189882054, 34.329108765274981 ] } },
{ "type": "Feature", "properties": { "P29_001": "37206", "P29_002": "F136310110264", "P29_003": "16007", "P29_004": "徳島文理大学", "P29_005": "香川県さぬき市志度1314-1", "P29_006": "4", "P29_007": "0", "P29_008": "02", "P29_009": "香川キャンパス" }, "geometry": { "type": "Point", "coordinates": [ 134.189805364801089, 34.325342531651785 ] } },
{ "type": "Feature", "properties": { "P29_001": "37201", "P29_002": "F137110110310", "P29_003": "16007", "P29_004": "香川大学", "P29_005": "香川県高松市林町2217-20", "P29_006": "1", "P29_007": "0", "P29_008": "02", "P29_009": "林町キャンパス" }, "geometry": { "type": "Point", "coordinates": [ 134.063691336098685, 34.292919214233073 ] } },
{ "type": "Feature", "properties": { "P29_001": "37341", "P29_002": "F137110110310", "P29_003": "16007", "P29_004": "香川大学", "P29_005": "香川県三木町池戸1750-1", "P29_006": "1", "P29_007": "0", "P29_008": "03", "P29_009": "三木町医学部キャンパス" }, "geometry": { "type": "Point", "coordinates": [ 134.123644986452518, 34.294338113503841 ] } },
{ "type": "Feature", "properties": { "P29_001": "37341", "P29_002": "F137110110310", "P29_003": "16007", "P29_004": "香川大学", "P29_005": "香川県三木町池戸2393", "P29_006": "1", "P29_007": "0", "P29_008": "04", "P29_009": "三木町農学部キャンパス" }, "geometry": { "type": "Point", "coordinates": [ 134.125053634129586, 34.275655597043695 ] } }
]
}
